<?xml version="1.0" encoding="UTF-8"?>
<gpx creator="StravaGPX" version="1.1" xmlns="http://www.topografix.com/GPX/1/1" xmlns:xsi="http://www.w3.org/2001/XMLSchema-instance" xsi:schemaLocation="http://www.topografix.com/GPX/1/1 http://www.topografix.com/GPX/1/1/gpx.xsd">
 <metadata>
  <time>2024-07-09T01:31:29Z</time>
 </metadata>
 <trk>
  <name>Ride</name>
  <type>cycling</type>
  <trkseg>
   <trkpt lat="35.2701700" lon="113.9120500">
    <ele>71.6</ele>
    <time>2024-07-09T01:31:29Z</time>
   </trkpt>
   <trkpt lat="35.2701720" lon="113.9120500">
    <ele>71.6</ele>
    <time>2024-07-09T01:31:31Z</time>
   </trkpt>
   <trkpt lat="35.2701800" lon="113.9120500">
    <ele>71.6</ele>
    <time>2024-07-09T01:31:32Z</time>
   </trkpt>
   <trkpt lat="35.2701870" lon="113.9120500">
    <ele>71.6</ele>
    <time>2024-07-09T01:31:33Z</time>
   </trkpt>
   <trkpt lat="35.2702060" lon="113.9120500">
    <ele>71.7</ele>
    <time>2024-07-09T01:31:34Z</time>
   </trkpt>
   <trkpt lat="35.2702140" lon="113.9120400">
    <ele>71.7</ele>
    <time>2024-07-09T01:31:35Z</time>
   </trkpt>
   <trkpt lat="35.2702330" lon="113.9120400">
    <ele>71.7</ele>
    <time>2024-07-09T01:31:36Z</time>
   </trkpt>
   <trkpt lat="35.2702560" lon="113.9120400">
    <ele>71.8</ele>
    <time>2024-07-09T01:31:37Z</time>
   </trkpt>
   <trkpt lat="35.2702800" lon="113.9120400">
    <ele>71.8</ele>
    <time>2024-07-09T01:31:38Z</time>
   </trkpt>
   <trkpt lat="35.2703000" lon="113.9120400">
    <ele>71.8</ele>
    <time>2024-07-09T01:31:39Z</time>
   </trkpt>
   <trkpt lat="35.2703300" lon="113.9120400">
    <ele>71.9</ele>
    <time>2024-07-09T01:31:40Z</time>
   </trkpt>
   <trkpt lat="35.2703500" lon="113.9120400">
    <ele>71.9</ele>
    <time>2024-07-09T01:31:41Z</time>
   </trkpt>
   <trkpt lat="35.2703800" lon="113.9120500">
    <ele>71.9</ele>
    <time>2024-07-09T01:31:42Z</time>
   </trkpt>
   <trkpt lat="35.2704050" lon="113.9120500">
    <ele>72.0</ele>
    <time>2024-07-09T01:31:43Z</time>
   </trkpt>
   <trkpt lat="35.2704300" lon="113.9120500">
    <ele>72.0</ele>
    <time>2024-07-09T01:31:44Z</time>
   </trkpt>
   <trkpt lat="35.2704600" lon="113.9120500">
    <ele>72.0</ele>
    <time>2024-07-09T01:31:45Z</time>
   </trkpt>
   <trkpt lat="35.2704900" lon="113.9120560">
    <ele>72.1</ele>
    <time>2024-07-09T01:31:46Z</time>
   </trkpt>
   <trkpt lat="35.2705200" lon="113.9120560">
    <ele>72.1</ele>
    <time>2024-07-09T01:31:47Z</time>
   </trkpt>
   <trkpt lat="35.2705760" lon="113.9120560">
    <ele>72.3</ele>
    <time>2024-07-09T01:31:49Z</time>
   </trkpt>
   <trkpt lat="35.2706400" lon="113.9120560">
    <ele>72.4</ele>
    <time>2024-07-09T01:31:51Z</time>
   </trkpt>
   <trkpt lat="35.2707000" lon="113.9120560">
    <ele>72.5</ele>
    <time>2024-07-09T01:31:53Z</time>
   </trkpt>
   <trkpt lat="35.2707630" lon="113.9120500">
    <ele>72.7</ele>
    <time>2024-07-09T01:31:55Z</time>
   </trkpt>
   <trkpt lat="35.2708300" lon="113.9120500">
    <ele>72.9</ele>
    <time>2024-07-09T01:31:57Z</time>
   </trkpt>
   <trkpt lat="35.2709000" lon="113.9120500">
    <ele>73.2</ele>
    <time>2024-07-09T01:31:59Z</time>
   </trkpt>
   <trkpt lat="35.2709660" lon="113.9120400">
    <ele>73.5</ele>
    <time>2024-07-09T01:32:01Z</time>
   </trkpt>
   <trkpt lat="35.2709960" lon="113.9120400">
    <ele>73.6</ele>
    <time>2024-07-09T01:32:02Z</time>
   </trkpt>
   <trkpt lat="35.2710300" lon="113.9120400">
    <ele>73.8</ele>
    <time>2024-07-09T01:32:03Z</time>
   </trkpt>
   <trkpt lat="35.2710600" lon="113.9120400">
    <ele>73.9</ele>
    <time>2024-07-09T01:32:04Z</time>
   </trkpt>
   <trkpt lat="35.2710950" lon="113.9120400">
    <ele>73.8</ele>
    <time>2024-07-09T01:32:05Z</time>
   </trkpt>
   <trkpt lat="35.2711260" lon="113.9120500">
    <ele>73.8</ele>
    <time>2024-07-09T01:32:06Z</time>
   </trkpt>
   <trkpt lat="35.2711560" lon="113.9120500">
    <ele>73.7</ele>
    <time>2024-07-09T01:32:07Z</time>
   </trkpt>
   <trkpt lat="35.2711900" lon="113.9120500">
    <ele>73.6</ele>
    <time>2024-07-09T01:32:08Z</time>
   </trkpt>
   <trkpt lat="35.2712200" lon="113.9120500">
    <ele>73.6</ele>
    <time>2024-07-09T01:32:09Z</time>
   </trkpt>
   <trkpt lat="35.2712550" lon="113.9120500">
    <ele>73.6</ele>
    <time>2024-07-09T01:32:10Z</time>
   </trkpt>
   <trkpt lat="35.2712900" lon="113.9120500">
    <ele>73.6</ele>
    <time>2024-07-09T01:32:11Z</time>
   </trkpt>
   <trkpt lat="35.2713240" lon="113.9120560">
    <ele>73.6</ele>
    <time>2024-07-09T01:32:12Z</time>
   </trkpt>
   <trkpt lat="35.2713600" lon="113.9120560">
    <ele>73.6</ele>
    <time>2024-07-09T01:32:13Z</time>
   </trkpt>
   <trkpt lat="35.2713930" lon="113.9120600">
    <ele>73.6</ele>
    <time>2024-07-09T01:32:14Z</time>
   </trkpt>
   <trkpt lat="35.2714270" lon="113.9120600">
    <ele>73.5</ele>
    <time>2024-07-09T01:32:15Z</time>
   </trkpt>
   <trkpt lat="35.2714580" lon="113.9120600">
    <ele>73.5</ele>
    <time>2024-07-09T01:32:16Z</time>
   </trkpt>
   <trkpt lat="35.2714960" lon="113.9120700">
    <ele>73.5</ele>
    <time>2024-07-09T01:32:17Z</time>
   </trkpt>
   <trkpt lat="35.2715300" lon="113.9120700">
    <ele>73.5</ele>
    <time>2024-07-09T01:32:18Z</time>
   </trkpt>
   <trkpt lat="35.2716000" lon="113.9120560">
    <ele>73.6</ele>
    <time>2024-07-09T01:32:20Z</time>
   </trkpt>
   <trkpt lat="35.2716670" lon="113.9120560">
    <ele>73.6</ele>
    <time>2024-07-09T01:32:22Z</time>
   </trkpt>
   <trkpt lat="35.2717000" lon="113.9120560">
    <ele>73.6</ele>
    <time>2024-07-09T01:32:23Z</time>
   </trkpt>
   <trkpt lat="35.2717360" lon="113.9120560">
    <ele>73.6</ele>
    <time>2024-07-09T01:32:24Z</time>
   </trkpt>
   <trkpt lat="35.2717700" lon="113.9120560">
    <ele>73.6</ele>
    <time>2024-07-09T01:32:25Z</time>
   </trkpt>
   <trkpt lat="35.2718050" lon="113.9120560">
    <ele>73.6</ele>
    <time>2024-07-09T01:32:26Z</time>
   </trkpt>
   <trkpt lat="35.2718350" lon="113.9120560">
    <ele>73.6</ele>
    <time>2024-07-09T01:32:27Z</time>
   </trkpt>
   <trkpt lat="35.2718700" lon="113.9120560">
    <ele>73.6</ele>
    <time>2024-07-09T01:32:28Z</time>
   </trkpt>
   <trkpt lat="35.2719040" lon="113.9120560">
    <ele>73.6</ele>
    <time>2024-07-09T01:32:29Z</time>
   </trkpt>
   <trkpt lat="35.2719350" lon="113.9120560">
    <ele>73.6</ele>
    <time>2024-07-09T01:32:30Z</time>
   </trkpt>
   <trkpt lat="35.2719700" lon="113.9120560">
    <ele>73.6</ele>
    <time>2024-07-09T01:32:31Z</time>
   </trkpt>
   <trkpt lat="35.2720030" lon="113.9120560">
    <ele>73.6</ele>
    <time>2024-07-09T01:32:32Z</time>
   </trkpt>
   <trkpt lat="35.2720380" lon="113.9120560">
    <ele>73.5</ele>
    <time>2024-07-09T01:32:33Z</time>
   </trkpt>
   <trkpt lat="35.2720680" lon="113.9120560">
    <ele>73.5</ele>
    <time>2024-07-09T01:32:34Z</time>
   </trkpt>
   <trkpt lat="35.2721000" lon="113.9120560">
    <ele>73.4</ele>
    <time>2024-07-09T01:32:35Z</time>
   </trkpt>
   <trkpt lat="35.2721330" lon="113.9120560">
    <ele>73.4</ele>
    <time>2024-07-09T01:32:36Z</time>
   </trkpt>
   <trkpt lat="35.2721630" lon="113.9120560">
    <ele>73.3</ele>
    <time>2024-07-09T01:32:37Z</time>
   </trkpt>
   <trkpt lat="35.2721940" lon="113.9120500">
    <ele>73.3</ele>
    <time>2024-07-09T01:32:38Z</time>
   </trkpt>
   <trkpt lat="35.2722240" lon="113.9120400">
    <ele>73.2</ele>
    <time>2024-07-09T01:32:39Z</time>
   </trkpt>
   <trkpt lat="35.2722600" lon="113.9120300">
    <ele>73.2</ele>
    <time>2024-07-09T01:32:40Z</time>
   </trkpt>
   <trkpt lat="35.2722900" lon="113.9120250">
    <ele>73.2</ele>
    <time>2024-07-09T01:32:41Z</time>
   </trkpt>
   <trkpt lat="35.2723240" lon="113.9120300">
    <ele>73.2</ele>
    <time>2024-07-09T01:32:42Z</time>
   </trkpt>
   <trkpt lat="35.2723540" lon="113.9120400">
    <ele>73.1</ele>
    <time>2024-07-09T01:32:43Z</time>
   </trkpt>
   <trkpt lat="35.2723850" lon="113.9120560">
    <ele>73.1</ele>
    <time>2024-07-09T01:32:44Z</time>
   </trkpt>
   <trkpt lat="35.2724200" lon="113.9120600">
    <ele>73.1</ele>
    <time>2024-07-09T01:32:45Z</time>
   </trkpt>
   <trkpt lat="35.2724530" lon="113.9120700">
    <ele>73.0</ele>
    <time>2024-07-09T01:32:46Z</time>
   </trkpt>
   <trkpt lat="35.2724880" lon="113.9120700">
    <ele>73.0</ele>
    <time>2024-07-09T01:32:47Z</time>
   </trkpt>
   <trkpt lat="35.2725220" lon="113.9120700">
    <ele>73.0</ele>
    <time>2024-07-09T01:32:48Z</time>
   </trkpt>
   <trkpt lat="35.2725560" lon="113.9120700">
    <ele>73.0</ele>
    <time>2024-07-09T01:32:49Z</time>
   </trkpt>
   <trkpt lat="35.2725900" lon="113.9120700">
    <ele>73.0</ele>
    <time>2024-07-09T01:32:50Z</time>
   </trkpt>
   <trkpt lat="35.2726250" lon="113.9120600">
    <ele>73.0</ele>
    <time>2024-07-09T01:32:51Z</time>
   </trkpt>
   <trkpt lat="35.2726600" lon="113.9120600">
    <ele>73.1</ele>
    <time>2024-07-09T01:32:52Z</time>
   </trkpt>
   <trkpt lat="35.2726940" lon="113.9120600">
    <ele>73.1</ele>
    <time>2024-07-09T01:32:53Z</time>
   </trkpt>
   <trkpt lat="35.2727280" lon="113.9120600">
    <ele>73.2</ele>
    <time>2024-07-09T01:32:54Z</time>
   </trkpt>
   <trkpt lat="35.2727620" lon="113.9120600">
    <ele>73.2</ele>
    <time>2024-07-09T01:32:55Z</time>
   </trkpt>
   <trkpt lat="35.2727930" lon="113.9120600">
    <ele>73.2</ele>
    <time>2024-07-09T01:32:56Z</time>
   </trkpt>
   <trkpt lat="35.2728270" lon="113.9120600">
    <ele>73.3</ele>
    <time>2024-07-09T01:32:57Z</time>
   </trkpt>
   <trkpt lat="35.2728600" lon="113.9120600">
    <ele>73.3</ele>
    <time>2024-07-09T01:32:58Z</time>
   </trkpt>
   <trkpt lat="35.2728920" lon="113.9120600">
    <ele>73.3</ele>
    <time>2024-07-09T01:32:59Z</time>
   </trkpt>
   <trkpt lat="35.2729260" lon="113.9120600">
    <ele>73.3</ele>
    <time>2024-07-09T01:33:00Z</time>
   </trkpt>
   <trkpt lat="35.2729600" lon="113.9120600">
    <ele>73.4</ele>
    <time>2024-07-09T01:33:01Z</time>
   </trkpt>
   <trkpt lat="35.2729950" lon="113.9120600">
    <ele>73.4</ele>
    <time>2024-07-09T01:33:02Z</time>
   </trkpt>
   <trkpt lat="35.2730300" lon="113.9120600">
    <ele>73.4</ele>
    <time>2024-07-09T01:33:03Z</time>
   </trkpt>
   <trkpt lat="35.2730640" lon="113.9120600">
    <ele>73.5</ele>
    <time>2024-07-09T01:33:04Z</time>
   </trkpt>
   <trkpt lat="35.2730940" lon="113.9120600">
    <ele>73.5</ele>
    <time>2024-07-09T01:33:05Z</time>
   </trkpt>
   <trkpt lat="35.2731300" lon="113.9120600">
    <ele>73.5</ele>
    <time>2024-07-09T01:33:06Z</time>
   </trkpt>
   <trkpt lat="35.2731630" lon="113.9120600">
    <ele>73.5</ele>
    <time>2024-07-09T01:33:07Z</time>
   </trkpt>
   <trkpt lat="35.2731970" lon="113.9120600">
    <ele>73.5</ele>
    <time>2024-07-09T01:33:08Z</time>
   </trkpt>
   <trkpt lat="35.2732300" lon="113.9120600">
    <ele>73.5</ele>
    <time>2024-07-09T01:33:09Z</time>
   </trkpt>
   <trkpt lat="35.2732700" lon="113.9120600">
    <ele>73.5</ele>
    <time>2024-07-09T01:33:10Z</time>
   </trkpt>
   <trkpt lat="35.2733040" lon="113.9120600">
    <ele>73.6</ele>
    <time>2024-07-09T01:33:11Z</time>
   </trkpt>
   <trkpt lat="35.2733400" lon="113.9120600">
    <ele>73.6</ele>
    <time>2024-07-09T01:33:12Z</time>
   </trkpt>
   <trkpt lat="35.2733700" lon="113.9120600">
    <ele>73.6</ele>
    <time>2024-07-09T01:33:13Z</time>
   </trkpt>
   <trkpt lat="35.2734030" lon="113.9120600">
    <ele>73.6</ele>
    <time>2024-07-09T01:33:14Z</time>
   </trkpt>
   <trkpt lat="35.2734380" lon="113.9120600">
    <ele>73.6</ele>
    <time>2024-07-09T01:33:15Z</time>
   </trkpt>
   <trkpt lat="35.2734700" lon="113.9120600">
    <ele>73.6</ele>
    <time>2024-07-09T01:33:16Z</time>
   </trkpt>
   <trkpt lat="35.2735060" lon="113.9120600">
    <ele>73.6</ele>
    <time>2024-07-09T01:33:17Z</time>
   </trkpt>
   <trkpt lat="35.2735400" lon="113.9120600">
    <ele>73.6</ele>
    <time>2024-07-09T01:33:18Z</time>
   </trkpt>
   <trkpt lat="35.2735750" lon="113.9120600">
    <ele>73.6</ele>
    <time>2024-07-09T01:33:19Z</time>
   </trkpt>
   <trkpt lat="35.2736050" lon="113.9120600">
    <ele>73.6</ele>
    <time>2024-07-09T01:33:20Z</time>
   </trkpt>
   <trkpt lat="35.2736400" lon="113.9120600">
    <ele>73.6</ele>
    <time>2024-07-09T01:33:21Z</time>
   </trkpt>
   <trkpt lat="35.2736740" lon="113.9120560">
    <ele>73.7</ele>
    <time>2024-07-09T01:33:22Z</time>
   </trkpt>
   <trkpt lat="35.2737100" lon="113.9120560">
    <ele>73.7</ele>
    <time>2024-07-09T01:33:23Z</time>
   </trkpt>
   <trkpt lat="35.2737400" lon="113.9120560">
    <ele>73.7</ele>
    <time>2024-07-09T01:33:24Z</time>
   </trkpt>
   <trkpt lat="35.2737730" lon="113.9120560">
    <ele>73.7</ele>
    <time>2024-07-09T01:33:25Z</time>
   </trkpt>
   <trkpt lat="35.2738080" lon="113.9120600">
    <ele>73.7</ele>
    <time>2024-07-09T01:33:26Z</time>
   </trkpt>
   <trkpt lat="35.2738400" lon="113.9120600">
    <ele>73.7</ele>
    <time>2024-07-09T01:33:27Z</time>
   </trkpt>
   <trkpt lat="35.2738760" lon="113.9120600">
    <ele>73.6</ele>
    <time>2024-07-09T01:33:28Z</time>
   </trkpt>
   <trkpt lat="35.2739100" lon="113.9120600">
    <ele>73.6</ele>
    <time>2024-07-09T01:33:29Z</time>
   </trkpt>
   <trkpt lat="35.2739450" lon="113.9120600">
    <ele>73.6</ele>
    <time>2024-07-09T01:33:30Z</time>
   </trkpt>
   <trkpt lat="35.2739800" lon="113.9120600">
    <ele>73.6</ele>
    <time>2024-07-09T01:33:31Z</time>
   </trkpt>
   <trkpt lat="35.2740100" lon="113.9120600">
    <ele>73.5</ele>
    <time>2024-07-09T01:33:32Z</time>
   </trkpt>
   <trkpt lat="35.2740440" lon="113.9120700">
    <ele>73.5</ele>
    <time>2024-07-09T01:33:33Z</time>
   </trkpt>
   <trkpt lat="35.2740750" lon="113.9120700">
    <ele>73.4</ele>
    <time>2024-07-09T01:33:34Z</time>
   </trkpt>
   <trkpt lat="35.2741100" lon="113.9120700">
    <ele>73.4</ele>
    <time>2024-07-09T01:33:35Z</time>
   </trkpt>
   <trkpt lat="35.2741430" lon="113.9120700">
    <ele>73.3</ele>
    <time>2024-07-09T01:33:36Z</time>
   </trkpt>
   <trkpt lat="35.2741740" lon="113.9120700">
    <ele>73.3</ele>
    <time>2024-07-09T01:33:37Z</time>
   </trkpt>
   <trkpt lat="35.2742080" lon="113.9120700">
    <ele>73.2</ele>
    <time>2024-07-09T01:33:38Z</time>
   </trkpt>
   <trkpt lat="35.2742420" lon="113.9120700">
    <ele>73.2</ele>
    <time>2024-07-09T01:33:39Z</time>
   </trkpt>
   <trkpt lat="35.2742770" lon="113.9120700">
    <ele>73.2</ele>
    <time>2024-07-09T01:33:40Z</time>
   </trkpt>
   <trkpt lat="35.2743150" lon="113.9120900">
    <ele>73.2</ele>
    <time>2024-07-09T01:33:41Z</time>
   </trkpt>
   <trkpt lat="35.2743840" lon="113.9120940">
    <ele>73.2</ele>
    <time>2024-07-09T01:33:43Z</time>
   </trkpt>
   <trkpt lat="35.2744520" lon="113.9120940">
    <ele>73.1</ele>
    <time>2024-07-09T01:33:45Z</time>
   </trkpt>
   <trkpt lat="35.2744870" lon="113.9120940">
    <ele>73.1</ele>
    <time>2024-07-09T01:33:46Z</time>
   </trkpt>
   <trkpt lat="35.2745170" lon="113.9120940">
    <ele>73.1</ele>
    <time>2024-07-09T01:33:47Z</time>
   </trkpt>
   <trkpt lat="35.2745550" lon="113.9120940">
    <ele>73.0</ele>
    <time>2024-07-09T01:33:48Z</time>
   </trkpt>
   <trkpt lat="35.2745900" lon="113.9121000">
    <ele>72.9</ele>
    <time>2024-07-09T01:33:49Z</time>
   </trkpt>
   <trkpt lat="35.2746240" lon="113.9121000">
    <ele>72.9</ele>
    <time>2024-07-09T01:33:50Z</time>
   </trkpt>
   <trkpt lat="35.2746600" lon="113.9121000">
    <ele>72.8</ele>
    <time>2024-07-09T01:33:51Z</time>
   </trkpt>
   <trkpt lat="35.2746930" lon="113.9121000">
    <ele>72.7</ele>
    <time>2024-07-09T01:33:52Z</time>
   </trkpt>
   <trkpt lat="35.2747270" lon="113.9121000">
    <ele>72.6</ele>
    <time>2024-07-09T01:33:53Z</time>
   </trkpt>
   <trkpt lat="35.2747600" lon="113.9121000">
    <ele>72.6</ele>
    <time>2024-07-09T01:33:54Z</time>
   </trkpt>
   <trkpt lat="35.2747960" lon="113.9121000">
    <ele>72.5</ele>
    <time>2024-07-09T01:33:55Z</time>
   </trkpt>
   <trkpt lat="35.2748300" lon="113.9121000">
    <ele>72.5</ele>
    <time>2024-07-09T01:33:56Z</time>
   </trkpt>
   <trkpt lat="35.2748600" lon="113.9120940">
    <ele>72.5</ele>
    <time>2024-07-09T01:33:57Z</time>
   </trkpt>
   <trkpt lat="35.2748950" lon="113.9120940">
    <ele>72.4</ele>
    <time>2024-07-09T01:33:58Z</time>
   </trkpt>
   <trkpt lat="35.2749250" lon="113.9120940">
    <ele>72.4</ele>
    <time>2024-07-09T01:33:59Z</time>
   </trkpt>
   <trkpt lat="35.2749560" lon="113.9120940">
    <ele>72.3</ele>
    <time>2024-07-09T01:34:00Z</time>
   </trkpt>
   <trkpt lat="35.2749900" lon="113.9120940">
    <ele>72.3</ele>
    <time>2024-07-09T01:34:01Z</time>
   </trkpt>
   <trkpt lat="35.2750200" lon="113.9121000">
    <ele>72.2</ele>
    <time>2024-07-09T01:34:02Z</time>
   </trkpt>
   <trkpt lat="35.2750500" lon="113.9121000">
    <ele>72.2</ele>
    <time>2024-07-09T01:34:03Z</time>
   </trkpt>
   <trkpt lat="35.2750800" lon="113.9121100">
    <ele>72.4</ele>
    <time>2024-07-09T01:34:04Z</time>
   </trkpt>
   <trkpt lat="35.2751120" lon="113.9121100">
    <ele>72.6</ele>
    <time>2024-07-09T01:34:05Z</time>
   </trkpt>
   <trkpt lat="35.2751430" lon="113.9121100">
    <ele>72.8</ele>
    <time>2024-07-09T01:34:06Z</time>
   </trkpt>
   <trkpt lat="35.2751730" lon="113.9121100">
    <ele>72.8</ele>
    <time>2024-07-09T01:34:07Z</time>
   </trkpt>
   <trkpt lat="35.2752080" lon="113.9121100">
    <ele>72.8</ele>
    <time>2024-07-09T01:34:08Z</time>
   </trkpt>
   <trkpt lat="35.2752380" lon="113.9121100">
    <ele>72.8</ele>
    <time>2024-07-09T01:34:09Z</time>
   </trkpt>
   <trkpt lat="35.2752720" lon="113.9121100">
    <ele>72.8</ele>
    <time>2024-07-09T01:34:10Z</time>
   </trkpt>
   <trkpt lat="35.2753070" lon="113.9121100">
    <ele>72.8</ele>
    <time>2024-07-09T01:34:11Z</time>
   </trkpt>
   <trkpt lat="35.2753370" lon="113.9121000">
    <ele>72.8</ele>
    <time>2024-07-09T01:34:12Z</time>
   </trkpt>
   <trkpt lat="35.2753700" lon="113.9121100">
    <ele>72.8</ele>
    <time>2024-07-09T01:34:13Z</time>
   </trkpt>
   <trkpt lat="35.2754060" lon="113.9121000">
    <ele>72.8</ele>
    <time>2024-07-09T01:34:14Z</time>
   </trkpt>
   <trkpt lat="35.2754400" lon="113.9121000">
    <ele>72.8</ele>
    <time>2024-07-09T01:34:15Z</time>
   </trkpt>
   <trkpt lat="35.2754750" lon="113.9121000">
    <ele>72.7</ele>
    <time>2024-07-09T01:34:16Z</time>
   </trkpt>
   <trkpt lat="35.2755100" lon="113.9121000">
    <ele>72.7</ele>
    <time>2024-07-09T01:34:17Z</time>
   </trkpt>
   <trkpt lat="35.2755430" lon="113.9120940">
    <ele>72.7</ele>
    <time>2024-07-09T01:34:18Z</time>
   </trkpt>
   <trkpt lat="35.2755780" lon="113.9120940">
    <ele>72.6</ele>
    <time>2024-07-09T01:34:19Z</time>
   </trkpt>
   <trkpt lat="35.2756100" lon="113.9120940">
    <ele>72.5</ele>
    <time>2024-07-09T01:34:20Z</time>
   </trkpt>
   <trkpt lat="35.2756460" lon="113.9120940">
    <ele>72.5</ele>
    <time>2024-07-09T01:34:21Z</time>
   </trkpt>
   <trkpt lat="35.2756770" lon="113.9121000">
    <ele>72.4</ele>
    <time>2024-07-09T01:34:22Z</time>
   </trkpt>
   <trkpt lat="35.2757070" lon="113.9121000">
    <ele>72.4</ele>
    <time>2024-07-09T01:34:23Z</time>
   </trkpt>
   <trkpt lat="35.2757400" lon="113.9121000">
    <ele>72.3</ele>
    <time>2024-07-09T01:34:24Z</time>
   </trkpt>
   <trkpt lat="35.2757720" lon="113.9121000">
    <ele>72.3</ele>
    <time>2024-07-09T01:34:25Z</time>
   </trkpt>
   <trkpt lat="35.2758030" lon="113.9120940">
    <ele>72.2</ele>
    <time>2024-07-09T01:34:26Z</time>
   </trkpt>
   <trkpt lat="35.2758370" lon="113.9120940">
    <ele>72.1</ele>
    <time>2024-07-09T01:34:27Z</time>
   </trkpt>
   <trkpt lat="35.2758670" lon="113.9120940">
    <ele>72.0</ele>
    <time>2024-07-09T01:34:28Z</time>
   </trkpt>
   <trkpt lat="35.2758980" lon="113.9120940">
    <ele>72.0</ele>
    <time>2024-07-09T01:34:29Z</time>
   </trkpt>
   <trkpt lat="35.2759320" lon="113.9120900">
    <ele>71.9</ele>
    <time>2024-07-09T01:34:30Z</time>
   </trkpt>
   <trkpt lat="35.2759630" lon="113.9120900">
    <ele>71.9</ele>
    <time>2024-07-09T01:34:31Z</time>
   </trkpt>
   <trkpt lat="35.2759930" lon="113.9120900">
    <ele>71.9</ele>
    <time>2024-07-09T01:34:32Z</time>
   </trkpt>
   <trkpt lat="35.2760240" lon="113.9120900">
    <ele>71.8</ele>
    <time>2024-07-09T01:34:33Z</time>
   </trkpt>
   <trkpt lat="35.2760540" lon="113.9120800">
    <ele>71.8</ele>
    <time>2024-07-09T01:34:34Z</time>
   </trkpt>
   <trkpt lat="35.2760900" lon="113.9120800">
    <ele>71.7</ele>
    <time>2024-07-09T01:34:35Z</time>
   </trkpt>
   <trkpt lat="35.2761200" lon="113.9120800">
    <ele>71.7</ele>
    <time>2024-07-09T01:34:36Z</time>
   </trkpt>
   <trkpt lat="35.2761500" lon="113.9120900">
    <ele>71.6</ele>
    <time>2024-07-09T01:34:37Z</time>
   </trkpt>
   <trkpt lat="35.2761800" lon="113.9120800">
    <ele>71.6</ele>
    <time>2024-07-09T01:34:38Z</time>
   </trkpt>
   <trkpt lat="35.2762150" lon="113.9120800">
    <ele>71.5</ele>
    <time>2024-07-09T01:34:39Z</time>
   </trkpt>
   <trkpt lat="35.2762450" lon="113.9120800">
    <ele>71.4</ele>
    <time>2024-07-09T01:34:40Z</time>
   </trkpt>
   <trkpt lat="35.2762760" lon="113.9120800">
    <ele>71.4</ele>
    <time>2024-07-09T01:34:41Z</time>
   </trkpt>
   <trkpt lat="35.2763100" lon="113.9120800">
    <ele>71.3</ele>
    <time>2024-07-09T01:34:42Z</time>
   </trkpt>
   <trkpt lat="35.2763400" lon="113.9120800">
    <ele>71.2</ele>
    <time>2024-07-09T01:34:43Z</time>
   </trkpt>
   <trkpt lat="35.2763750" lon="113.9120800">
    <ele>71.2</ele>
    <time>2024-07-09T01:34:44Z</time>
   </trkpt>
   <trkpt lat="35.2764050" lon="113.9120800">
    <ele>71.1</ele>
    <time>2024-07-09T01:34:45Z</time>
   </trkpt>
   <trkpt lat="35.2764360" lon="113.9120800">
    <ele>71.0</ele>
    <time>2024-07-09T01:34:46Z</time>
   </trkpt>
   <trkpt lat="35.2764700" lon="113.9120800">
    <ele>71.0</ele>
    <time>2024-07-09T01:34:47Z</time>
   </trkpt>
   <trkpt lat="35.2765000" lon="113.9120800">
    <ele>70.9</ele>
    <time>2024-07-09T01:34:48Z</time>
   </trkpt>
   <trkpt lat="35.2765350" lon="113.9120800">
    <ele>70.9</ele>
    <time>2024-07-09T01:34:49Z</time>
   </trkpt>
   <trkpt lat="35.2765660" lon="113.9120900">
    <ele>70.8</ele>
    <time>2024-07-09T01:34:50Z</time>
   </trkpt>
   <trkpt lat="35.2765960" lon="113.9120900">
    <ele>70.8</ele>
    <time>2024-07-09T01:34:51Z</time>
   </trkpt>
   <trkpt lat="35.2766300" lon="113.9120900">
    <ele>70.8</ele>
    <time>2024-07-09T01:34:52Z</time>
   </trkpt>
   <trkpt lat="35.2766600" lon="113.9120800">
    <ele>70.7</ele>
    <time>2024-07-09T01:34:53Z</time>
   </trkpt>
   <trkpt lat="35.2766950" lon="113.9120900">
    <ele>70.7</ele>
    <time>2024-07-09T01:34:54Z</time>
   </trkpt>
   <trkpt lat="35.2767260" lon="113.9120900">
    <ele>70.7</ele>
    <time>2024-07-09T01:34:55Z</time>
   </trkpt>
   <trkpt lat="35.2767600" lon="113.9120900">
    <ele>70.6</ele>
    <time>2024-07-09T01:34:56Z</time>
   </trkpt>
   <trkpt lat="35.2767900" lon="113.9120900">
    <ele>70.6</ele>
    <time>2024-07-09T01:34:57Z</time>
   </trkpt>
   <trkpt lat="35.2768200" lon="113.9120900">
    <ele>70.6</ele>
    <time>2024-07-09T01:34:58Z</time>
   </trkpt>
   <trkpt lat="35.2768550" lon="113.9120900">
    <ele>70.6</ele>
    <time>2024-07-09T01:34:59Z</time>
   </trkpt>
   <trkpt lat="35.2768860" lon="113.9120940">
    <ele>70.6</ele>
    <time>2024-07-09T01:35:00Z</time>
   </trkpt>
   <trkpt lat="35.2769200" lon="113.9120940">
    <ele>70.6</ele>
    <time>2024-07-09T01:35:01Z</time>
   </trkpt>
   <trkpt lat="35.2769500" lon="113.9120900">
    <ele>70.6</ele>
    <time>2024-07-09T01:35:02Z</time>
   </trkpt>
   <trkpt lat="35.2769800" lon="113.9120900">
    <ele>70.6</ele>
    <time>2024-07-09T01:35:03Z</time>
   </trkpt>
   <trkpt lat="35.2770160" lon="113.9120900">
    <ele>70.6</ele>
    <time>2024-07-09T01:35:04Z</time>
   </trkpt>
   <trkpt lat="35.2770500" lon="113.9120900">
    <ele>70.6</ele>
    <time>2024-07-09T01:35:05Z</time>
   </trkpt>
   <trkpt lat="35.2770840" lon="113.9120900">
    <ele>70.6</ele>
    <time>2024-07-09T01:35:06Z</time>
   </trkpt>
   <trkpt lat="35.2771150" lon="113.9120900">
    <ele>70.6</ele>
    <time>2024-07-09T01:35:07Z</time>
   </trkpt>
   <trkpt lat="35.2771500" lon="113.9120900">
    <ele>70.6</ele>
    <time>2024-07-09T01:35:08Z</time>
   </trkpt>
   <trkpt lat="35.2771840" lon="113.9120900">
    <ele>70.6</ele>
    <time>2024-07-09T01:35:09Z</time>
   </trkpt>
   <trkpt lat="35.2772180" lon="113.9120900">
    <ele>70.6</ele>
    <time>2024-07-09T01:35:10Z</time>
   </trkpt>
   <trkpt lat="35.2772500" lon="113.9120900">
    <ele>70.6</ele>
    <time>2024-07-09T01:35:11Z</time>
   </trkpt>
   <trkpt lat="35.2772830" lon="113.9120900">
    <ele>70.6</ele>
    <time>2024-07-09T01:35:12Z</time>
   </trkpt>
   <trkpt lat="35.2773170" lon="113.9120800">
    <ele>70.6</ele>
    <time>2024-07-09T01:35:13Z</time>
   </trkpt>
   <trkpt lat="35.2773500" lon="113.9120900">
    <ele>70.7</ele>
    <time>2024-07-09T01:35:14Z</time>
   </trkpt>
   <trkpt lat="35.2773860" lon="113.9120900">
    <ele>70.7</ele>
    <time>2024-07-09T01:35:15Z</time>
   </trkpt>
   <trkpt lat="35.2774200" lon="113.9120900">
    <ele>70.7</ele>
    <time>2024-07-09T01:35:16Z</time>
   </trkpt>
   <trkpt lat="35.2774500" lon="113.9120900">
    <ele>70.7</ele>
    <time>2024-07-09T01:35:17Z</time>
   </trkpt>
   <trkpt lat="35.2774850" lon="113.9120900">
    <ele>70.8</ele>
    <time>2024-07-09T01:35:18Z</time>
   </trkpt>
   <trkpt lat="35.2775150" lon="113.9120900">
    <ele>70.8</ele>
    <time>2024-07-09T01:35:19Z</time>
   </trkpt>
   <trkpt lat="35.2775460" lon="113.9120900">
    <ele>70.8</ele>
    <time>2024-07-09T01:35:20Z</time>
   </trkpt>
   <trkpt lat="35.2775730" lon="113.9120900">
    <ele>70.9</ele>
    <time>2024-07-09T01:35:21Z</time>
   </trkpt>
   <trkpt lat="35.2776000" lon="113.9120800">
    <ele>70.9</ele>
    <time>2024-07-09T01:35:22Z</time>
   </trkpt>
   <trkpt lat="35.2776300" lon="113.9120800">
    <ele>71.0</ele>
    <time>2024-07-09T01:35:23Z</time>
   </trkpt>
   <trkpt lat="35.2776640" lon="113.9120800">
    <ele>71.1</ele>
    <time>2024-07-09T01:35:24Z</time>
   </trkpt>
   <trkpt lat="35.2776900" lon="113.9120900">
    <ele>71.2</ele>
    <time>2024-07-09T01:35:25Z</time>
   </trkpt>
   <trkpt lat="35.2777200" lon="113.9120940">
    <ele>71.2</ele>
    <time>2024-07-09T01:35:26Z</time>
   </trkpt>
   <trkpt lat="35.2777520" lon="113.9120940">
    <ele>71.3</ele>
    <time>2024-07-09T01:35:27Z</time>
   </trkpt>
   <trkpt lat="35.2777750" lon="113.9121000">
    <ele>71.4</ele>
    <time>2024-07-09T01:35:28Z</time>
   </trkpt>
   <trkpt lat="35.2777940" lon="113.9121000">
    <ele>71.4</ele>
    <time>2024-07-09T01:35:29Z</time>
   </trkpt>
   <trkpt lat="35.2778050" lon="113.9121080">
    <ele>71.5</ele>
    <time>2024-07-09T01:35:30Z</time>
   </trkpt>
   <trkpt lat="35.2778050" lon="113.9121070">
    <ele>71.5</ele>
    <time>2024-07-09T01:35:31Z</time>
   </trkpt>
   <trkpt lat="35.2778050" lon="113.9121050">
    <ele>71.5</ele>
    <time>2024-07-09T01:35:32Z</time>
   </trkpt>
   <trkpt lat="35.2778050" lon="113.9121030">
    <ele>71.5</ele>
    <time>2024-07-09T01:35:33Z</time>
   </trkpt>
   <trkpt lat="35.2778050" lon="113.9121020">
    <ele>71.5</ele>
    <time>2024-07-09T01:35:34Z</time>
   </trkpt>
   <trkpt lat="35.2778050" lon="113.9121000">
    <ele>71.5</ele>
    <time>2024-07-09T01:35:34Z</time>
   </trkpt>
   <trkpt lat="35.2778050" lon="113.9121000">
    <ele>71.5</ele>
    <time>2024-07-09T01:35:34Z</time>
   </trkpt>
   <trkpt lat="35.2779400" lon="113.9120800">
    <ele>71.6</ele>
    <time>2024-07-09T01:35:46Z</time>
   </trkpt>
   <trkpt lat="35.2779600" lon="113.9120700">
    <ele>71.6</ele>
    <time>2024-07-09T01:35:47Z</time>
   </trkpt>
   <trkpt lat="35.2779900" lon="113.9120600">
    <ele>71.6</ele>
    <time>2024-07-09T01:35:48Z</time>
   </trkpt>
   <trkpt lat="35.2780200" lon="113.9120600">
    <ele>71.5</ele>
    <time>2024-07-09T01:35:49Z</time>
   </trkpt>
   <trkpt lat="35.2780460" lon="113.9120600">
    <ele>71.5</ele>
    <time>2024-07-09T01:35:50Z</time>
   </trkpt>
   <trkpt lat="35.2780720" lon="113.9120600">
    <ele>71.5</ele>
    <time>2024-07-09T01:35:51Z</time>
   </trkpt>
   <trkpt lat="35.2781000" lon="113.9120560">
    <ele>71.5</ele>
    <time>2024-07-09T01:35:52Z</time>
   </trkpt>
   <trkpt lat="35.2781300" lon="113.9120560">
    <ele>71.5</ele>
    <time>2024-07-09T01:35:53Z</time>
   </trkpt>
   <trkpt lat="35.2781640" lon="113.9120560">
    <ele>71.5</ele>
    <time>2024-07-09T01:35:54Z</time>
   </trkpt>
   <trkpt lat="35.2781940" lon="113.9120560">
    <ele>71.5</ele>
    <time>2024-07-09T01:35:55Z</time>
   </trkpt>
   <trkpt lat="35.2782250" lon="113.9120560">
    <ele>71.5</ele>
    <time>2024-07-09T01:35:56Z</time>
   </trkpt>
   <trkpt lat="35.2782550" lon="113.9120560">
    <ele>71.5</ele>
    <time>2024-07-09T01:35:57Z</time>
   </trkpt>
   <trkpt lat="35.2782860" lon="113.9120600">
    <ele>71.5</ele>
    <time>2024-07-09T01:35:58Z</time>
   </trkpt>
   <trkpt lat="35.2783200" lon="113.9120600">
    <ele>71.6</ele>
    <time>2024-07-09T01:35:59Z</time>
   </trkpt>
   <trkpt lat="35.2783500" lon="113.9120600">
    <ele>71.6</ele>
    <time>2024-07-09T01:36:00Z</time>
   </trkpt>
   <trkpt lat="35.2783850" lon="113.9120600">
    <ele>71.6</ele>
    <time>2024-07-09T01:36:01Z</time>
   </trkpt>
   <trkpt lat="35.2784160" lon="113.9120600">
    <ele>71.6</ele>
    <time>2024-07-09T01:36:02Z</time>
   </trkpt>
   <trkpt lat="35.2784500" lon="113.9120600">
    <ele>71.6</ele>
    <time>2024-07-09T01:36:03Z</time>
   </trkpt>
   <trkpt lat="35.2784800" lon="113.9120600">
    <ele>71.6</ele>
    <time>2024-07-09T01:36:04Z</time>
   </trkpt>
   <trkpt lat="35.2785150" lon="113.9120600">
    <ele>71.6</ele>
    <time>2024-07-09T01:36:05Z</time>
   </trkpt>
   <trkpt lat="35.2785500" lon="113.9120600">
    <ele>71.6</ele>
    <time>2024-07-09T01:36:06Z</time>
   </trkpt>
   <trkpt lat="35.2785840" lon="113.9120700">
    <ele>71.6</ele>
    <time>2024-07-09T01:36:07Z</time>
   </trkpt>
   <trkpt lat="35.2786200" lon="113.9120800">
    <ele>71.6</ele>
    <time>2024-07-09T01:36:08Z</time>
   </trkpt>
   <trkpt lat="35.2786560" lon="113.9120900">
    <ele>71.6</ele>
    <time>2024-07-09T01:36:09Z</time>
   </trkpt>
   <trkpt lat="35.2787250" lon="113.9120900">
    <ele>71.6</ele>
    <time>2024-07-09T01:36:11Z</time>
   </trkpt>
   <trkpt lat="35.2787600" lon="113.9120900">
    <ele>71.5</ele>
    <time>2024-07-09T01:36:12Z</time>
   </trkpt>
   <trkpt lat="35.2787930" lon="113.9120900">
    <ele>71.5</ele>
    <time>2024-07-09T01:36:13Z</time>
   </trkpt>
   <trkpt lat="35.2788280" lon="113.9120940">
    <ele>71.5</ele>
    <time>2024-07-09T01:36:14Z</time>
   </trkpt>
   <trkpt lat="35.2788540" lon="113.9120940">
    <ele>71.5</ele>
    <time>2024-07-09T01:36:15Z</time>
   </trkpt>
   <trkpt lat="35.2788960" lon="113.9120940">
    <ele>71.5</ele>
    <time>2024-07-09T01:36:16Z</time>
   </trkpt>
   <trkpt lat="35.2789340" lon="113.9120940">
    <ele>71.5</ele>
    <time>2024-07-09T01:36:17Z</time>
   </trkpt>
   <trkpt lat="35.2789700" lon="113.9121000">
    <ele>71.5</ele>
    <time>2024-07-09T01:36:18Z</time>
   </trkpt>
   <trkpt lat="35.2790070" lon="113.9120940">
    <ele>71.5</ele>
    <time>2024-07-09T01:36:19Z</time>
   </trkpt>
   <trkpt lat="35.2790400" lon="113.9120940">
    <ele>71.5</ele>
    <time>2024-07-09T01:36:20Z</time>
   </trkpt>
   <trkpt lat="35.2791060" lon="113.9120900">
    <ele>71.6</ele>
    <time>2024-07-09T01:36:22Z</time>
   </trkpt>
   <trkpt lat="35.2791900" lon="113.9120700">
    <ele>71.7</ele>
    <time>2024-07-09T01:36:24Z</time>
   </trkpt>
   <trkpt lat="35.2792360" lon="113.9121000">
    <ele>71.8</ele>
    <time>2024-07-09T01:36:25Z</time>
   </trkpt>
   <trkpt lat="35.2793270" lon="113.9121000">
    <ele>72.0</ele>
    <time>2024-07-09T01:36:27Z</time>
   </trkpt>
   <trkpt lat="35.2793900" lon="113.9121100">
    <ele>72.0</ele>
    <time>2024-07-09T01:36:29Z</time>
   </trkpt>
   <trkpt lat="35.2794300" lon="113.9121200">
    <ele>72.0</ele>
    <time>2024-07-09T01:36:30Z</time>
   </trkpt>
   <trkpt lat="35.2794700" lon="113.9121250">
    <ele>71.9</ele>
    <time>2024-07-09T01:36:31Z</time>
   </trkpt>
   <trkpt lat="35.2795100" lon="113.9121250">
    <ele>71.9</ele>
    <time>2024-07-09T01:36:32Z</time>
   </trkpt>
   <trkpt lat="35.2795520" lon="113.9121300">
    <ele>71.9</ele>
    <time>2024-07-09T01:36:33Z</time>
   </trkpt>
   <trkpt lat="35.2795900" lon="113.9121400">
    <ele>71.9</ele>
    <time>2024-07-09T01:36:34Z</time>
   </trkpt>
   <trkpt lat="35.2796300" lon="113.9121400">
    <ele>71.8</ele>
    <time>2024-07-09T01:36:35Z</time>
   </trkpt>
   <trkpt lat="35.2796750" lon="113.9121550">
    <ele>71.8</ele>
    <time>2024-07-09T01:36:36Z</time>
   </trkpt>
   <trkpt lat="35.2797280" lon="113.9121600">
    <ele>71.7</ele>
    <time>2024-07-09T01:36:37Z</time>
   </trkpt>
   <trkpt lat="35.2797970" lon="113.9121800">
    <ele>71.6</ele>
    <time>2024-07-09T01:36:39Z</time>
   </trkpt>
   <trkpt lat="35.2798400" lon="113.9121860">
    <ele>71.6</ele>
    <time>2024-07-09T01:36:40Z</time>
   </trkpt>
   <trkpt lat="35.2798800" lon="113.9121900">
    <ele>71.5</ele>
    <time>2024-07-09T01:36:41Z</time>
   </trkpt>
   <trkpt lat="35.2799150" lon="113.9122000">
    <ele>71.4</ele>
    <time>2024-07-09T01:36:42Z</time>
   </trkpt>
   <trkpt lat="35.2799570" lon="113.9122100">
    <ele>71.4</ele>
    <time>2024-07-09T01:36:43Z</time>
   </trkpt>
   <trkpt lat="35.2800000" lon="113.9122100">
    <ele>71.3</ele>
    <time>2024-07-09T01:36:44Z</time>
   </trkpt>
   <trkpt lat="35.2800330" lon="113.9122100">
    <ele>71.2</ele>
    <time>2024-07-09T01:36:45Z</time>
   </trkpt>
   <trkpt lat="35.2800700" lon="113.9122200">
    <ele>71.1</ele>
    <time>2024-07-09T01:36:46Z</time>
   </trkpt>
   <trkpt lat="35.2801100" lon="113.9122240">
    <ele>71.1</ele>
    <time>2024-07-09T01:36:47Z</time>
   </trkpt>
   <trkpt lat="35.2801440" lon="113.9122300">
    <ele>71.0</ele>
    <time>2024-07-09T01:36:48Z</time>
   </trkpt>
   <trkpt lat="35.2801800" lon="113.9122400">
    <ele>70.9</ele>
    <time>2024-07-09T01:36:49Z</time>
   </trkpt>
   <trkpt lat="35.2802200" lon="113.9122500">
    <ele>70.8</ele>
    <time>2024-07-09T01:36:50Z</time>
   </trkpt>
   <trkpt lat="35.2802600" lon="113.9122540">
    <ele>70.7</ele>
    <time>2024-07-09T01:36:51Z</time>
   </trkpt>
   <trkpt lat="35.2802960" lon="113.9122600">
    <ele>70.7</ele>
    <time>2024-07-09T01:36:52Z</time>
   </trkpt>
   <trkpt lat="35.2803300" lon="113.9122700">
    <ele>70.6</ele>
    <time>2024-07-09T01:36:53Z</time>
   </trkpt>
   <trkpt lat="35.2803650" lon="113.9122700">
    <ele>70.6</ele>
    <time>2024-07-09T01:36:54Z</time>
   </trkpt>
   <trkpt lat="35.2803900" lon="113.9122800">
    <ele>70.6</ele>
    <time>2024-07-09T01:36:55Z</time>
   </trkpt>
   <trkpt lat="35.2804150" lon="113.9122850">
    <ele>70.5</ele>
    <time>2024-07-09T01:36:56Z</time>
   </trkpt>
   <trkpt lat="35.2804400" lon="113.9122850">
    <ele>70.5</ele>
    <time>2024-07-09T01:36:57Z</time>
   </trkpt>
   <trkpt lat="35.2804600" lon="113.9122900">
    <ele>70.5</ele>
    <time>2024-07-09T01:36:58Z</time>
   </trkpt>
   <trkpt lat="35.2804760" lon="113.9122900">
    <ele>70.5</ele>
    <time>2024-07-09T01:36:59Z</time>
   </trkpt>
   <trkpt lat="35.2804950" lon="113.9122900">
    <ele>70.4</ele>
    <time>2024-07-09T01:37:00Z</time>
   </trkpt>
   <trkpt lat="35.2805140" lon="113.9123000">
    <ele>70.4</ele>
    <time>2024-07-09T01:37:01Z</time>
   </trkpt>
   <trkpt lat="35.2805300" lon="113.9123000">
    <ele>70.4</ele>
    <time>2024-07-09T01:37:02Z</time>
   </trkpt>
   <trkpt lat="35.2805400" lon="113.9123000">
    <ele>70.4</ele>
    <time>2024-07-09T01:37:03Z</time>
   </trkpt>
   <trkpt lat="35.2805560" lon="113.9122900">
    <ele>70.5</ele>
    <time>2024-07-09T01:37:04Z</time>
   </trkpt>
   <trkpt lat="35.2805670" lon="113.9122800">
    <ele>70.5</ele>
    <time>2024-07-09T01:37:05Z</time>
   </trkpt>
   <trkpt lat="35.2805700" lon="113.9122540">
    <ele>70.4</ele>
    <time>2024-07-09T01:37:06Z</time>
   </trkpt>
   <trkpt lat="35.2805750" lon="113.9122240">
    <ele>70.4</ele>
    <time>2024-07-09T01:37:07Z</time>
   </trkpt>
   <trkpt lat="35.2805750" lon="113.9121860">
    <ele>70.3</ele>
    <time>2024-07-09T01:37:08Z</time>
   </trkpt>
   <trkpt lat="35.2805750" lon="113.9121550">
    <ele>70.2</ele>
    <time>2024-07-09T01:37:09Z</time>
   </trkpt>
   <trkpt lat="35.2805750" lon="113.9121400">
    <ele>70.2</ele>
    <time>2024-07-09T01:37:10Z</time>
   </trkpt>
   <trkpt lat="35.2805630" lon="113.9121200">
    <ele>70.0</ele>
    <time>2024-07-09T01:37:11Z</time>
   </trkpt>
   <trkpt lat="35.2805500" lon="113.9120900">
    <ele>69.7</ele>
    <time>2024-07-09T01:37:12Z</time>
   </trkpt>
   <trkpt lat="35.2805440" lon="113.9120800">
    <ele>69.6</ele>
    <time>2024-07-09T01:37:13Z</time>
   </trkpt>
   <trkpt lat="35.2805400" lon="113.9120560">
    <ele>69.6</ele>
    <time>2024-07-09T01:37:14Z</time>
   </trkpt>
   <trkpt lat="35.2805370" lon="113.9120300">
    <ele>69.5</ele>
    <time>2024-07-09T01:37:15Z</time>
   </trkpt>
   <trkpt lat="35.2805440" lon="113.9120000">
    <ele>69.4</ele>
    <time>2024-07-09T01:37:16Z</time>
   </trkpt>
   <trkpt lat="35.2805560" lon="113.9119900">
    <ele>69.4</ele>
    <time>2024-07-09T01:37:17Z</time>
   </trkpt>
   <trkpt lat="35.2805670" lon="113.9119700">
    <ele>69.4</ele>
    <time>2024-07-09T01:37:18Z</time>
   </trkpt>
   <trkpt lat="35.2805670" lon="113.9119400">
    <ele>69.3</ele>
    <time>2024-07-09T01:37:19Z</time>
   </trkpt>
   <trkpt lat="35.2805630" lon="113.9119200">
    <ele>69.3</ele>
    <time>2024-07-09T01:37:20Z</time>
   </trkpt>
   <trkpt lat="35.2805520" lon="113.9118960">
    <ele>69.4</ele>
    <time>2024-07-09T01:37:21Z</time>
   </trkpt>
   <trkpt lat="35.2805400" lon="113.9118650">
    <ele>69.4</ele>
    <time>2024-07-09T01:37:22Z</time>
   </trkpt>
   <trkpt lat="35.2805400" lon="113.9118350">
    <ele>69.4</ele>
    <time>2024-07-09T01:37:23Z</time>
   </trkpt>
   <trkpt lat="35.2805500" lon="113.9118040">
    <ele>69.4</ele>
    <time>2024-07-09T01:37:24Z</time>
   </trkpt>
   <trkpt lat="35.2805600" lon="113.9117700">
    <ele>69.5</ele>
    <time>2024-07-09T01:37:25Z</time>
   </trkpt>
   <trkpt lat="35.2805630" lon="113.9117360">
    <ele>69.5</ele>
    <time>2024-07-09T01:37:26Z</time>
   </trkpt>
   <trkpt lat="35.2805670" lon="113.9117000">
    <ele>69.5</ele>
    <time>2024-07-09T01:37:27Z</time>
   </trkpt>
   <trkpt lat="35.2805670" lon="113.9116600">
    <ele>69.5</ele>
    <time>2024-07-09T01:37:28Z</time>
   </trkpt>
   <trkpt lat="35.2805700" lon="113.9116200">
    <ele>69.4</ele>
    <time>2024-07-09T01:37:29Z</time>
   </trkpt>
   <trkpt lat="35.2805670" lon="113.9115900">
    <ele>69.3</ele>
    <time>2024-07-09T01:37:30Z</time>
   </trkpt>
   <trkpt lat="35.2805630" lon="113.9115500">
    <ele>69.2</ele>
    <time>2024-07-09T01:37:31Z</time>
   </trkpt>
   <trkpt lat="35.2805630" lon="113.9115200">
    <ele>69.2</ele>
    <time>2024-07-09T01:37:32Z</time>
   </trkpt>
   <trkpt lat="35.2805560" lon="113.9114900">
    <ele>69.2</ele>
    <time>2024-07-09T01:37:33Z</time>
   </trkpt>
   <trkpt lat="35.2805440" lon="113.9114600">
    <ele>68.9</ele>
    <time>2024-07-09T01:37:34Z</time>
   </trkpt>
   <trkpt lat="35.2805370" lon="113.9114300">
    <ele>68.9</ele>
    <time>2024-07-09T01:37:35Z</time>
   </trkpt>
   <trkpt lat="35.2805250" lon="113.9114000">
    <ele>68.9</ele>
    <time>2024-07-09T01:37:36Z</time>
   </trkpt>
   <trkpt lat="35.2805100" lon="113.9113700">
    <ele>68.7</ele>
    <time>2024-07-09T01:37:37Z</time>
   </trkpt>
   <trkpt lat="35.2804870" lon="113.9113500">
    <ele>68.8</ele>
    <time>2024-07-09T01:37:38Z</time>
   </trkpt>
   <trkpt lat="35.2804600" lon="113.9113300">
    <ele>68.5</ele>
    <time>2024-07-09T01:37:39Z</time>
   </trkpt>
   <trkpt lat="35.2804300" lon="113.9113300">
    <ele>68.4</ele>
    <time>2024-07-09T01:37:40Z</time>
   </trkpt>
   <trkpt lat="35.2804000" lon="113.9113300">
    <ele>68.3</ele>
    <time>2024-07-09T01:37:41Z</time>
   </trkpt>
   <trkpt lat="35.2803730" lon="113.9113200">
    <ele>68.3</ele>
    <time>2024-07-09T01:37:42Z</time>
   </trkpt>
   <trkpt lat="35.2803460" lon="113.9113200">
    <ele>68.3</ele>
    <time>2024-07-09T01:37:43Z</time>
   </trkpt>
   <trkpt lat="35.2803200" lon="113.9113200">
    <ele>68.4</ele>
    <time>2024-07-09T01:37:44Z</time>
   </trkpt>
   <trkpt lat="35.2802930" lon="113.9113160">
    <ele>68.6</ele>
    <time>2024-07-09T01:37:45Z</time>
   </trkpt>
   <trkpt lat="35.2802700" lon="113.9113000">
    <ele>68.9</ele>
    <time>2024-07-09T01:37:46Z</time>
   </trkpt>
   <trkpt lat="35.2802470" lon="113.9112850">
    <ele>68.9</ele>
    <time>2024-07-09T01:37:47Z</time>
   </trkpt>
   <trkpt lat="35.2802200" lon="113.9112550">
    <ele>69.1</ele>
    <time>2024-07-09T01:37:48Z</time>
   </trkpt>
   <trkpt lat="35.2802300" lon="113.9112240">
    <ele>69.1</ele>
    <time>2024-07-09T01:37:49Z</time>
   </trkpt>
   <trkpt lat="35.2802540" lon="113.9111560">
    <ele>68.8</ele>
    <time>2024-07-09T01:37:50Z</time>
   </trkpt>
   <trkpt lat="35.2802620" lon="113.9111200">
    <ele>68.8</ele>
    <time>2024-07-09T01:37:51Z</time>
   </trkpt>
   <trkpt lat="35.2802620" lon="113.9110700">
    <ele>68.9</ele>
    <time>2024-07-09T01:37:52Z</time>
   </trkpt>
   <trkpt lat="35.2802620" lon="113.9110400">
    <ele>68.9</ele>
    <time>2024-07-09T01:37:53Z</time>
   </trkpt>
   <trkpt lat="35.2802620" lon="113.9110100">
    <ele>69.0</ele>
    <time>2024-07-09T01:37:54Z</time>
   </trkpt>
   <trkpt lat="35.2802620" lon="113.9109700">
    <ele>68.9</ele>
    <time>2024-07-09T01:37:55Z</time>
   </trkpt>
   <trkpt lat="35.2802540" lon="113.9109340">
    <ele>68.9</ele>
    <time>2024-07-09T01:37:56Z</time>
   </trkpt>
   <trkpt lat="35.2802500" lon="113.9109040">
    <ele>68.8</ele>
    <time>2024-07-09T01:37:57Z</time>
   </trkpt>
   <trkpt lat="35.2802500" lon="113.9108660">
    <ele>68.7</ele>
    <time>2024-07-09T01:37:58Z</time>
   </trkpt>
   <trkpt lat="35.2802500" lon="113.9108300">
    <ele>68.6</ele>
    <time>2024-07-09T01:37:59Z</time>
   </trkpt>
   <trkpt lat="35.2802540" lon="113.9107900">
    <ele>68.5</ele>
    <time>2024-07-09T01:38:00Z</time>
   </trkpt>
   <trkpt lat="35.2802600" lon="113.9107400">
    <ele>68.4</ele>
    <time>2024-07-09T01:38:01Z</time>
   </trkpt>
   <trkpt lat="35.2802730" lon="113.9107060">
    <ele>68.4</ele>
    <time>2024-07-09T01:38:02Z</time>
   </trkpt>
   <trkpt lat="35.2802620" lon="113.9106450">
    <ele>68.4</ele>
    <time>2024-07-09T01:38:03Z</time>
   </trkpt>
   <trkpt lat="35.2802730" lon="113.9106140">
    <ele>68.6</ele>
    <time>2024-07-09T01:38:04Z</time>
   </trkpt>
   <trkpt lat="35.2802730" lon="113.9105760">
    <ele>68.8</ele>
    <time>2024-07-09T01:38:05Z</time>
   </trkpt>
   <trkpt lat="35.2802730" lon="113.9105400">
    <ele>69.0</ele>
    <time>2024-07-09T01:38:06Z</time>
   </trkpt>
   <trkpt lat="35.2802770" lon="113.9105150">
    <ele>68.7</ele>
    <time>2024-07-09T01:38:07Z</time>
   </trkpt>
   <trkpt lat="35.2802850" lon="113.9104700">
    <ele>68.8</ele>
    <time>2024-07-09T01:38:08Z</time>
   </trkpt>
   <trkpt lat="35.2802960" lon="113.9104200">
    <ele>68.8</ele>
    <time>2024-07-09T01:38:09Z</time>
   </trkpt>
   <trkpt lat="35.2802960" lon="113.9103850">
    <ele>68.8</ele>
    <time>2024-07-09T01:38:10Z</time>
   </trkpt>
   <trkpt lat="35.2802960" lon="113.9103550">
    <ele>68.8</ele>
    <time>2024-07-09T01:38:11Z</time>
   </trkpt>
   <trkpt lat="35.2803000" lon="113.9103240">
    <ele>68.7</ele>
    <time>2024-07-09T01:38:12Z</time>
   </trkpt>
   <trkpt lat="35.2803000" lon="113.9103000">
    <ele>68.7</ele>
    <time>2024-07-09T01:38:13Z</time>
   </trkpt>
   <trkpt lat="35.2803040" lon="113.9102700">
    <ele>68.6</ele>
    <time>2024-07-09T01:38:14Z</time>
   </trkpt>
   <trkpt lat="35.2803040" lon="113.9102400">
    <ele>68.6</ele>
    <time>2024-07-09T01:38:15Z</time>
   </trkpt>
   <trkpt lat="35.2803040" lon="113.9102100">
    <ele>68.6</ele>
    <time>2024-07-09T01:38:16Z</time>
   </trkpt>
   <trkpt lat="35.2803040" lon="113.9101800">
    <ele>68.6</ele>
    <time>2024-07-09T01:38:17Z</time>
   </trkpt>
   <trkpt lat="35.2802960" lon="113.9101400">
    <ele>68.7</ele>
    <time>2024-07-09T01:38:18Z</time>
   </trkpt>
   <trkpt lat="35.2802900" lon="113.9101100">
    <ele>68.7</ele>
    <time>2024-07-09T01:38:19Z</time>
   </trkpt>
   <trkpt lat="35.2802800" lon="113.9100800">
    <ele>68.7</ele>
    <time>2024-07-09T01:38:20Z</time>
   </trkpt>
   <trkpt lat="35.2802770" lon="113.9100500">
    <ele>68.9</ele>
    <time>2024-07-09T01:38:21Z</time>
   </trkpt>
   <trkpt lat="35.2802730" lon="113.9100200">
    <ele>69.3</ele>
    <time>2024-07-09T01:38:22Z</time>
   </trkpt>
   <trkpt lat="35.2802770" lon="113.9099960">
    <ele>69.1</ele>
    <time>2024-07-09T01:38:23Z</time>
   </trkpt>
   <trkpt lat="35.2802930" lon="113.9099800">
    <ele>69.4</ele>
    <time>2024-07-09T01:38:24Z</time>
   </trkpt>
   <trkpt lat="35.2803000" lon="113.9099600">
    <ele>69.4</ele>
    <time>2024-07-09T01:38:25Z</time>
   </trkpt>
   <trkpt lat="35.2803000" lon="113.9099350">
    <ele>69.8</ele>
    <time>2024-07-09T01:38:26Z</time>
   </trkpt>
   <trkpt lat="35.2803000" lon="113.9099100">
    <ele>69.8</ele>
    <time>2024-07-09T01:38:27Z</time>
   </trkpt>
   <trkpt lat="35.2803000" lon="113.9098900">
    <ele>70.3</ele>
    <time>2024-07-09T01:38:28Z</time>
   </trkpt>
   <trkpt lat="35.2803000" lon="113.9098740">
    <ele>70.3</ele>
    <time>2024-07-09T01:38:29Z</time>
   </trkpt>
   <trkpt lat="35.2802960" lon="113.9098500">
    <ele>70.8</ele>
    <time>2024-07-09T01:38:30Z</time>
   </trkpt>
   <trkpt lat="35.2802960" lon="113.9098300">
    <ele>70.8</ele>
    <time>2024-07-09T01:38:31Z</time>
   </trkpt>
   <trkpt lat="35.2803000" lon="113.9098000">
    <ele>71.3</ele>
    <time>2024-07-09T01:38:32Z</time>
   </trkpt>
   <trkpt lat="35.2803000" lon="113.9097750">
    <ele>71.3</ele>
    <time>2024-07-09T01:38:33Z</time>
   </trkpt>
   <trkpt lat="35.2802960" lon="113.9097440">
    <ele>71.7</ele>
    <time>2024-07-09T01:38:34Z</time>
   </trkpt>
   <trkpt lat="35.2802930" lon="113.9097100">
    <ele>71.8</ele>
    <time>2024-07-09T01:38:35Z</time>
   </trkpt>
   <trkpt lat="35.2802900" lon="113.9096800">
    <ele>71.8</ele>
    <time>2024-07-09T01:38:36Z</time>
   </trkpt>
   <trkpt lat="35.2802930" lon="113.9096500">
    <ele>71.8</ele>
    <time>2024-07-09T01:38:37Z</time>
   </trkpt>
   <trkpt lat="35.2803000" lon="113.9096300">
    <ele>71.7</ele>
    <time>2024-07-09T01:38:38Z</time>
   </trkpt>
   <trkpt lat="35.2802960" lon="113.9096000">
    <ele>71.7</ele>
    <time>2024-07-09T01:38:39Z</time>
   </trkpt>
   <trkpt lat="35.2802960" lon="113.9095700">
    <ele>71.5</ele>
    <time>2024-07-09T01:38:40Z</time>
   </trkpt>
   <trkpt lat="35.2802960" lon="113.9095400">
    <ele>71.2</ele>
    <time>2024-07-09T01:38:41Z</time>
   </trkpt>
   <trkpt lat="35.2803080" lon="113.9095000">
    <ele>70.9</ele>
    <time>2024-07-09T01:38:42Z</time>
   </trkpt>
   <trkpt lat="35.2803100" lon="113.9094600">
    <ele>70.7</ele>
    <time>2024-07-09T01:38:43Z</time>
   </trkpt>
   <trkpt lat="35.2803100" lon="113.9094300">
    <ele>70.7</ele>
    <time>2024-07-09T01:38:44Z</time>
   </trkpt>
   <trkpt lat="35.2803040" lon="113.9094000">
    <ele>70.2</ele>
    <time>2024-07-09T01:38:45Z</time>
   </trkpt>
   <trkpt lat="35.2802930" lon="113.9093600">
    <ele>69.8</ele>
    <time>2024-07-09T01:38:46Z</time>
   </trkpt>
   <trkpt lat="35.2802930" lon="113.9093600">
    <ele>69.8</ele>
    <time>2024-07-09T01:38:46Z</time>
   </trkpt>
   <trkpt lat="35.2802960" lon="113.9093300">
    <ele>69.5</ele>
    <time>2024-07-09T01:38:47Z</time>
   </trkpt>
  </trkseg>
 </trk>
</gpx>
