<?xml version="1.0" encoding="UTF-8"?>
<gpx creator="StravaGPX" version="1.1" xmlns="http://www.topografix.com/GPX/1/1" xmlns:xsi="http://www.w3.org/2001/XMLSchema-instance" xsi:schemaLocation="http://www.topografix.com/GPX/1/1 http://www.topografix.com/GPX/1/1/gpx.xsd">
 <metadata>
  <time>2024-07-10T04:29:00Z</time>
 </metadata>
 <trk>
  <name>Ride</name>
  <type>cycling</type>
  <trkseg>
   <trkpt lat="35.2688870" lon="113.9091700">
    <ele>69.8</ele>
    <time>2024-07-10T04:29:00Z</time>
   </trkpt>
   <trkpt lat="35.2688940" lon="113.9092100">
    <ele>69.8</ele>
    <time>2024-07-10T04:29:02Z</time>
   </trkpt>
   <trkpt lat="35.2688830" lon="113.9092560">
    <ele>69.9</ele>
    <time>2024-07-10T04:29:04Z</time>
   </trkpt>
   <trkpt lat="35.2688750" lon="113.9093200">
    <ele>70.0</ele>
    <time>2024-07-10T04:29:06Z</time>
   </trkpt>
   <trkpt lat="35.2688750" lon="113.9093800">
    <ele>70.0</ele>
    <time>2024-07-10T04:29:08Z</time>
   </trkpt>
   <trkpt lat="35.2688750" lon="113.9094200">
    <ele>70.1</ele>
    <time>2024-07-10T04:29:09Z</time>
   </trkpt>
   <trkpt lat="35.2688670" lon="113.9094800">
    <ele>70.2</ele>
    <time>2024-07-10T04:29:11Z</time>
   </trkpt>
   <trkpt lat="35.2688700" lon="113.9095500">
    <ele>70.2</ele>
    <time>2024-07-10T04:29:13Z</time>
   </trkpt>
   <trkpt lat="35.2688700" lon="113.9096150">
    <ele>70.3</ele>
    <time>2024-07-10T04:29:15Z</time>
   </trkpt>
   <trkpt lat="35.2688700" lon="113.9096500">
    <ele>70.3</ele>
    <time>2024-07-10T04:29:16Z</time>
   </trkpt>
   <trkpt lat="35.2688670" lon="113.9096800">
    <ele>70.3</ele>
    <time>2024-07-10T04:29:17Z</time>
   </trkpt>
   <trkpt lat="35.2688640" lon="113.9097100">
    <ele>70.4</ele>
    <time>2024-07-10T04:29:18Z</time>
   </trkpt>
   <trkpt lat="35.2688640" lon="113.9097500">
    <ele>70.4</ele>
    <time>2024-07-10T04:29:19Z</time>
   </trkpt>
   <trkpt lat="35.2688600" lon="113.9097800">
    <ele>70.4</ele>
    <time>2024-07-10T04:29:20Z</time>
   </trkpt>
   <trkpt lat="35.2688600" lon="113.9098100">
    <ele>70.4</ele>
    <time>2024-07-10T04:29:21Z</time>
   </trkpt>
   <trkpt lat="35.2688560" lon="113.9098400">
    <ele>70.4</ele>
    <time>2024-07-10T04:29:22Z</time>
   </trkpt>
   <trkpt lat="35.2688560" lon="113.9098740">
    <ele>70.4</ele>
    <time>2024-07-10T04:29:23Z</time>
   </trkpt>
   <trkpt lat="35.2688520" lon="113.9099040">
    <ele>70.4</ele>
    <time>2024-07-10T04:29:24Z</time>
   </trkpt>
   <trkpt lat="35.2688500" lon="113.9099350">
    <ele>70.4</ele>
    <time>2024-07-10T04:29:25Z</time>
   </trkpt>
   <trkpt lat="35.2688450" lon="113.9099660">
    <ele>70.5</ele>
    <time>2024-07-10T04:29:26Z</time>
   </trkpt>
   <trkpt lat="35.2688400" lon="113.9099960">
    <ele>70.5</ele>
    <time>2024-07-10T04:29:27Z</time>
   </trkpt>
   <trkpt lat="35.2688500" lon="113.9100340">
    <ele>70.5</ele>
    <time>2024-07-10T04:29:28Z</time>
   </trkpt>
   <trkpt lat="35.2688520" lon="113.9100650">
    <ele>70.5</ele>
    <time>2024-07-10T04:29:29Z</time>
   </trkpt>
   <trkpt lat="35.2688520" lon="113.9101300">
    <ele>70.6</ele>
    <time>2024-07-10T04:29:31Z</time>
   </trkpt>
   <trkpt lat="35.2688520" lon="113.9102200">
    <ele>70.7</ele>
    <time>2024-07-10T04:29:33Z</time>
   </trkpt>
   <trkpt lat="35.2688520" lon="113.9103000">
    <ele>70.8</ele>
    <time>2024-07-10T04:29:35Z</time>
   </trkpt>
   <trkpt lat="35.2688520" lon="113.9103800">
    <ele>70.9</ele>
    <time>2024-07-10T04:29:37Z</time>
   </trkpt>
   <trkpt lat="35.2688520" lon="113.9104160">
    <ele>70.9</ele>
    <time>2024-07-10T04:29:38Z</time>
   </trkpt>
   <trkpt lat="35.2688520" lon="113.9104500">
    <ele>70.9</ele>
    <time>2024-07-10T04:29:39Z</time>
   </trkpt>
   <trkpt lat="35.2688520" lon="113.9104500">
    <ele>70.9</ele>
    <time>2024-07-10T04:29:39Z</time>
   </trkpt>
   <trkpt lat="35.2688520" lon="113.9105400">
    <ele>71.0</ele>
    <time>2024-07-10T04:29:41Z</time>
   </trkpt>
   <trkpt lat="35.2688520" lon="113.9105760">
    <ele>71.0</ele>
    <time>2024-07-10T04:29:42Z</time>
   </trkpt>
   <trkpt lat="35.2688450" lon="113.9106200">
    <ele>71.0</ele>
    <time>2024-07-10T04:29:43Z</time>
   </trkpt>
   <trkpt lat="35.2688400" lon="113.9106600">
    <ele>71.0</ele>
    <time>2024-07-10T04:29:44Z</time>
   </trkpt>
   <trkpt lat="35.2688400" lon="113.9107000">
    <ele>70.9</ele>
    <time>2024-07-10T04:29:45Z</time>
   </trkpt>
   <trkpt lat="35.2688400" lon="113.9107360">
    <ele>70.9</ele>
    <time>2024-07-10T04:29:46Z</time>
   </trkpt>
   <trkpt lat="35.2688400" lon="113.9107740">
    <ele>70.9</ele>
    <time>2024-07-10T04:29:47Z</time>
   </trkpt>
   <trkpt lat="35.2688450" lon="113.9108200">
    <ele>70.9</ele>
    <time>2024-07-10T04:29:48Z</time>
   </trkpt>
   <trkpt lat="35.2688500" lon="113.9108600">
    <ele>70.9</ele>
    <time>2024-07-10T04:29:49Z</time>
   </trkpt>
   <trkpt lat="35.2688500" lon="113.9109000">
    <ele>70.8</ele>
    <time>2024-07-10T04:29:50Z</time>
   </trkpt>
   <trkpt lat="35.2688560" lon="113.9109900">
    <ele>70.8</ele>
    <time>2024-07-10T04:29:52Z</time>
   </trkpt>
   <trkpt lat="35.2688520" lon="113.9110700">
    <ele>70.7</ele>
    <time>2024-07-10T04:29:54Z</time>
   </trkpt>
   <trkpt lat="35.2688520" lon="113.9111100">
    <ele>70.7</ele>
    <time>2024-07-10T04:29:55Z</time>
   </trkpt>
   <trkpt lat="35.2688500" lon="113.9111560">
    <ele>70.7</ele>
    <time>2024-07-10T04:29:56Z</time>
   </trkpt>
   <trkpt lat="35.2688500" lon="113.9111940">
    <ele>70.6</ele>
    <time>2024-07-10T04:29:57Z</time>
   </trkpt>
   <trkpt lat="35.2688520" lon="113.9112400">
    <ele>70.6</ele>
    <time>2024-07-10T04:29:58Z</time>
   </trkpt>
   <trkpt lat="35.2688600" lon="113.9112900">
    <ele>70.6</ele>
    <time>2024-07-10T04:29:59Z</time>
   </trkpt>
   <trkpt lat="35.2688600" lon="113.9113700">
    <ele>70.6</ele>
    <time>2024-07-10T04:30:01Z</time>
   </trkpt>
   <trkpt lat="35.2688600" lon="113.9114000">
    <ele>70.7</ele>
    <time>2024-07-10T04:30:02Z</time>
   </trkpt>
   <trkpt lat="35.2688600" lon="113.9114400">
    <ele>70.7</ele>
    <time>2024-07-10T04:30:03Z</time>
   </trkpt>
   <trkpt lat="35.2688600" lon="113.9114700">
    <ele>70.7</ele>
    <time>2024-07-10T04:30:04Z</time>
   </trkpt>
   <trkpt lat="35.2688640" lon="113.9115000">
    <ele>70.7</ele>
    <time>2024-07-10T04:30:05Z</time>
   </trkpt>
   <trkpt lat="35.2688640" lon="113.9115200">
    <ele>70.8</ele>
    <time>2024-07-10T04:30:06Z</time>
   </trkpt>
   <trkpt lat="35.2688640" lon="113.9115500">
    <ele>70.8</ele>
    <time>2024-07-10T04:30:07Z</time>
   </trkpt>
   <trkpt lat="35.2688640" lon="113.9115750">
    <ele>70.8</ele>
    <time>2024-07-10T04:30:08Z</time>
   </trkpt>
   <trkpt lat="35.2688640" lon="113.9116060">
    <ele>70.8</ele>
    <time>2024-07-10T04:30:09Z</time>
   </trkpt>
   <trkpt lat="35.2688670" lon="113.9116400">
    <ele>70.8</ele>
    <time>2024-07-10T04:30:10Z</time>
   </trkpt>
   <trkpt lat="35.2688710" lon="113.9116530">
    <ele>70.8</ele>
    <time>2024-07-10T04:30:11Z</time>
   </trkpt>
   <trkpt lat="35.2688710" lon="113.9116630">
    <ele>70.8</ele>
    <time>2024-07-10T04:30:12Z</time>
   </trkpt>
   <trkpt lat="35.2688720" lon="113.9116720">
    <ele>70.8</ele>
    <time>2024-07-10T04:30:13Z</time>
   </trkpt>
   <trkpt lat="35.2688730" lon="113.9116820">
    <ele>70.8</ele>
    <time>2024-07-10T04:30:14Z</time>
   </trkpt>
   <trkpt lat="35.2688730" lon="113.9116910">
    <ele>70.8</ele>
    <time>2024-07-10T04:30:15Z</time>
   </trkpt>
   <trkpt lat="35.2688740" lon="113.9117010">
    <ele>70.8</ele>
    <time>2024-07-10T04:30:16Z</time>
   </trkpt>
   <trkpt lat="35.2688740" lon="113.9117100">
    <ele>70.8</ele>
    <time>2024-07-10T04:30:17Z</time>
   </trkpt>
   <trkpt lat="35.2688750" lon="113.9117200">
    <ele>70.9</ele>
    <time>2024-07-10T04:30:17Z</time>
   </trkpt>
   <trkpt lat="35.2689000" lon="113.9118650">
    <ele>70.9</ele>
    <time>2024-07-10T04:30:44Z</time>
   </trkpt>
   <trkpt lat="35.2689170" lon="113.9118900">
    <ele>71.0</ele>
    <time>2024-07-10T04:30:45Z</time>
   </trkpt>
   <trkpt lat="35.2689360" lon="113.9119100">
    <ele>71.0</ele>
    <time>2024-07-10T04:30:46Z</time>
   </trkpt>
   <trkpt lat="35.2689550" lon="113.9119340">
    <ele>71.0</ele>
    <time>2024-07-10T04:30:47Z</time>
   </trkpt>
   <trkpt lat="35.2689800" lon="113.9119500">
    <ele>71.0</ele>
    <time>2024-07-10T04:30:48Z</time>
   </trkpt>
   <trkpt lat="35.2690000" lon="113.9119640">
    <ele>71.0</ele>
    <time>2024-07-10T04:30:49Z</time>
   </trkpt>
   <trkpt lat="35.2690280" lon="113.9119800">
    <ele>70.9</ele>
    <time>2024-07-10T04:30:50Z</time>
   </trkpt>
   <trkpt lat="35.2690540" lon="113.9119950">
    <ele>70.9</ele>
    <time>2024-07-10T04:30:51Z</time>
   </trkpt>
   <trkpt lat="35.2690800" lon="113.9120200">
    <ele>70.9</ele>
    <time>2024-07-10T04:30:52Z</time>
   </trkpt>
   <trkpt lat="35.2691040" lon="113.9120300">
    <ele>70.8</ele>
    <time>2024-07-10T04:30:53Z</time>
   </trkpt>
   <trkpt lat="35.2691350" lon="113.9120500">
    <ele>70.8</ele>
    <time>2024-07-10T04:30:54Z</time>
   </trkpt>
   <trkpt lat="35.2691650" lon="113.9120560">
    <ele>70.7</ele>
    <time>2024-07-10T04:30:55Z</time>
   </trkpt>
   <trkpt lat="35.2691900" lon="113.9120700">
    <ele>70.7</ele>
    <time>2024-07-10T04:30:56Z</time>
   </trkpt>
   <trkpt lat="35.2692200" lon="113.9120800">
    <ele>70.6</ele>
    <time>2024-07-10T04:30:57Z</time>
   </trkpt>
   <trkpt lat="35.2692570" lon="113.9120800">
    <ele>70.5</ele>
    <time>2024-07-10T04:30:58Z</time>
   </trkpt>
   <trkpt lat="35.2692900" lon="113.9120800">
    <ele>70.5</ele>
    <time>2024-07-10T04:30:59Z</time>
   </trkpt>
   <trkpt lat="35.2693250" lon="113.9120700">
    <ele>70.5</ele>
    <time>2024-07-10T04:31:00Z</time>
   </trkpt>
   <trkpt lat="35.2693560" lon="113.9120700">
    <ele>70.4</ele>
    <time>2024-07-10T04:31:01Z</time>
   </trkpt>
   <trkpt lat="35.2693900" lon="113.9120700">
    <ele>70.4</ele>
    <time>2024-07-10T04:31:02Z</time>
   </trkpt>
   <trkpt lat="35.2694240" lon="113.9120700">
    <ele>70.4</ele>
    <time>2024-07-10T04:31:03Z</time>
   </trkpt>
   <trkpt lat="35.2694600" lon="113.9120700">
    <ele>70.4</ele>
    <time>2024-07-10T04:31:04Z</time>
   </trkpt>
   <trkpt lat="35.2694930" lon="113.9120700">
    <ele>70.5</ele>
    <time>2024-07-10T04:31:05Z</time>
   </trkpt>
   <trkpt lat="35.2695270" lon="113.9120700">
    <ele>70.5</ele>
    <time>2024-07-10T04:31:06Z</time>
   </trkpt>
   <trkpt lat="35.2695600" lon="113.9120700">
    <ele>70.5</ele>
    <time>2024-07-10T04:31:07Z</time>
   </trkpt>
   <trkpt lat="35.2695960" lon="113.9120700">
    <ele>70.5</ele>
    <time>2024-07-10T04:31:08Z</time>
   </trkpt>
   <trkpt lat="35.2696300" lon="113.9120600">
    <ele>70.6</ele>
    <time>2024-07-10T04:31:09Z</time>
   </trkpt>
   <trkpt lat="35.2696600" lon="113.9120560">
    <ele>70.6</ele>
    <time>2024-07-10T04:31:10Z</time>
   </trkpt>
   <trkpt lat="35.2696950" lon="113.9120500">
    <ele>70.6</ele>
    <time>2024-07-10T04:31:11Z</time>
   </trkpt>
   <trkpt lat="35.2697300" lon="113.9120400">
    <ele>70.7</ele>
    <time>2024-07-10T04:31:12Z</time>
   </trkpt>
   <trkpt lat="35.2697640" lon="113.9120400">
    <ele>70.7</ele>
    <time>2024-07-10T04:31:13Z</time>
   </trkpt>
   <trkpt lat="35.2698000" lon="113.9120400">
    <ele>70.8</ele>
    <time>2024-07-10T04:31:14Z</time>
   </trkpt>
   <trkpt lat="35.2698330" lon="113.9120400">
    <ele>70.9</ele>
    <time>2024-07-10T04:31:15Z</time>
   </trkpt>
   <trkpt lat="35.2698670" lon="113.9120400">
    <ele>70.9</ele>
    <time>2024-07-10T04:31:16Z</time>
   </trkpt>
   <trkpt lat="35.2699000" lon="113.9120500">
    <ele>71.0</ele>
    <time>2024-07-10T04:31:17Z</time>
   </trkpt>
   <trkpt lat="35.2699280" lon="113.9120500">
    <ele>71.1</ele>
    <time>2024-07-10T04:31:18Z</time>
   </trkpt>
   <trkpt lat="35.2699600" lon="113.9120560">
    <ele>71.1</ele>
    <time>2024-07-10T04:31:19Z</time>
   </trkpt>
   <trkpt lat="35.2699970" lon="113.9120560">
    <ele>71.2</ele>
    <time>2024-07-10T04:31:20Z</time>
   </trkpt>
   <trkpt lat="35.2700400" lon="113.9120560">
    <ele>71.3</ele>
    <time>2024-07-10T04:31:21Z</time>
   </trkpt>
   <trkpt lat="35.2700800" lon="113.9120560">
    <ele>71.4</ele>
    <time>2024-07-10T04:31:22Z</time>
   </trkpt>
   <trkpt lat="35.2701570" lon="113.9120600">
    <ele>71.6</ele>
    <time>2024-07-10T04:31:24Z</time>
   </trkpt>
   <trkpt lat="35.2702300" lon="113.9120600">
    <ele>71.7</ele>
    <time>2024-07-10T04:31:26Z</time>
   </trkpt>
   <trkpt lat="35.2702640" lon="113.9120560">
    <ele>71.8</ele>
    <time>2024-07-10T04:31:27Z</time>
   </trkpt>
   <trkpt lat="35.2703000" lon="113.9120560">
    <ele>71.9</ele>
    <time>2024-07-10T04:31:28Z</time>
   </trkpt>
   <trkpt lat="35.2703440" lon="113.9120560">
    <ele>71.9</ele>
    <time>2024-07-10T04:31:29Z</time>
   </trkpt>
   <trkpt lat="35.2703820" lon="113.9120500">
    <ele>72.0</ele>
    <time>2024-07-10T04:31:30Z</time>
   </trkpt>
   <trkpt lat="35.2704660" lon="113.9120560">
    <ele>72.1</ele>
    <time>2024-07-10T04:31:32Z</time>
   </trkpt>
   <trkpt lat="35.2705460" lon="113.9120500">
    <ele>72.2</ele>
    <time>2024-07-10T04:31:34Z</time>
   </trkpt>
   <trkpt lat="35.2705800" lon="113.9120560">
    <ele>72.3</ele>
    <time>2024-07-10T04:31:35Z</time>
   </trkpt>
   <trkpt lat="35.2706200" lon="113.9120500">
    <ele>72.4</ele>
    <time>2024-07-10T04:31:36Z</time>
   </trkpt>
   <trkpt lat="35.2706570" lon="113.9120500">
    <ele>72.4</ele>
    <time>2024-07-10T04:31:37Z</time>
   </trkpt>
   <trkpt lat="35.2707000" lon="113.9120560">
    <ele>72.5</ele>
    <time>2024-07-10T04:31:38Z</time>
   </trkpt>
   <trkpt lat="35.2707370" lon="113.9120560">
    <ele>72.6</ele>
    <time>2024-07-10T04:31:39Z</time>
   </trkpt>
   <trkpt lat="35.2707750" lon="113.9120560">
    <ele>72.8</ele>
    <time>2024-07-10T04:31:40Z</time>
   </trkpt>
   <trkpt lat="35.2708130" lon="113.9120560">
    <ele>72.9</ele>
    <time>2024-07-10T04:31:41Z</time>
   </trkpt>
   <trkpt lat="35.2708550" lon="113.9120560">
    <ele>73.0</ele>
    <time>2024-07-10T04:31:42Z</time>
   </trkpt>
   <trkpt lat="35.2708930" lon="113.9120500">
    <ele>73.2</ele>
    <time>2024-07-10T04:31:43Z</time>
   </trkpt>
   <trkpt lat="35.2709350" lon="113.9120500">
    <ele>73.4</ele>
    <time>2024-07-10T04:31:44Z</time>
   </trkpt>
   <trkpt lat="35.2709730" lon="113.9120500">
    <ele>73.6</ele>
    <time>2024-07-10T04:31:45Z</time>
   </trkpt>
   <trkpt lat="35.2710150" lon="113.9120500">
    <ele>73.7</ele>
    <time>2024-07-10T04:31:46Z</time>
   </trkpt>
   <trkpt lat="35.2710530" lon="113.9120500">
    <ele>73.9</ele>
    <time>2024-07-10T04:31:47Z</time>
   </trkpt>
   <trkpt lat="35.2710900" lon="113.9120500">
    <ele>73.8</ele>
    <time>2024-07-10T04:31:48Z</time>
   </trkpt>
   <trkpt lat="35.2711300" lon="113.9120500">
    <ele>73.7</ele>
    <time>2024-07-10T04:31:49Z</time>
   </trkpt>
   <trkpt lat="35.2711700" lon="113.9120500">
    <ele>73.7</ele>
    <time>2024-07-10T04:31:50Z</time>
   </trkpt>
   <trkpt lat="35.2712100" lon="113.9120500">
    <ele>73.6</ele>
    <time>2024-07-10T04:31:51Z</time>
   </trkpt>
   <trkpt lat="35.2712480" lon="113.9120500">
    <ele>73.6</ele>
    <time>2024-07-10T04:31:52Z</time>
   </trkpt>
   <trkpt lat="35.2712900" lon="113.9120500">
    <ele>73.6</ele>
    <time>2024-07-10T04:31:53Z</time>
   </trkpt>
   <trkpt lat="35.2713740" lon="113.9120500">
    <ele>73.6</ele>
    <time>2024-07-10T04:31:55Z</time>
   </trkpt>
   <trkpt lat="35.2714580" lon="113.9120560">
    <ele>73.5</ele>
    <time>2024-07-10T04:31:57Z</time>
   </trkpt>
   <trkpt lat="35.2715380" lon="113.9120500">
    <ele>73.5</ele>
    <time>2024-07-10T04:31:59Z</time>
   </trkpt>
   <trkpt lat="35.2715800" lon="113.9120500">
    <ele>73.5</ele>
    <time>2024-07-10T04:32:00Z</time>
   </trkpt>
   <trkpt lat="35.2716180" lon="113.9120500">
    <ele>73.6</ele>
    <time>2024-07-10T04:32:01Z</time>
   </trkpt>
   <trkpt lat="35.2716600" lon="113.9120500">
    <ele>73.6</ele>
    <time>2024-07-10T04:32:02Z</time>
   </trkpt>
   <trkpt lat="35.2716980" lon="113.9120500">
    <ele>73.6</ele>
    <time>2024-07-10T04:32:03Z</time>
   </trkpt>
   <trkpt lat="35.2717400" lon="113.9120500">
    <ele>73.6</ele>
    <time>2024-07-10T04:32:04Z</time>
   </trkpt>
   <trkpt lat="35.2718280" lon="113.9120500">
    <ele>73.6</ele>
    <time>2024-07-10T04:32:06Z</time>
   </trkpt>
   <trkpt lat="35.2719100" lon="113.9120500">
    <ele>73.6</ele>
    <time>2024-07-10T04:32:08Z</time>
   </trkpt>
   <trkpt lat="35.2719960" lon="113.9120500">
    <ele>73.6</ele>
    <time>2024-07-10T04:32:10Z</time>
   </trkpt>
   <trkpt lat="35.2720830" lon="113.9120500">
    <ele>73.5</ele>
    <time>2024-07-10T04:32:12Z</time>
   </trkpt>
   <trkpt lat="35.2721750" lon="113.9120500">
    <ele>73.3</ele>
    <time>2024-07-10T04:32:14Z</time>
   </trkpt>
   <trkpt lat="35.2722660" lon="113.9120560">
    <ele>73.2</ele>
    <time>2024-07-10T04:32:16Z</time>
   </trkpt>
   <trkpt lat="35.2723580" lon="113.9120560">
    <ele>73.1</ele>
    <time>2024-07-10T04:32:18Z</time>
   </trkpt>
   <trkpt lat="35.2724080" lon="113.9120560">
    <ele>73.1</ele>
    <time>2024-07-10T04:32:19Z</time>
   </trkpt>
   <trkpt lat="35.2724530" lon="113.9120600">
    <ele>73.0</ele>
    <time>2024-07-10T04:32:20Z</time>
   </trkpt>
   <trkpt lat="35.2725450" lon="113.9120600">
    <ele>73.0</ele>
    <time>2024-07-10T04:32:22Z</time>
   </trkpt>
   <trkpt lat="35.2726360" lon="113.9120560">
    <ele>73.0</ele>
    <time>2024-07-10T04:32:24Z</time>
   </trkpt>
   <trkpt lat="35.2726800" lon="113.9120560">
    <ele>73.1</ele>
    <time>2024-07-10T04:32:25Z</time>
   </trkpt>
   <trkpt lat="35.2727240" lon="113.9120560">
    <ele>73.1</ele>
    <time>2024-07-10T04:32:26Z</time>
   </trkpt>
   <trkpt lat="35.2727740" lon="113.9120560">
    <ele>73.2</ele>
    <time>2024-07-10T04:32:27Z</time>
   </trkpt>
   <trkpt lat="35.2728200" lon="113.9120600">
    <ele>73.3</ele>
    <time>2024-07-10T04:32:28Z</time>
   </trkpt>
   <trkpt lat="35.2728650" lon="113.9120560">
    <ele>73.3</ele>
    <time>2024-07-10T04:32:29Z</time>
   </trkpt>
   <trkpt lat="35.2729150" lon="113.9120560">
    <ele>73.3</ele>
    <time>2024-07-10T04:32:30Z</time>
   </trkpt>
   <trkpt lat="35.2729600" lon="113.9120560">
    <ele>73.4</ele>
    <time>2024-07-10T04:32:31Z</time>
   </trkpt>
   <trkpt lat="35.2730520" lon="113.9120560">
    <ele>73.4</ele>
    <time>2024-07-10T04:32:33Z</time>
   </trkpt>
   <trkpt lat="35.2731480" lon="113.9120560">
    <ele>73.5</ele>
    <time>2024-07-10T04:32:35Z</time>
   </trkpt>
   <trkpt lat="35.2731930" lon="113.9120560">
    <ele>73.5</ele>
    <time>2024-07-10T04:32:36Z</time>
   </trkpt>
   <trkpt lat="35.2732400" lon="113.9120560">
    <ele>73.5</ele>
    <time>2024-07-10T04:32:37Z</time>
   </trkpt>
   <trkpt lat="35.2732850" lon="113.9120500">
    <ele>73.6</ele>
    <time>2024-07-10T04:32:38Z</time>
   </trkpt>
   <trkpt lat="35.2733300" lon="113.9120500">
    <ele>73.6</ele>
    <time>2024-07-10T04:32:39Z</time>
   </trkpt>
   <trkpt lat="35.2734220" lon="113.9120500">
    <ele>73.6</ele>
    <time>2024-07-10T04:32:41Z</time>
   </trkpt>
   <trkpt lat="35.2735180" lon="113.9120500">
    <ele>73.6</ele>
    <time>2024-07-10T04:32:43Z</time>
   </trkpt>
   <trkpt lat="35.2735630" lon="113.9120500">
    <ele>73.6</ele>
    <time>2024-07-10T04:32:44Z</time>
   </trkpt>
   <trkpt lat="35.2736600" lon="113.9120500">
    <ele>73.6</ele>
    <time>2024-07-10T04:32:46Z</time>
   </trkpt>
   <trkpt lat="35.2737600" lon="113.9120560">
    <ele>73.7</ele>
    <time>2024-07-10T04:32:48Z</time>
   </trkpt>
   <trkpt lat="35.2738600" lon="113.9120500">
    <ele>73.7</ele>
    <time>2024-07-10T04:32:50Z</time>
   </trkpt>
   <trkpt lat="35.2739600" lon="113.9120500">
    <ele>73.6</ele>
    <time>2024-07-10T04:32:52Z</time>
   </trkpt>
   <trkpt lat="35.2740600" lon="113.9120500">
    <ele>73.4</ele>
    <time>2024-07-10T04:32:54Z</time>
   </trkpt>
   <trkpt lat="35.2741550" lon="113.9120500">
    <ele>73.3</ele>
    <time>2024-07-10T04:32:56Z</time>
   </trkpt>
   <trkpt lat="35.2742040" lon="113.9120560">
    <ele>73.2</ele>
    <time>2024-07-10T04:32:57Z</time>
   </trkpt>
   <trkpt lat="35.2742500" lon="113.9120560">
    <ele>73.2</ele>
    <time>2024-07-10T04:32:58Z</time>
   </trkpt>
   <trkpt lat="35.2742960" lon="113.9120600">
    <ele>73.2</ele>
    <time>2024-07-10T04:32:59Z</time>
   </trkpt>
   <trkpt lat="35.2743400" lon="113.9120600">
    <ele>73.2</ele>
    <time>2024-07-10T04:33:00Z</time>
   </trkpt>
   <trkpt lat="35.2743900" lon="113.9120700">
    <ele>73.2</ele>
    <time>2024-07-10T04:33:01Z</time>
   </trkpt>
   <trkpt lat="35.2744370" lon="113.9120800">
    <ele>73.2</ele>
    <time>2024-07-10T04:33:02Z</time>
   </trkpt>
   <trkpt lat="35.2744830" lon="113.9120800">
    <ele>73.1</ele>
    <time>2024-07-10T04:33:03Z</time>
   </trkpt>
   <trkpt lat="35.2745250" lon="113.9120900">
    <ele>73.1</ele>
    <time>2024-07-10T04:33:04Z</time>
   </trkpt>
   <trkpt lat="35.2745630" lon="113.9120900">
    <ele>73.0</ele>
    <time>2024-07-10T04:33:05Z</time>
   </trkpt>
   <trkpt lat="35.2745970" lon="113.9120900">
    <ele>72.9</ele>
    <time>2024-07-10T04:33:06Z</time>
   </trkpt>
   <trkpt lat="35.2746280" lon="113.9120900">
    <ele>72.9</ele>
    <time>2024-07-10T04:33:07Z</time>
   </trkpt>
   <trkpt lat="35.2746540" lon="113.9120900">
    <ele>72.8</ele>
    <time>2024-07-10T04:33:08Z</time>
   </trkpt>
   <trkpt lat="35.2746770" lon="113.9120900">
    <ele>72.8</ele>
    <time>2024-07-10T04:33:09Z</time>
   </trkpt>
   <trkpt lat="35.2746930" lon="113.9120900">
    <ele>72.7</ele>
    <time>2024-07-10T04:33:10Z</time>
   </trkpt>
   <trkpt lat="35.2747080" lon="113.9120900">
    <ele>72.7</ele>
    <time>2024-07-10T04:33:11Z</time>
   </trkpt>
   <trkpt lat="35.2747270" lon="113.9120900">
    <ele>72.7</ele>
    <time>2024-07-10T04:33:12Z</time>
   </trkpt>
   <trkpt lat="35.2747460" lon="113.9120800">
    <ele>72.6</ele>
    <time>2024-07-10T04:33:13Z</time>
   </trkpt>
   <trkpt lat="35.2747700" lon="113.9120800">
    <ele>72.6</ele>
    <time>2024-07-10T04:33:14Z</time>
   </trkpt>
   <trkpt lat="35.2747960" lon="113.9120900">
    <ele>72.5</ele>
    <time>2024-07-10T04:33:15Z</time>
   </trkpt>
   <trkpt lat="35.2748220" lon="113.9120900">
    <ele>72.5</ele>
    <time>2024-07-10T04:33:16Z</time>
   </trkpt>
   <trkpt lat="35.2748500" lon="113.9120900">
    <ele>72.5</ele>
    <time>2024-07-10T04:33:17Z</time>
   </trkpt>
   <trkpt lat="35.2748800" lon="113.9120940">
    <ele>72.4</ele>
    <time>2024-07-10T04:33:18Z</time>
   </trkpt>
   <trkpt lat="35.2749100" lon="113.9121000">
    <ele>72.4</ele>
    <time>2024-07-10T04:33:19Z</time>
   </trkpt>
   <trkpt lat="35.2749400" lon="113.9121000">
    <ele>72.4</ele>
    <time>2024-07-10T04:33:20Z</time>
   </trkpt>
   <trkpt lat="35.2749750" lon="113.9121000">
    <ele>72.3</ele>
    <time>2024-07-10T04:33:21Z</time>
   </trkpt>
   <trkpt lat="35.2750100" lon="113.9120940">
    <ele>72.2</ele>
    <time>2024-07-10T04:33:22Z</time>
   </trkpt>
   <trkpt lat="35.2750430" lon="113.9120940">
    <ele>72.2</ele>
    <time>2024-07-10T04:33:23Z</time>
   </trkpt>
   <trkpt lat="35.2750780" lon="113.9120940">
    <ele>72.4</ele>
    <time>2024-07-10T04:33:24Z</time>
   </trkpt>
   <trkpt lat="35.2751120" lon="113.9121000">
    <ele>72.6</ele>
    <time>2024-07-10T04:33:25Z</time>
   </trkpt>
   <trkpt lat="35.2751500" lon="113.9121000">
    <ele>72.8</ele>
    <time>2024-07-10T04:33:26Z</time>
   </trkpt>
   <trkpt lat="35.2751850" lon="113.9120940">
    <ele>72.8</ele>
    <time>2024-07-10T04:33:27Z</time>
   </trkpt>
   <trkpt lat="35.2752230" lon="113.9120900">
    <ele>72.8</ele>
    <time>2024-07-10T04:33:28Z</time>
   </trkpt>
   <trkpt lat="35.2752570" lon="113.9120900">
    <ele>72.8</ele>
    <time>2024-07-10T04:33:29Z</time>
   </trkpt>
   <trkpt lat="35.2752950" lon="113.9120900">
    <ele>72.8</ele>
    <time>2024-07-10T04:33:30Z</time>
   </trkpt>
   <trkpt lat="35.2753330" lon="113.9120900">
    <ele>72.8</ele>
    <time>2024-07-10T04:33:31Z</time>
   </trkpt>
   <trkpt lat="35.2753750" lon="113.9120800">
    <ele>72.8</ele>
    <time>2024-07-10T04:33:32Z</time>
   </trkpt>
   <trkpt lat="35.2754140" lon="113.9120800">
    <ele>72.8</ele>
    <time>2024-07-10T04:33:33Z</time>
   </trkpt>
   <trkpt lat="35.2754550" lon="113.9120800">
    <ele>72.8</ele>
    <time>2024-07-10T04:33:34Z</time>
   </trkpt>
   <trkpt lat="35.2754940" lon="113.9120800">
    <ele>72.7</ele>
    <time>2024-07-10T04:33:35Z</time>
   </trkpt>
   <trkpt lat="35.2755360" lon="113.9120800">
    <ele>72.7</ele>
    <time>2024-07-10T04:33:36Z</time>
   </trkpt>
   <trkpt lat="35.2755740" lon="113.9120800">
    <ele>72.6</ele>
    <time>2024-07-10T04:33:37Z</time>
   </trkpt>
   <trkpt lat="35.2756160" lon="113.9120800">
    <ele>72.5</ele>
    <time>2024-07-10T04:33:38Z</time>
   </trkpt>
   <trkpt lat="35.2756540" lon="113.9120800">
    <ele>72.5</ele>
    <time>2024-07-10T04:33:39Z</time>
   </trkpt>
   <trkpt lat="35.2756920" lon="113.9120800">
    <ele>72.4</ele>
    <time>2024-07-10T04:33:40Z</time>
   </trkpt>
   <trkpt lat="35.2757340" lon="113.9120800">
    <ele>72.3</ele>
    <time>2024-07-10T04:33:41Z</time>
   </trkpt>
   <trkpt lat="35.2758100" lon="113.9120700">
    <ele>72.2</ele>
    <time>2024-07-10T04:33:43Z</time>
   </trkpt>
   <trkpt lat="35.2758520" lon="113.9120700">
    <ele>72.1</ele>
    <time>2024-07-10T04:33:44Z</time>
   </trkpt>
   <trkpt lat="35.2758900" lon="113.9120600">
    <ele>72.0</ele>
    <time>2024-07-10T04:33:45Z</time>
   </trkpt>
   <trkpt lat="35.2759320" lon="113.9120600">
    <ele>71.9</ele>
    <time>2024-07-10T04:33:46Z</time>
   </trkpt>
   <trkpt lat="35.2759700" lon="113.9120600">
    <ele>71.9</ele>
    <time>2024-07-10T04:33:47Z</time>
   </trkpt>
   <trkpt lat="35.2760100" lon="113.9120560">
    <ele>71.8</ele>
    <time>2024-07-10T04:33:48Z</time>
   </trkpt>
   <trkpt lat="35.2760500" lon="113.9120560">
    <ele>71.8</ele>
    <time>2024-07-10T04:33:49Z</time>
   </trkpt>
   <trkpt lat="35.2760850" lon="113.9120560">
    <ele>71.7</ele>
    <time>2024-07-10T04:33:50Z</time>
   </trkpt>
   <trkpt lat="35.2761270" lon="113.9120560">
    <ele>71.6</ele>
    <time>2024-07-10T04:33:51Z</time>
   </trkpt>
   <trkpt lat="35.2761650" lon="113.9120560">
    <ele>71.6</ele>
    <time>2024-07-10T04:33:52Z</time>
   </trkpt>
   <trkpt lat="35.2762030" lon="113.9120560">
    <ele>71.5</ele>
    <time>2024-07-10T04:33:53Z</time>
   </trkpt>
   <trkpt lat="35.2762400" lon="113.9120560">
    <ele>71.4</ele>
    <time>2024-07-10T04:33:54Z</time>
   </trkpt>
   <trkpt lat="35.2762800" lon="113.9120560">
    <ele>71.4</ele>
    <time>2024-07-10T04:33:55Z</time>
   </trkpt>
   <trkpt lat="35.2763200" lon="113.9120560">
    <ele>71.3</ele>
    <time>2024-07-10T04:33:56Z</time>
   </trkpt>
   <trkpt lat="35.2763600" lon="113.9120560">
    <ele>71.2</ele>
    <time>2024-07-10T04:33:57Z</time>
   </trkpt>
   <trkpt lat="35.2763980" lon="113.9120560">
    <ele>71.1</ele>
    <time>2024-07-10T04:33:58Z</time>
   </trkpt>
   <trkpt lat="35.2764400" lon="113.9120560">
    <ele>71.0</ele>
    <time>2024-07-10T04:33:59Z</time>
   </trkpt>
   <trkpt lat="35.2764800" lon="113.9120560">
    <ele>71.0</ele>
    <time>2024-07-10T04:34:00Z</time>
   </trkpt>
   <trkpt lat="35.2765240" lon="113.9120560">
    <ele>70.9</ele>
    <time>2024-07-10T04:34:01Z</time>
   </trkpt>
   <trkpt lat="35.2765600" lon="113.9120560">
    <ele>70.8</ele>
    <time>2024-07-10T04:34:02Z</time>
   </trkpt>
   <trkpt lat="35.2766040" lon="113.9120600">
    <ele>70.8</ele>
    <time>2024-07-10T04:34:03Z</time>
   </trkpt>
   <trkpt lat="35.2766460" lon="113.9120600">
    <ele>70.7</ele>
    <time>2024-07-10T04:34:04Z</time>
   </trkpt>
   <trkpt lat="35.2766840" lon="113.9120560">
    <ele>70.7</ele>
    <time>2024-07-10T04:34:05Z</time>
   </trkpt>
   <trkpt lat="35.2767260" lon="113.9120560">
    <ele>70.7</ele>
    <time>2024-07-10T04:34:06Z</time>
   </trkpt>
   <trkpt lat="35.2767680" lon="113.9120560">
    <ele>70.6</ele>
    <time>2024-07-10T04:34:07Z</time>
   </trkpt>
   <trkpt lat="35.2768100" lon="113.9120560">
    <ele>70.6</ele>
    <time>2024-07-10T04:34:08Z</time>
   </trkpt>
   <trkpt lat="35.2768500" lon="113.9120560">
    <ele>70.6</ele>
    <time>2024-07-10T04:34:09Z</time>
   </trkpt>
   <trkpt lat="35.2768900" lon="113.9120560">
    <ele>70.6</ele>
    <time>2024-07-10T04:34:10Z</time>
   </trkpt>
   <trkpt lat="35.2769300" lon="113.9120600">
    <ele>70.6</ele>
    <time>2024-07-10T04:34:11Z</time>
   </trkpt>
   <trkpt lat="35.2769740" lon="113.9120560">
    <ele>70.6</ele>
    <time>2024-07-10T04:34:12Z</time>
   </trkpt>
   <trkpt lat="35.2770160" lon="113.9120600">
    <ele>70.6</ele>
    <time>2024-07-10T04:34:13Z</time>
   </trkpt>
   <trkpt lat="35.2770580" lon="113.9120600">
    <ele>70.6</ele>
    <time>2024-07-10T04:34:14Z</time>
   </trkpt>
   <trkpt lat="35.2770960" lon="113.9120600">
    <ele>70.6</ele>
    <time>2024-07-10T04:34:15Z</time>
   </trkpt>
   <trkpt lat="35.2771380" lon="113.9120600">
    <ele>70.6</ele>
    <time>2024-07-10T04:34:16Z</time>
   </trkpt>
   <trkpt lat="35.2771800" lon="113.9120560">
    <ele>70.6</ele>
    <time>2024-07-10T04:34:17Z</time>
   </trkpt>
   <trkpt lat="35.2772200" lon="113.9120560">
    <ele>70.6</ele>
    <time>2024-07-10T04:34:18Z</time>
   </trkpt>
   <trkpt lat="35.2772600" lon="113.9120600">
    <ele>70.6</ele>
    <time>2024-07-10T04:34:19Z</time>
   </trkpt>
   <trkpt lat="35.2773000" lon="113.9120600">
    <ele>70.6</ele>
    <time>2024-07-10T04:34:20Z</time>
   </trkpt>
   <trkpt lat="35.2773440" lon="113.9120600">
    <ele>70.7</ele>
    <time>2024-07-10T04:34:21Z</time>
   </trkpt>
   <trkpt lat="35.2773860" lon="113.9120560">
    <ele>70.7</ele>
    <time>2024-07-10T04:34:22Z</time>
   </trkpt>
   <trkpt lat="35.2774280" lon="113.9120600">
    <ele>70.7</ele>
    <time>2024-07-10T04:34:23Z</time>
   </trkpt>
   <trkpt lat="35.2774700" lon="113.9120600">
    <ele>70.7</ele>
    <time>2024-07-10T04:34:24Z</time>
   </trkpt>
   <trkpt lat="35.2775080" lon="113.9120600">
    <ele>70.8</ele>
    <time>2024-07-10T04:34:25Z</time>
   </trkpt>
   <trkpt lat="35.2775500" lon="113.9120560">
    <ele>70.8</ele>
    <time>2024-07-10T04:34:26Z</time>
   </trkpt>
   <trkpt lat="35.2775900" lon="113.9120560">
    <ele>70.9</ele>
    <time>2024-07-10T04:34:27Z</time>
   </trkpt>
   <trkpt lat="35.2776340" lon="113.9120560">
    <ele>71.0</ele>
    <time>2024-07-10T04:34:28Z</time>
   </trkpt>
   <trkpt lat="35.2776700" lon="113.9120560">
    <ele>71.1</ele>
    <time>2024-07-10T04:34:29Z</time>
   </trkpt>
   <trkpt lat="35.2777180" lon="113.9120560">
    <ele>71.3</ele>
    <time>2024-07-10T04:34:30Z</time>
   </trkpt>
   <trkpt lat="35.2777600" lon="113.9120600">
    <ele>71.4</ele>
    <time>2024-07-10T04:34:31Z</time>
   </trkpt>
   <trkpt lat="35.2778000" lon="113.9120600">
    <ele>71.4</ele>
    <time>2024-07-10T04:34:32Z</time>
   </trkpt>
   <trkpt lat="35.2778430" lon="113.9120700">
    <ele>71.5</ele>
    <time>2024-07-10T04:34:33Z</time>
   </trkpt>
   <trkpt lat="35.2778850" lon="113.9120700">
    <ele>71.6</ele>
    <time>2024-07-10T04:34:34Z</time>
   </trkpt>
   <trkpt lat="35.2779270" lon="113.9120700">
    <ele>71.6</ele>
    <time>2024-07-10T04:34:35Z</time>
   </trkpt>
   <trkpt lat="35.2779660" lon="113.9120600">
    <ele>71.6</ele>
    <time>2024-07-10T04:34:36Z</time>
   </trkpt>
   <trkpt lat="35.2780080" lon="113.9120700">
    <ele>71.6</ele>
    <time>2024-07-10T04:34:37Z</time>
   </trkpt>
   <trkpt lat="35.2780460" lon="113.9120700">
    <ele>71.5</ele>
    <time>2024-07-10T04:34:38Z</time>
   </trkpt>
   <trkpt lat="35.2780840" lon="113.9120700">
    <ele>71.5</ele>
    <time>2024-07-10T04:34:39Z</time>
   </trkpt>
   <trkpt lat="35.2781260" lon="113.9120600">
    <ele>71.5</ele>
    <time>2024-07-10T04:34:40Z</time>
   </trkpt>
   <trkpt lat="35.2781640" lon="113.9120600">
    <ele>71.5</ele>
    <time>2024-07-10T04:34:41Z</time>
   </trkpt>
   <trkpt lat="35.2782020" lon="113.9120600">
    <ele>71.5</ele>
    <time>2024-07-10T04:34:42Z</time>
   </trkpt>
   <trkpt lat="35.2782400" lon="113.9120600">
    <ele>71.5</ele>
    <time>2024-07-10T04:34:43Z</time>
   </trkpt>
   <trkpt lat="35.2782820" lon="113.9120600">
    <ele>71.5</ele>
    <time>2024-07-10T04:34:44Z</time>
   </trkpt>
   <trkpt lat="35.2783200" lon="113.9120560">
    <ele>71.6</ele>
    <time>2024-07-10T04:34:45Z</time>
   </trkpt>
   <trkpt lat="35.2783600" lon="113.9120560">
    <ele>71.6</ele>
    <time>2024-07-10T04:34:46Z</time>
   </trkpt>
   <trkpt lat="35.2783970" lon="113.9120600">
    <ele>71.6</ele>
    <time>2024-07-10T04:34:47Z</time>
   </trkpt>
   <trkpt lat="35.2784350" lon="113.9120600">
    <ele>71.6</ele>
    <time>2024-07-10T04:34:48Z</time>
   </trkpt>
   <trkpt lat="35.2784730" lon="113.9120600">
    <ele>71.6</ele>
    <time>2024-07-10T04:34:49Z</time>
   </trkpt>
   <trkpt lat="35.2785100" lon="113.9120600">
    <ele>71.6</ele>
    <time>2024-07-10T04:34:50Z</time>
   </trkpt>
   <trkpt lat="35.2785500" lon="113.9120560">
    <ele>71.6</ele>
    <time>2024-07-10T04:34:51Z</time>
   </trkpt>
   <trkpt lat="35.2785870" lon="113.9120600">
    <ele>71.6</ele>
    <time>2024-07-10T04:34:52Z</time>
   </trkpt>
   <trkpt lat="35.2786200" lon="113.9120600">
    <ele>71.6</ele>
    <time>2024-07-10T04:34:53Z</time>
   </trkpt>
   <trkpt lat="35.2786560" lon="113.9120600">
    <ele>71.6</ele>
    <time>2024-07-10T04:34:54Z</time>
   </trkpt>
   <trkpt lat="35.2786900" lon="113.9120700">
    <ele>71.6</ele>
    <time>2024-07-10T04:34:55Z</time>
   </trkpt>
   <trkpt lat="35.2787250" lon="113.9120900">
    <ele>71.6</ele>
    <time>2024-07-10T04:34:56Z</time>
   </trkpt>
   <trkpt lat="35.2787600" lon="113.9120900">
    <ele>71.5</ele>
    <time>2024-07-10T04:34:57Z</time>
   </trkpt>
   <trkpt lat="35.2787970" lon="113.9120900">
    <ele>71.5</ele>
    <time>2024-07-10T04:34:58Z</time>
   </trkpt>
   <trkpt lat="35.2788280" lon="113.9120800">
    <ele>71.5</ele>
    <time>2024-07-10T04:34:59Z</time>
   </trkpt>
   <trkpt lat="35.2788660" lon="113.9120800">
    <ele>71.5</ele>
    <time>2024-07-10T04:35:00Z</time>
   </trkpt>
   <trkpt lat="35.2788960" lon="113.9120900">
    <ele>71.5</ele>
    <time>2024-07-10T04:35:01Z</time>
   </trkpt>
   <trkpt lat="35.2789300" lon="113.9120900">
    <ele>71.5</ele>
    <time>2024-07-10T04:35:02Z</time>
   </trkpt>
   <trkpt lat="35.2789600" lon="113.9120900">
    <ele>71.5</ele>
    <time>2024-07-10T04:35:03Z</time>
   </trkpt>
   <trkpt lat="35.2789900" lon="113.9120900">
    <ele>71.5</ele>
    <time>2024-07-10T04:35:04Z</time>
   </trkpt>
   <trkpt lat="35.2790220" lon="113.9120800">
    <ele>71.5</ele>
    <time>2024-07-10T04:35:05Z</time>
   </trkpt>
   <trkpt lat="35.2790500" lon="113.9120900">
    <ele>71.5</ele>
    <time>2024-07-10T04:35:06Z</time>
   </trkpt>
   <trkpt lat="35.2790700" lon="113.9120900">
    <ele>71.6</ele>
    <time>2024-07-10T04:35:07Z</time>
   </trkpt>
   <trkpt lat="35.2791000" lon="113.9120940">
    <ele>71.6</ele>
    <time>2024-07-10T04:35:08Z</time>
   </trkpt>
   <trkpt lat="35.2791180" lon="113.9120940">
    <ele>71.6</ele>
    <time>2024-07-10T04:35:09Z</time>
   </trkpt>
   <trkpt lat="35.2791370" lon="113.9121000">
    <ele>71.6</ele>
    <time>2024-07-10T04:35:10Z</time>
   </trkpt>
   <trkpt lat="35.2791520" lon="113.9121000">
    <ele>71.7</ele>
    <time>2024-07-10T04:35:11Z</time>
   </trkpt>
   <trkpt lat="35.2791670" lon="113.9121000">
    <ele>71.7</ele>
    <time>2024-07-10T04:35:12Z</time>
   </trkpt>
   <trkpt lat="35.2791860" lon="113.9121000">
    <ele>71.7</ele>
    <time>2024-07-10T04:35:13Z</time>
   </trkpt>
   <trkpt lat="35.2791980" lon="113.9121000">
    <ele>71.7</ele>
    <time>2024-07-10T04:35:14Z</time>
   </trkpt>
   <trkpt lat="35.2792130" lon="113.9121100">
    <ele>71.8</ele>
    <time>2024-07-10T04:35:15Z</time>
   </trkpt>
   <trkpt lat="35.2792300" lon="113.9121100">
    <ele>71.8</ele>
    <time>2024-07-10T04:35:16Z</time>
   </trkpt>
   <trkpt lat="35.2792470" lon="113.9121200">
    <ele>71.8</ele>
    <time>2024-07-10T04:35:17Z</time>
   </trkpt>
   <trkpt lat="35.2792660" lon="113.9121200">
    <ele>71.9</ele>
    <time>2024-07-10T04:35:18Z</time>
   </trkpt>
   <trkpt lat="35.2792930" lon="113.9121200">
    <ele>71.9</ele>
    <time>2024-07-10T04:35:19Z</time>
   </trkpt>
   <trkpt lat="35.2793160" lon="113.9121300">
    <ele>72.0</ele>
    <time>2024-07-10T04:35:20Z</time>
   </trkpt>
   <trkpt lat="35.2793430" lon="113.9121500">
    <ele>72.0</ele>
    <time>2024-07-10T04:35:21Z</time>
   </trkpt>
   <trkpt lat="35.2793730" lon="113.9121550">
    <ele>72.0</ele>
    <time>2024-07-10T04:35:22Z</time>
   </trkpt>
   <trkpt lat="35.2794080" lon="113.9121600">
    <ele>72.0</ele>
    <time>2024-07-10T04:35:23Z</time>
   </trkpt>
   <trkpt lat="35.2794400" lon="113.9121600">
    <ele>71.9</ele>
    <time>2024-07-10T04:35:24Z</time>
   </trkpt>
   <trkpt lat="35.2794720" lon="113.9121600">
    <ele>71.9</ele>
    <time>2024-07-10T04:35:25Z</time>
   </trkpt>
   <trkpt lat="35.2795030" lon="113.9121550">
    <ele>71.9</ele>
    <time>2024-07-10T04:35:26Z</time>
   </trkpt>
   <trkpt lat="35.2795370" lon="113.9121550">
    <ele>71.9</ele>
    <time>2024-07-10T04:35:27Z</time>
   </trkpt>
   <trkpt lat="35.2795680" lon="113.9121500">
    <ele>71.9</ele>
    <time>2024-07-10T04:35:28Z</time>
   </trkpt>
   <trkpt lat="35.2796020" lon="113.9121400">
    <ele>71.8</ele>
    <time>2024-07-10T04:35:29Z</time>
   </trkpt>
   <trkpt lat="35.2796360" lon="113.9121400">
    <ele>71.8</ele>
    <time>2024-07-10T04:35:30Z</time>
   </trkpt>
   <trkpt lat="35.2796670" lon="113.9121500">
    <ele>71.8</ele>
    <time>2024-07-10T04:35:31Z</time>
   </trkpt>
   <trkpt lat="35.2797000" lon="113.9121550">
    <ele>71.7</ele>
    <time>2024-07-10T04:35:32Z</time>
   </trkpt>
   <trkpt lat="35.2797300" lon="113.9121600">
    <ele>71.7</ele>
    <time>2024-07-10T04:35:33Z</time>
   </trkpt>
   <trkpt lat="35.2797660" lon="113.9121700">
    <ele>71.6</ele>
    <time>2024-07-10T04:35:34Z</time>
   </trkpt>
   <trkpt lat="35.2798000" lon="113.9121860">
    <ele>71.6</ele>
    <time>2024-07-10T04:35:35Z</time>
   </trkpt>
   <trkpt lat="35.2798350" lon="113.9121900">
    <ele>71.6</ele>
    <time>2024-07-10T04:35:36Z</time>
   </trkpt>
   <trkpt lat="35.2798730" lon="113.9121900">
    <ele>71.5</ele>
    <time>2024-07-10T04:35:37Z</time>
   </trkpt>
   <trkpt lat="35.2799070" lon="113.9122000">
    <ele>71.4</ele>
    <time>2024-07-10T04:35:38Z</time>
   </trkpt>
   <trkpt lat="35.2799400" lon="113.9122000">
    <ele>71.4</ele>
    <time>2024-07-10T04:35:39Z</time>
   </trkpt>
   <trkpt lat="35.2799760" lon="113.9122000">
    <ele>71.3</ele>
    <time>2024-07-10T04:35:40Z</time>
   </trkpt>
   <trkpt lat="35.2800100" lon="113.9122100">
    <ele>71.3</ele>
    <time>2024-07-10T04:35:41Z</time>
   </trkpt>
   <trkpt lat="35.2800450" lon="113.9122100">
    <ele>71.2</ele>
    <time>2024-07-10T04:35:42Z</time>
   </trkpt>
   <trkpt lat="35.2800800" lon="113.9122200">
    <ele>71.1</ele>
    <time>2024-07-10T04:35:43Z</time>
   </trkpt>
   <trkpt lat="35.2801130" lon="113.9122200">
    <ele>71.0</ele>
    <time>2024-07-10T04:35:44Z</time>
   </trkpt>
   <trkpt lat="35.2801440" lon="113.9122240">
    <ele>71.0</ele>
    <time>2024-07-10T04:35:45Z</time>
   </trkpt>
   <trkpt lat="35.2801740" lon="113.9122240">
    <ele>70.9</ele>
    <time>2024-07-10T04:35:46Z</time>
   </trkpt>
   <trkpt lat="35.2802100" lon="113.9122300">
    <ele>70.8</ele>
    <time>2024-07-10T04:35:47Z</time>
   </trkpt>
   <trkpt lat="35.2802400" lon="113.9122300">
    <ele>70.8</ele>
    <time>2024-07-10T04:35:48Z</time>
   </trkpt>
   <trkpt lat="35.2802700" lon="113.9122400">
    <ele>70.7</ele>
    <time>2024-07-10T04:35:49Z</time>
   </trkpt>
   <trkpt lat="35.2802960" lon="113.9122500">
    <ele>70.7</ele>
    <time>2024-07-10T04:35:50Z</time>
   </trkpt>
   <trkpt lat="35.2803270" lon="113.9122500">
    <ele>70.6</ele>
    <time>2024-07-10T04:35:51Z</time>
   </trkpt>
   <trkpt lat="35.2803540" lon="113.9122540">
    <ele>70.6</ele>
    <time>2024-07-10T04:35:52Z</time>
   </trkpt>
   <trkpt lat="35.2803840" lon="113.9122600">
    <ele>70.6</ele>
    <time>2024-07-10T04:35:53Z</time>
   </trkpt>
   <trkpt lat="35.2804100" lon="113.9122600">
    <ele>70.6</ele>
    <time>2024-07-10T04:35:54Z</time>
   </trkpt>
   <trkpt lat="35.2804370" lon="113.9122700">
    <ele>70.5</ele>
    <time>2024-07-10T04:35:55Z</time>
   </trkpt>
   <trkpt lat="35.2804600" lon="113.9122800">
    <ele>70.5</ele>
    <time>2024-07-10T04:35:56Z</time>
   </trkpt>
   <trkpt lat="35.2804830" lon="113.9122800">
    <ele>70.5</ele>
    <time>2024-07-10T04:35:57Z</time>
   </trkpt>
   <trkpt lat="35.2805020" lon="113.9122700">
    <ele>70.6</ele>
    <time>2024-07-10T04:35:58Z</time>
   </trkpt>
   <trkpt lat="35.2805180" lon="113.9122540">
    <ele>70.3</ele>
    <time>2024-07-10T04:35:59Z</time>
   </trkpt>
   <trkpt lat="35.2805330" lon="113.9122400">
    <ele>70.5</ele>
    <time>2024-07-10T04:36:00Z</time>
   </trkpt>
   <trkpt lat="35.2805500" lon="113.9122200">
    <ele>70.5</ele>
    <time>2024-07-10T04:36:01Z</time>
   </trkpt>
   <trkpt lat="35.2805670" lon="113.9122000">
    <ele>70.6</ele>
    <time>2024-07-10T04:36:02Z</time>
   </trkpt>
   <trkpt lat="35.2805820" lon="113.9121860">
    <ele>70.6</ele>
    <time>2024-07-10T04:36:03Z</time>
   </trkpt>
   <trkpt lat="35.2805940" lon="113.9121600">
    <ele>70.8</ele>
    <time>2024-07-10T04:36:04Z</time>
   </trkpt>
   <trkpt lat="35.2805940" lon="113.9121400">
    <ele>70.8</ele>
    <time>2024-07-10T04:36:05Z</time>
   </trkpt>
   <trkpt lat="35.2805900" lon="113.9121200">
    <ele>70.5</ele>
    <time>2024-07-10T04:36:06Z</time>
   </trkpt>
   <trkpt lat="35.2805800" lon="113.9121000">
    <ele>70.2</ele>
    <time>2024-07-10T04:36:07Z</time>
   </trkpt>
   <trkpt lat="35.2805700" lon="113.9120800">
    <ele>70.0</ele>
    <time>2024-07-10T04:36:08Z</time>
   </trkpt>
   <trkpt lat="35.2805670" lon="113.9120600">
    <ele>70.0</ele>
    <time>2024-07-10T04:36:09Z</time>
   </trkpt>
   <trkpt lat="35.2805700" lon="113.9120400">
    <ele>69.8</ele>
    <time>2024-07-10T04:36:10Z</time>
   </trkpt>
   <trkpt lat="35.2805750" lon="113.9120250">
    <ele>69.8</ele>
    <time>2024-07-10T04:36:11Z</time>
   </trkpt>
   <trkpt lat="35.2805750" lon="113.9120000">
    <ele>69.7</ele>
    <time>2024-07-10T04:36:12Z</time>
   </trkpt>
   <trkpt lat="35.2805800" lon="113.9119700">
    <ele>69.7</ele>
    <time>2024-07-10T04:36:13Z</time>
   </trkpt>
   <trkpt lat="35.2805820" lon="113.9119500">
    <ele>69.6</ele>
    <time>2024-07-10T04:36:14Z</time>
   </trkpt>
   <trkpt lat="35.2805820" lon="113.9119300">
    <ele>69.6</ele>
    <time>2024-07-10T04:36:15Z</time>
   </trkpt>
   <trkpt lat="35.2805750" lon="113.9119000">
    <ele>69.7</ele>
    <time>2024-07-10T04:36:16Z</time>
   </trkpt>
   <trkpt lat="35.2805700" lon="113.9118800">
    <ele>69.7</ele>
    <time>2024-07-10T04:36:17Z</time>
   </trkpt>
   <trkpt lat="35.2805670" lon="113.9118500">
    <ele>69.7</ele>
    <time>2024-07-10T04:36:18Z</time>
   </trkpt>
   <trkpt lat="35.2805700" lon="113.9118200">
    <ele>69.7</ele>
    <time>2024-07-10T04:36:19Z</time>
   </trkpt>
   <trkpt lat="35.2805750" lon="113.9117900">
    <ele>69.7</ele>
    <time>2024-07-10T04:36:20Z</time>
   </trkpt>
   <trkpt lat="35.2805800" lon="113.9117660">
    <ele>69.8</ele>
    <time>2024-07-10T04:36:21Z</time>
   </trkpt>
   <trkpt lat="35.2805820" lon="113.9117360">
    <ele>69.8</ele>
    <time>2024-07-10T04:36:22Z</time>
   </trkpt>
   <trkpt lat="35.2805820" lon="113.9117050">
    <ele>69.8</ele>
    <time>2024-07-10T04:36:23Z</time>
   </trkpt>
   <trkpt lat="35.2805820" lon="113.9116740">
    <ele>69.8</ele>
    <time>2024-07-10T04:36:24Z</time>
   </trkpt>
   <trkpt lat="35.2805860" lon="113.9116440">
    <ele>69.7</ele>
    <time>2024-07-10T04:36:25Z</time>
   </trkpt>
   <trkpt lat="35.2805820" lon="113.9116100">
    <ele>69.6</ele>
    <time>2024-07-10T04:36:26Z</time>
   </trkpt>
   <trkpt lat="35.2805800" lon="113.9115900">
    <ele>69.6</ele>
    <time>2024-07-10T04:36:27Z</time>
   </trkpt>
   <trkpt lat="35.2805750" lon="113.9115500">
    <ele>69.5</ele>
    <time>2024-07-10T04:36:28Z</time>
   </trkpt>
   <trkpt lat="35.2805750" lon="113.9115200">
    <ele>69.5</ele>
    <time>2024-07-10T04:36:29Z</time>
   </trkpt>
   <trkpt lat="35.2805750" lon="113.9115000">
    <ele>69.5</ele>
    <time>2024-07-10T04:36:30Z</time>
   </trkpt>
   <trkpt lat="35.2805700" lon="113.9114760">
    <ele>69.5</ele>
    <time>2024-07-10T04:36:31Z</time>
   </trkpt>
   <trkpt lat="35.2805630" lon="113.9114460">
    <ele>69.5</ele>
    <time>2024-07-10T04:36:32Z</time>
   </trkpt>
   <trkpt lat="35.2805520" lon="113.9114200">
    <ele>69.2</ele>
    <time>2024-07-10T04:36:33Z</time>
   </trkpt>
   <trkpt lat="35.2805400" lon="113.9113900">
    <ele>69.3</ele>
    <time>2024-07-10T04:36:34Z</time>
   </trkpt>
   <trkpt lat="35.2805330" lon="113.9113700">
    <ele>69.3</ele>
    <time>2024-07-10T04:36:35Z</time>
   </trkpt>
   <trkpt lat="35.2805140" lon="113.9113540">
    <ele>69.0</ele>
    <time>2024-07-10T04:36:36Z</time>
   </trkpt>
   <trkpt lat="35.2804900" lon="113.9113400">
    <ele>69.0</ele>
    <time>2024-07-10T04:36:37Z</time>
   </trkpt>
   <trkpt lat="35.2804600" lon="113.9113300">
    <ele>68.8</ele>
    <time>2024-07-10T04:36:38Z</time>
   </trkpt>
   <trkpt lat="35.2804340" lon="113.9113300">
    <ele>68.7</ele>
    <time>2024-07-10T04:36:39Z</time>
   </trkpt>
   <trkpt lat="35.2804030" lon="113.9113200">
    <ele>68.6</ele>
    <time>2024-07-10T04:36:40Z</time>
   </trkpt>
   <trkpt lat="35.2803730" lon="113.9113200">
    <ele>68.6</ele>
    <time>2024-07-10T04:36:41Z</time>
   </trkpt>
   <trkpt lat="35.2803460" lon="113.9113160">
    <ele>68.6</ele>
    <time>2024-07-10T04:36:42Z</time>
   </trkpt>
   <trkpt lat="35.2803150" lon="113.9113100">
    <ele>68.8</ele>
    <time>2024-07-10T04:36:43Z</time>
   </trkpt>
   <trkpt lat="35.2802960" lon="113.9112850">
    <ele>68.9</ele>
    <time>2024-07-10T04:36:44Z</time>
   </trkpt>
   <trkpt lat="35.2802900" lon="113.9112500">
    <ele>68.9</ele>
    <time>2024-07-10T04:36:45Z</time>
   </trkpt>
   <trkpt lat="35.2802800" lon="113.9112100">
    <ele>68.9</ele>
    <time>2024-07-10T04:36:46Z</time>
   </trkpt>
   <trkpt lat="35.2802800" lon="113.9111700">
    <ele>68.9</ele>
    <time>2024-07-10T04:36:47Z</time>
   </trkpt>
   <trkpt lat="35.2802800" lon="113.9111250">
    <ele>68.9</ele>
    <time>2024-07-10T04:36:48Z</time>
   </trkpt>
   <trkpt lat="35.2802800" lon="113.9110900">
    <ele>68.9</ele>
    <time>2024-07-10T04:36:49Z</time>
   </trkpt>
   <trkpt lat="35.2802770" lon="113.9110600">
    <ele>68.9</ele>
    <time>2024-07-10T04:36:50Z</time>
   </trkpt>
   <trkpt lat="35.2802730" lon="113.9110200">
    <ele>69.2</ele>
    <time>2024-07-10T04:36:51Z</time>
   </trkpt>
   <trkpt lat="35.2802730" lon="113.9109800">
    <ele>69.2</ele>
    <time>2024-07-10T04:36:52Z</time>
   </trkpt>
   <trkpt lat="35.2802730" lon="113.9109400">
    <ele>69.2</ele>
    <time>2024-07-10T04:36:53Z</time>
   </trkpt>
   <trkpt lat="35.2802730" lon="113.9109040">
    <ele>69.1</ele>
    <time>2024-07-10T04:36:54Z</time>
   </trkpt>
   <trkpt lat="35.2802730" lon="113.9108600">
    <ele>69.0</ele>
    <time>2024-07-10T04:36:55Z</time>
   </trkpt>
   <trkpt lat="35.2802770" lon="113.9108200">
    <ele>68.8</ele>
    <time>2024-07-10T04:36:56Z</time>
   </trkpt>
   <trkpt lat="35.2802730" lon="113.9107800">
    <ele>68.8</ele>
    <time>2024-07-10T04:36:57Z</time>
   </trkpt>
   <trkpt lat="35.2802660" lon="113.9107400">
    <ele>68.7</ele>
    <time>2024-07-10T04:36:58Z</time>
   </trkpt>
   <trkpt lat="35.2802620" lon="113.9107100">
    <ele>68.7</ele>
    <time>2024-07-10T04:36:59Z</time>
   </trkpt>
   <trkpt lat="35.2802660" lon="113.9106800">
    <ele>68.7</ele>
    <time>2024-07-10T04:37:00Z</time>
   </trkpt>
   <trkpt lat="35.2802660" lon="113.9106450">
    <ele>68.7</ele>
    <time>2024-07-10T04:37:01Z</time>
   </trkpt>
   <trkpt lat="35.2802660" lon="113.9106100">
    <ele>68.9</ele>
    <time>2024-07-10T04:37:02Z</time>
   </trkpt>
   <trkpt lat="35.2802660" lon="113.9105700">
    <ele>69.0</ele>
    <time>2024-07-10T04:37:03Z</time>
   </trkpt>
   <trkpt lat="35.2802700" lon="113.9105300">
    <ele>69.2</ele>
    <time>2024-07-10T04:37:04Z</time>
   </trkpt>
   <trkpt lat="35.2802730" lon="113.9105000">
    <ele>69.2</ele>
    <time>2024-07-10T04:37:05Z</time>
   </trkpt>
   <trkpt lat="35.2802660" lon="113.9104500">
    <ele>69.5</ele>
    <time>2024-07-10T04:37:06Z</time>
   </trkpt>
   <trkpt lat="35.2802600" lon="113.9104160">
    <ele>69.5</ele>
    <time>2024-07-10T04:37:07Z</time>
   </trkpt>
   <trkpt lat="35.2802540" lon="113.9103800">
    <ele>69.4</ele>
    <time>2024-07-10T04:37:08Z</time>
   </trkpt>
   <trkpt lat="35.2802600" lon="113.9103400">
    <ele>69.3</ele>
    <time>2024-07-10T04:37:09Z</time>
   </trkpt>
   <trkpt lat="35.2802620" lon="113.9102900">
    <ele>69.2</ele>
    <time>2024-07-10T04:37:10Z</time>
   </trkpt>
   <trkpt lat="35.2802660" lon="113.9102550">
    <ele>69.2</ele>
    <time>2024-07-10T04:37:11Z</time>
   </trkpt>
   <trkpt lat="35.2802620" lon="113.9102100">
    <ele>69.1</ele>
    <time>2024-07-10T04:37:12Z</time>
   </trkpt>
   <trkpt lat="35.2802620" lon="113.9101700">
    <ele>69.1</ele>
    <time>2024-07-10T04:37:13Z</time>
   </trkpt>
   <trkpt lat="35.2802600" lon="113.9101260">
    <ele>69.2</ele>
    <time>2024-07-10T04:37:14Z</time>
   </trkpt>
   <trkpt lat="35.2802620" lon="113.9100900">
    <ele>69.3</ele>
    <time>2024-07-10T04:37:15Z</time>
   </trkpt>
   <trkpt lat="35.2802700" lon="113.9100400">
    <ele>69.4</ele>
    <time>2024-07-10T04:37:16Z</time>
   </trkpt>
   <trkpt lat="35.2802770" lon="113.9100000">
    <ele>69.3</ele>
    <time>2024-07-10T04:37:17Z</time>
   </trkpt>
   <trkpt lat="35.2802850" lon="113.9099660">
    <ele>69.6</ele>
    <time>2024-07-10T04:37:18Z</time>
   </trkpt>
   <trkpt lat="35.2802850" lon="113.9099300">
    <ele>70.1</ele>
    <time>2024-07-10T04:37:19Z</time>
   </trkpt>
   <trkpt lat="35.2802850" lon="113.9098900">
    <ele>70.6</ele>
    <time>2024-07-10T04:37:20Z</time>
   </trkpt>
   <trkpt lat="35.2802800" lon="113.9098400">
    <ele>71.1</ele>
    <time>2024-07-10T04:37:21Z</time>
   </trkpt>
   <trkpt lat="35.2802730" lon="113.9098050">
    <ele>71.6</ele>
    <time>2024-07-10T04:37:22Z</time>
   </trkpt>
   <trkpt lat="35.2802730" lon="113.9097700">
    <ele>71.6</ele>
    <time>2024-07-10T04:37:23Z</time>
   </trkpt>
   <trkpt lat="35.2802770" lon="113.9097200">
    <ele>72.1</ele>
    <time>2024-07-10T04:37:24Z</time>
   </trkpt>
   <trkpt lat="35.2802770" lon="113.9096800">
    <ele>72.1</ele>
    <time>2024-07-10T04:37:25Z</time>
   </trkpt>
   <trkpt lat="35.2802800" lon="113.9096400">
    <ele>72.0</ele>
    <time>2024-07-10T04:37:26Z</time>
   </trkpt>
   <trkpt lat="35.2802850" lon="113.9096000">
    <ele>72.0</ele>
    <time>2024-07-10T04:37:27Z</time>
   </trkpt>
   <trkpt lat="35.2802900" lon="113.9095500">
    <ele>71.5</ele>
    <time>2024-07-10T04:37:28Z</time>
   </trkpt>
   <trkpt lat="35.2802900" lon="113.9095150">
    <ele>71.5</ele>
    <time>2024-07-10T04:37:29Z</time>
   </trkpt>
   <trkpt lat="35.2802900" lon="113.9094700">
    <ele>71.2</ele>
    <time>2024-07-10T04:37:30Z</time>
   </trkpt>
   <trkpt lat="35.2802900" lon="113.9094240">
    <ele>70.5</ele>
    <time>2024-07-10T04:37:31Z</time>
   </trkpt>
   <trkpt lat="35.2802930" lon="113.9093860">
    <ele>70.5</ele>
    <time>2024-07-10T04:37:32Z</time>
   </trkpt>
   <trkpt lat="35.2802930" lon="113.9093400">
    <ele>70.1</ele>
    <time>2024-07-10T04:37:33Z</time>
   </trkpt>
   <trkpt lat="35.2802900" lon="113.9092940">
    <ele>69.6</ele>
    <time>2024-07-10T04:37:34Z</time>
   </trkpt>
   <trkpt lat="35.2802850" lon="113.9092500">
    <ele>69.4</ele>
    <time>2024-07-10T04:37:35Z</time>
   </trkpt>
   <trkpt lat="35.2802850" lon="113.9092100">
    <ele>69.4</ele>
    <time>2024-07-10T04:37:36Z</time>
   </trkpt>
   <trkpt lat="35.2802800" lon="113.9091640">
    <ele>69.5</ele>
    <time>2024-07-10T04:37:37Z</time>
   </trkpt>
   <trkpt lat="35.2802800" lon="113.9091340">
    <ele>69.5</ele>
    <time>2024-07-10T04:37:38Z</time>
   </trkpt>
   <trkpt lat="35.2802800" lon="113.9090960">
    <ele>69.5</ele>
    <time>2024-07-10T04:37:39Z</time>
   </trkpt>
   <trkpt lat="35.2802800" lon="113.9090600">
    <ele>69.6</ele>
    <time>2024-07-10T04:37:40Z</time>
   </trkpt>
   <trkpt lat="35.2802800" lon="113.9090100">
    <ele>69.6</ele>
    <time>2024-07-10T04:37:41Z</time>
   </trkpt>
   <trkpt lat="35.2802850" lon="113.9089700">
    <ele>69.6</ele>
    <time>2024-07-10T04:37:42Z</time>
   </trkpt>
   <trkpt lat="35.2802850" lon="113.9089360">
    <ele>69.6</ele>
    <time>2024-07-10T04:37:43Z</time>
   </trkpt>
   <trkpt lat="35.2802850" lon="113.9089050">
    <ele>69.6</ele>
    <time>2024-07-10T04:37:44Z</time>
   </trkpt>
   <trkpt lat="35.2802850" lon="113.9088700">
    <ele>69.6</ele>
    <time>2024-07-10T04:37:45Z</time>
   </trkpt>
   <trkpt lat="35.2802800" lon="113.9088100">
    <ele>69.6</ele>
    <time>2024-07-10T04:37:46Z</time>
   </trkpt>
   <trkpt lat="35.2802800" lon="113.9087750">
    <ele>69.6</ele>
    <time>2024-07-10T04:37:47Z</time>
   </trkpt>
   <trkpt lat="35.2802800" lon="113.9087450">
    <ele>69.6</ele>
    <time>2024-07-10T04:37:48Z</time>
   </trkpt>
   <trkpt lat="35.2802850" lon="113.9087140">
    <ele>69.6</ele>
    <time>2024-07-10T04:37:49Z</time>
   </trkpt>
   <trkpt lat="35.2802900" lon="113.9086800">
    <ele>69.6</ele>
    <time>2024-07-10T04:37:50Z</time>
   </trkpt>
   <trkpt lat="35.2802960" lon="113.9086460">
    <ele>69.7</ele>
    <time>2024-07-10T04:37:51Z</time>
   </trkpt>
   <trkpt lat="35.2803040" lon="113.9086100">
    <ele>69.7</ele>
    <time>2024-07-10T04:37:52Z</time>
   </trkpt>
   <trkpt lat="35.2803000" lon="113.9085700">
    <ele>69.7</ele>
    <time>2024-07-10T04:37:53Z</time>
   </trkpt>
   <trkpt lat="35.2803040" lon="113.9085400">
    <ele>69.8</ele>
    <time>2024-07-10T04:37:54Z</time>
   </trkpt>
   <trkpt lat="35.2803080" lon="113.9085160">
    <ele>69.8</ele>
    <time>2024-07-10T04:37:55Z</time>
   </trkpt>
   <trkpt lat="35.2803150" lon="113.9084900">
    <ele>69.8</ele>
    <time>2024-07-10T04:37:56Z</time>
   </trkpt>
   <trkpt lat="35.2803150" lon="113.9084700">
    <ele>69.8</ele>
    <time>2024-07-10T04:37:57Z</time>
   </trkpt>
   <trkpt lat="35.2803150" lon="113.9084550">
    <ele>69.8</ele>
    <time>2024-07-10T04:37:58Z</time>
   </trkpt>
   <trkpt lat="35.2803150" lon="113.9084500">
    <ele>69.8</ele>
    <time>2024-07-10T04:37:59Z</time>
   </trkpt>
   <trkpt lat="35.2803150" lon="113.9084300">
    <ele>69.8</ele>
    <time>2024-07-10T04:38:00Z</time>
   </trkpt>
   <trkpt lat="35.2803100" lon="113.9084200">
    <ele>69.8</ele>
    <time>2024-07-10T04:38:01Z</time>
   </trkpt>
   <trkpt lat="35.2803100" lon="113.9084100">
    <ele>69.8</ele>
    <time>2024-07-10T04:38:02Z</time>
   </trkpt>
   <trkpt lat="35.2803100" lon="113.9083900">
    <ele>69.8</ele>
    <time>2024-07-10T04:38:03Z</time>
   </trkpt>
   <trkpt lat="35.2803080" lon="113.9083600">
    <ele>69.8</ele>
    <time>2024-07-10T04:38:04Z</time>
   </trkpt>
   <trkpt lat="35.2803000" lon="113.9083400">
    <ele>69.7</ele>
    <time>2024-07-10T04:38:05Z</time>
   </trkpt>
   <trkpt lat="35.2802960" lon="113.9083200">
    <ele>69.7</ele>
    <time>2024-07-10T04:38:06Z</time>
   </trkpt>
   <trkpt lat="35.2802900" lon="113.9082950">
    <ele>69.7</ele>
    <time>2024-07-10T04:38:07Z</time>
   </trkpt>
   <trkpt lat="35.2802700" lon="113.9082700">
    <ele>69.7</ele>
    <time>2024-07-10T04:38:08Z</time>
   </trkpt>
   <trkpt lat="35.2802500" lon="113.9082640">
    <ele>69.7</ele>
    <time>2024-07-10T04:38:09Z</time>
   </trkpt>
   <trkpt lat="35.2802280" lon="113.9082640">
    <ele>69.7</ele>
    <time>2024-07-10T04:38:10Z</time>
   </trkpt>
   <trkpt lat="35.2802080" lon="113.9082720">
    <ele>69.6</ele>
    <time>2024-07-10T04:38:11Z</time>
   </trkpt>
   <trkpt lat="35.2802030" lon="113.9082730">
    <ele>69.6</ele>
    <time>2024-07-10T04:38:12Z</time>
   </trkpt>
   <trkpt lat="35.2801990" lon="113.9082750">
    <ele>69.6</ele>
    <time>2024-07-10T04:38:13Z</time>
   </trkpt>
   <trkpt lat="35.2801950" lon="113.9082770">
    <ele>69.6</ele>
    <time>2024-07-10T04:38:14Z</time>
   </trkpt>
   <trkpt lat="35.2801900" lon="113.9082780">
    <ele>69.6</ele>
    <time>2024-07-10T04:38:15Z</time>
   </trkpt>
   <trkpt lat="35.2801860" lon="113.9082800">
    <ele>69.6</ele>
    <time>2024-07-10T04:38:15Z</time>
   </trkpt>
   <trkpt lat="35.2801860" lon="113.9082800">
    <ele>69.6</ele>
    <time>2024-07-10T04:38:15Z</time>
   </trkpt>
  </trkseg>
 </trk>
</gpx>
