<?xml version="1.0" encoding="UTF-8"?>
<gpx creator="StravaGPX" version="1.1" xmlns="http://www.topografix.com/GPX/1/1" xmlns:xsi="http://www.w3.org/2001/XMLSchema-instance" xsi:schemaLocation="http://www.topografix.com/GPX/1/1 http://www.topografix.com/GPX/1/1/gpx.xsd">
 <metadata>
  <time>2024-07-10T10:42:37Z</time>
 </metadata>
 <trk>
  <name>Ride</name>
  <type>cycling</type>
  <trkseg>
   <trkpt lat="35.2802600" lon="113.9111500">
    <ele>71.0</ele>
    <time>2024-07-10T10:42:37Z</time>
   </trkpt>
   <trkpt lat="35.2802600" lon="113.9112500">
    <ele>70.9</ele>
    <time>2024-07-10T10:42:39Z</time>
   </trkpt>
   <trkpt lat="35.2802540" lon="113.9113300">
    <ele>70.9</ele>
    <time>2024-07-10T10:42:41Z</time>
   </trkpt>
   <trkpt lat="35.2802700" lon="113.9114000">
    <ele>70.8</ele>
    <time>2024-07-10T10:42:43Z</time>
   </trkpt>
   <trkpt lat="35.2802700" lon="113.9114000">
    <ele>70.8</ele>
    <time>2024-07-10T10:42:43Z</time>
   </trkpt>
   <trkpt lat="35.2803100" lon="113.9114400">
    <ele>70.7</ele>
    <time>2024-07-10T10:42:45Z</time>
   </trkpt>
   <trkpt lat="35.2803100" lon="113.9114400">
    <ele>70.7</ele>
    <time>2024-07-10T10:42:45Z</time>
   </trkpt>
   <trkpt lat="35.2803500" lon="113.9114500">
    <ele>70.7</ele>
    <time>2024-07-10T10:42:47Z</time>
   </trkpt>
   <trkpt lat="35.2803700" lon="113.9114600">
    <ele>70.7</ele>
    <time>2024-07-10T10:42:48Z</time>
   </trkpt>
   <trkpt lat="35.2803840" lon="113.9114700">
    <ele>70.7</ele>
    <time>2024-07-10T10:42:49Z</time>
   </trkpt>
   <trkpt lat="35.2804030" lon="113.9114760">
    <ele>70.7</ele>
    <time>2024-07-10T10:42:50Z</time>
   </trkpt>
   <trkpt lat="35.2804200" lon="113.9114760">
    <ele>70.7</ele>
    <time>2024-07-10T10:42:51Z</time>
   </trkpt>
   <trkpt lat="35.2804370" lon="113.9114800">
    <ele>70.6</ele>
    <time>2024-07-10T10:42:52Z</time>
   </trkpt>
   <trkpt lat="35.2804530" lon="113.9114800">
    <ele>70.6</ele>
    <time>2024-07-10T10:42:53Z</time>
   </trkpt>
   <trkpt lat="35.2804700" lon="113.9114760">
    <ele>70.6</ele>
    <time>2024-07-10T10:42:54Z</time>
   </trkpt>
   <trkpt lat="35.2804950" lon="113.9114760">
    <ele>70.6</ele>
    <time>2024-07-10T10:42:55Z</time>
   </trkpt>
   <trkpt lat="35.2805140" lon="113.9114800">
    <ele>70.6</ele>
    <time>2024-07-10T10:42:56Z</time>
   </trkpt>
   <trkpt lat="35.2805330" lon="113.9115100">
    <ele>70.6</ele>
    <time>2024-07-10T10:42:57Z</time>
   </trkpt>
   <trkpt lat="35.2805500" lon="113.9115200">
    <ele>70.6</ele>
    <time>2024-07-10T10:42:58Z</time>
   </trkpt>
   <trkpt lat="35.2805600" lon="113.9115450">
    <ele>70.6</ele>
    <time>2024-07-10T10:42:59Z</time>
   </trkpt>
   <trkpt lat="35.2805700" lon="113.9115700">
    <ele>70.5</ele>
    <time>2024-07-10T10:43:00Z</time>
   </trkpt>
   <trkpt lat="35.2805860" lon="113.9116000">
    <ele>70.5</ele>
    <time>2024-07-10T10:43:01Z</time>
   </trkpt>
   <trkpt lat="35.2805980" lon="113.9116200">
    <ele>70.5</ele>
    <time>2024-07-10T10:43:02Z</time>
   </trkpt>
   <trkpt lat="35.2806000" lon="113.9116500">
    <ele>70.5</ele>
    <time>2024-07-10T10:43:03Z</time>
   </trkpt>
   <trkpt lat="35.2805940" lon="113.9116800">
    <ele>70.5</ele>
    <time>2024-07-10T10:43:04Z</time>
   </trkpt>
   <trkpt lat="35.2805860" lon="113.9117200">
    <ele>70.4</ele>
    <time>2024-07-10T10:43:05Z</time>
   </trkpt>
   <trkpt lat="35.2805820" lon="113.9117500">
    <ele>70.4</ele>
    <time>2024-07-10T10:43:06Z</time>
   </trkpt>
   <trkpt lat="35.2805820" lon="113.9117800">
    <ele>70.4</ele>
    <time>2024-07-10T10:43:07Z</time>
   </trkpt>
   <trkpt lat="35.2805860" lon="113.9118100">
    <ele>70.4</ele>
    <time>2024-07-10T10:43:08Z</time>
   </trkpt>
   <trkpt lat="35.2805900" lon="113.9118500">
    <ele>70.4</ele>
    <time>2024-07-10T10:43:09Z</time>
   </trkpt>
   <trkpt lat="35.2805820" lon="113.9118700">
    <ele>70.4</ele>
    <time>2024-07-10T10:43:10Z</time>
   </trkpt>
   <trkpt lat="35.2805800" lon="113.9119000">
    <ele>70.4</ele>
    <time>2024-07-10T10:43:11Z</time>
   </trkpt>
   <trkpt lat="35.2805700" lon="113.9119300">
    <ele>70.5</ele>
    <time>2024-07-10T10:43:12Z</time>
   </trkpt>
   <trkpt lat="35.2805630" lon="113.9119400">
    <ele>70.5</ele>
    <time>2024-07-10T10:43:13Z</time>
   </trkpt>
   <trkpt lat="35.2805600" lon="113.9119600">
    <ele>70.5</ele>
    <time>2024-07-10T10:43:14Z</time>
   </trkpt>
   <trkpt lat="35.2805560" lon="113.9119800">
    <ele>70.5</ele>
    <time>2024-07-10T10:43:15Z</time>
   </trkpt>
   <trkpt lat="35.2805520" lon="113.9119950">
    <ele>70.5</ele>
    <time>2024-07-10T10:43:16Z</time>
   </trkpt>
   <trkpt lat="35.2805560" lon="113.9120200">
    <ele>70.5</ele>
    <time>2024-07-10T10:43:17Z</time>
   </trkpt>
   <trkpt lat="35.2805520" lon="113.9120400">
    <ele>70.6</ele>
    <time>2024-07-10T10:43:18Z</time>
   </trkpt>
   <trkpt lat="35.2805440" lon="113.9120700">
    <ele>70.6</ele>
    <time>2024-07-10T10:43:19Z</time>
   </trkpt>
   <trkpt lat="35.2805370" lon="113.9120940">
    <ele>70.6</ele>
    <time>2024-07-10T10:43:20Z</time>
   </trkpt>
   <trkpt lat="35.2805300" lon="113.9121100">
    <ele>70.6</ele>
    <time>2024-07-10T10:43:21Z</time>
   </trkpt>
   <trkpt lat="35.2805200" lon="113.9121400">
    <ele>70.6</ele>
    <time>2024-07-10T10:43:22Z</time>
   </trkpt>
   <trkpt lat="35.2805200" lon="113.9121800">
    <ele>70.7</ele>
    <time>2024-07-10T10:43:23Z</time>
   </trkpt>
   <trkpt lat="35.2805250" lon="113.9122000">
    <ele>70.7</ele>
    <time>2024-07-10T10:43:24Z</time>
   </trkpt>
   <trkpt lat="35.2805250" lon="113.9122100">
    <ele>70.7</ele>
    <time>2024-07-10T10:43:25Z</time>
   </trkpt>
   <trkpt lat="35.2805250" lon="113.9122200">
    <ele>70.7</ele>
    <time>2024-07-10T10:43:26Z</time>
   </trkpt>
   <trkpt lat="35.2805180" lon="113.9122240">
    <ele>70.7</ele>
    <time>2024-07-10T10:43:27Z</time>
   </trkpt>
   <trkpt lat="35.2805100" lon="113.9122240">
    <ele>70.7</ele>
    <time>2024-07-10T10:43:28Z</time>
   </trkpt>
   <trkpt lat="35.2804950" lon="113.9122300">
    <ele>70.7</ele>
    <time>2024-07-10T10:43:29Z</time>
   </trkpt>
   <trkpt lat="35.2804760" lon="113.9122240">
    <ele>70.8</ele>
    <time>2024-07-10T10:43:30Z</time>
   </trkpt>
   <trkpt lat="35.2804570" lon="113.9122240">
    <ele>70.8</ele>
    <time>2024-07-10T10:43:31Z</time>
   </trkpt>
   <trkpt lat="35.2804340" lon="113.9122200">
    <ele>70.8</ele>
    <time>2024-07-10T10:43:32Z</time>
   </trkpt>
   <trkpt lat="35.2804150" lon="113.9122200">
    <ele>70.9</ele>
    <time>2024-07-10T10:43:33Z</time>
   </trkpt>
   <trkpt lat="35.2803900" lon="113.9122000">
    <ele>70.9</ele>
    <time>2024-07-10T10:43:34Z</time>
   </trkpt>
   <trkpt lat="35.2803700" lon="113.9121900">
    <ele>70.9</ele>
    <time>2024-07-10T10:43:35Z</time>
   </trkpt>
   <trkpt lat="35.2803420" lon="113.9121860">
    <ele>71.0</ele>
    <time>2024-07-10T10:43:36Z</time>
   </trkpt>
   <trkpt lat="35.2803150" lon="113.9121860">
    <ele>71.0</ele>
    <time>2024-07-10T10:43:37Z</time>
   </trkpt>
   <trkpt lat="35.2802900" lon="113.9121860">
    <ele>71.1</ele>
    <time>2024-07-10T10:43:38Z</time>
   </trkpt>
   <trkpt lat="35.2802620" lon="113.9121860">
    <ele>71.1</ele>
    <time>2024-07-10T10:43:39Z</time>
   </trkpt>
   <trkpt lat="35.2802350" lon="113.9121800">
    <ele>71.2</ele>
    <time>2024-07-10T10:43:40Z</time>
   </trkpt>
   <trkpt lat="35.2802120" lon="113.9121700">
    <ele>71.2</ele>
    <time>2024-07-10T10:43:41Z</time>
   </trkpt>
   <trkpt lat="35.2801860" lon="113.9121600">
    <ele>71.3</ele>
    <time>2024-07-10T10:43:42Z</time>
   </trkpt>
   <trkpt lat="35.2801630" lon="113.9121550">
    <ele>71.3</ele>
    <time>2024-07-10T10:43:43Z</time>
   </trkpt>
   <trkpt lat="35.2801360" lon="113.9121500">
    <ele>71.3</ele>
    <time>2024-07-10T10:43:44Z</time>
   </trkpt>
   <trkpt lat="35.2801100" lon="113.9121300">
    <ele>71.4</ele>
    <time>2024-07-10T10:43:45Z</time>
   </trkpt>
   <trkpt lat="35.2800830" lon="113.9121200">
    <ele>71.4</ele>
    <time>2024-07-10T10:43:46Z</time>
   </trkpt>
   <trkpt lat="35.2800600" lon="113.9121100">
    <ele>71.5</ele>
    <time>2024-07-10T10:43:47Z</time>
   </trkpt>
   <trkpt lat="35.2800300" lon="113.9121000">
    <ele>71.5</ele>
    <time>2024-07-10T10:43:48Z</time>
   </trkpt>
   <trkpt lat="35.2800030" lon="113.9121000">
    <ele>71.5</ele>
    <time>2024-07-10T10:43:49Z</time>
   </trkpt>
   <trkpt lat="35.2799760" lon="113.9120900">
    <ele>71.6</ele>
    <time>2024-07-10T10:43:50Z</time>
   </trkpt>
   <trkpt lat="35.2799500" lon="113.9120900">
    <ele>71.6</ele>
    <time>2024-07-10T10:43:51Z</time>
   </trkpt>
   <trkpt lat="35.2799200" lon="113.9120800">
    <ele>71.6</ele>
    <time>2024-07-10T10:43:52Z</time>
   </trkpt>
   <trkpt lat="35.2798920" lon="113.9120700">
    <ele>71.6</ele>
    <time>2024-07-10T10:43:53Z</time>
   </trkpt>
   <trkpt lat="35.2798600" lon="113.9120600">
    <ele>71.7</ele>
    <time>2024-07-10T10:43:54Z</time>
   </trkpt>
   <trkpt lat="35.2798350" lon="113.9120560">
    <ele>71.7</ele>
    <time>2024-07-10T10:43:55Z</time>
   </trkpt>
   <trkpt lat="35.2798080" lon="113.9120500">
    <ele>71.7</ele>
    <time>2024-07-10T10:43:56Z</time>
   </trkpt>
   <trkpt lat="35.2797900" lon="113.9120300">
    <ele>71.7</ele>
    <time>2024-07-10T10:43:57Z</time>
   </trkpt>
   <trkpt lat="35.2797620" lon="113.9120300">
    <ele>71.8</ele>
    <time>2024-07-10T10:43:58Z</time>
   </trkpt>
   <trkpt lat="35.2797400" lon="113.9120250">
    <ele>71.8</ele>
    <time>2024-07-10T10:43:59Z</time>
   </trkpt>
   <trkpt lat="35.2797130" lon="113.9120200">
    <ele>71.8</ele>
    <time>2024-07-10T10:44:00Z</time>
   </trkpt>
   <trkpt lat="35.2796860" lon="113.9120100">
    <ele>71.8</ele>
    <time>2024-07-10T10:44:01Z</time>
   </trkpt>
   <trkpt lat="35.2796550" lon="113.9120100">
    <ele>71.9</ele>
    <time>2024-07-10T10:44:02Z</time>
   </trkpt>
   <trkpt lat="35.2796250" lon="113.9120000">
    <ele>71.9</ele>
    <time>2024-07-10T10:44:03Z</time>
   </trkpt>
   <trkpt lat="35.2796000" lon="113.9120000">
    <ele>71.9</ele>
    <time>2024-07-10T10:44:04Z</time>
   </trkpt>
   <trkpt lat="35.2795800" lon="113.9119950">
    <ele>71.9</ele>
    <time>2024-07-10T10:44:05Z</time>
   </trkpt>
   <trkpt lat="35.2795560" lon="113.9119900">
    <ele>71.9</ele>
    <time>2024-07-10T10:44:06Z</time>
   </trkpt>
   <trkpt lat="35.2795330" lon="113.9119900">
    <ele>71.9</ele>
    <time>2024-07-10T10:44:07Z</time>
   </trkpt>
   <trkpt lat="35.2795070" lon="113.9119800">
    <ele>71.9</ele>
    <time>2024-07-10T10:44:08Z</time>
   </trkpt>
   <trkpt lat="35.2794900" lon="113.9119800">
    <ele>71.9</ele>
    <time>2024-07-10T10:44:09Z</time>
   </trkpt>
   <trkpt lat="35.2794720" lon="113.9119800">
    <ele>72.0</ele>
    <time>2024-07-10T10:44:10Z</time>
   </trkpt>
   <trkpt lat="35.2794650" lon="113.9119900">
    <ele>72.0</ele>
    <time>2024-07-10T10:44:11Z</time>
   </trkpt>
   <trkpt lat="35.2794570" lon="113.9119900">
    <ele>72.0</ele>
    <time>2024-07-10T10:44:12Z</time>
   </trkpt>
   <trkpt lat="35.2794530" lon="113.9119900">
    <ele>72.0</ele>
    <time>2024-07-10T10:44:13Z</time>
   </trkpt>
   <trkpt lat="35.2794380" lon="113.9119900">
    <ele>72.0</ele>
    <time>2024-07-10T10:44:14Z</time>
   </trkpt>
   <trkpt lat="35.2794200" lon="113.9119800">
    <ele>72.0</ele>
    <time>2024-07-10T10:44:15Z</time>
   </trkpt>
   <trkpt lat="35.2793960" lon="113.9119700">
    <ele>72.0</ele>
    <time>2024-07-10T10:44:16Z</time>
   </trkpt>
   <trkpt lat="35.2793730" lon="113.9119640">
    <ele>72.0</ele>
    <time>2024-07-10T10:44:17Z</time>
   </trkpt>
   <trkpt lat="35.2793460" lon="113.9119600">
    <ele>72.0</ele>
    <time>2024-07-10T10:44:18Z</time>
   </trkpt>
   <trkpt lat="35.2793200" lon="113.9119600">
    <ele>71.9</ele>
    <time>2024-07-10T10:44:19Z</time>
   </trkpt>
   <trkpt lat="35.2792930" lon="113.9119600">
    <ele>71.9</ele>
    <time>2024-07-10T10:44:20Z</time>
   </trkpt>
   <trkpt lat="35.2792660" lon="113.9119600">
    <ele>71.8</ele>
    <time>2024-07-10T10:44:21Z</time>
   </trkpt>
   <trkpt lat="35.2792050" lon="113.9119500">
    <ele>71.7</ele>
    <time>2024-07-10T10:44:23Z</time>
   </trkpt>
   <trkpt lat="35.2792050" lon="113.9119500">
    <ele>71.7</ele>
    <time>2024-07-10T10:44:23Z</time>
   </trkpt>
   <trkpt lat="35.2791750" lon="113.9119500">
    <ele>71.7</ele>
    <time>2024-07-10T10:44:24Z</time>
   </trkpt>
   <trkpt lat="35.2791400" lon="113.9119500">
    <ele>71.6</ele>
    <time>2024-07-10T10:44:25Z</time>
   </trkpt>
   <trkpt lat="35.2790680" lon="113.9119500">
    <ele>71.6</ele>
    <time>2024-07-10T10:44:27Z</time>
   </trkpt>
   <trkpt lat="35.2790300" lon="113.9119500">
    <ele>71.5</ele>
    <time>2024-07-10T10:44:28Z</time>
   </trkpt>
   <trkpt lat="35.2789200" lon="113.9119500">
    <ele>71.5</ele>
    <time>2024-07-10T10:44:31Z</time>
   </trkpt>
   <trkpt lat="35.2788430" lon="113.9119500">
    <ele>71.5</ele>
    <time>2024-07-10T10:44:33Z</time>
   </trkpt>
   <trkpt lat="35.2788050" lon="113.9119500">
    <ele>71.5</ele>
    <time>2024-07-10T10:44:34Z</time>
   </trkpt>
   <trkpt lat="35.2787320" lon="113.9119500">
    <ele>71.6</ele>
    <time>2024-07-10T10:44:36Z</time>
   </trkpt>
   <trkpt lat="35.2786980" lon="113.9119500">
    <ele>71.6</ele>
    <time>2024-07-10T10:44:37Z</time>
   </trkpt>
   <trkpt lat="35.2786640" lon="113.9119600">
    <ele>71.6</ele>
    <time>2024-07-10T10:44:38Z</time>
   </trkpt>
   <trkpt lat="35.2786300" lon="113.9119640">
    <ele>71.6</ele>
    <time>2024-07-10T10:44:39Z</time>
   </trkpt>
   <trkpt lat="35.2785950" lon="113.9119700">
    <ele>71.6</ele>
    <time>2024-07-10T10:44:40Z</time>
   </trkpt>
   <trkpt lat="35.2785600" lon="113.9119700">
    <ele>71.6</ele>
    <time>2024-07-10T10:44:41Z</time>
   </trkpt>
   <trkpt lat="35.2785260" lon="113.9119700">
    <ele>71.6</ele>
    <time>2024-07-10T10:44:42Z</time>
   </trkpt>
   <trkpt lat="35.2784920" lon="113.9119700">
    <ele>71.6</ele>
    <time>2024-07-10T10:44:43Z</time>
   </trkpt>
   <trkpt lat="35.2784580" lon="113.9119640">
    <ele>71.6</ele>
    <time>2024-07-10T10:44:44Z</time>
   </trkpt>
   <trkpt lat="35.2784200" lon="113.9119640">
    <ele>71.6</ele>
    <time>2024-07-10T10:44:45Z</time>
   </trkpt>
   <trkpt lat="35.2783850" lon="113.9119700">
    <ele>71.6</ele>
    <time>2024-07-10T10:44:46Z</time>
   </trkpt>
   <trkpt lat="35.2783470" lon="113.9119700">
    <ele>71.6</ele>
    <time>2024-07-10T10:44:47Z</time>
   </trkpt>
   <trkpt lat="35.2783130" lon="113.9119700">
    <ele>71.5</ele>
    <time>2024-07-10T10:44:48Z</time>
   </trkpt>
   <trkpt lat="35.2782750" lon="113.9119700">
    <ele>71.5</ele>
    <time>2024-07-10T10:44:49Z</time>
   </trkpt>
   <trkpt lat="35.2782400" lon="113.9119700">
    <ele>71.5</ele>
    <time>2024-07-10T10:44:50Z</time>
   </trkpt>
   <trkpt lat="35.2782020" lon="113.9119700">
    <ele>71.5</ele>
    <time>2024-07-10T10:44:51Z</time>
   </trkpt>
   <trkpt lat="35.2781680" lon="113.9119700">
    <ele>71.5</ele>
    <time>2024-07-10T10:44:52Z</time>
   </trkpt>
   <trkpt lat="35.2781300" lon="113.9119800">
    <ele>71.5</ele>
    <time>2024-07-10T10:44:53Z</time>
   </trkpt>
   <trkpt lat="35.2780900" lon="113.9119700">
    <ele>71.5</ele>
    <time>2024-07-10T10:44:54Z</time>
   </trkpt>
   <trkpt lat="35.2780570" lon="113.9119700">
    <ele>71.5</ele>
    <time>2024-07-10T10:44:55Z</time>
   </trkpt>
   <trkpt lat="35.2780200" lon="113.9119640">
    <ele>71.5</ele>
    <time>2024-07-10T10:44:56Z</time>
   </trkpt>
   <trkpt lat="35.2779800" lon="113.9119640">
    <ele>71.6</ele>
    <time>2024-07-10T10:44:57Z</time>
   </trkpt>
   <trkpt lat="35.2779430" lon="113.9119640">
    <ele>71.6</ele>
    <time>2024-07-10T10:44:58Z</time>
   </trkpt>
   <trkpt lat="35.2779050" lon="113.9119700">
    <ele>71.6</ele>
    <time>2024-07-10T10:44:59Z</time>
   </trkpt>
   <trkpt lat="35.2778300" lon="113.9119700">
    <ele>71.5</ele>
    <time>2024-07-10T10:45:01Z</time>
   </trkpt>
   <trkpt lat="35.2777560" lon="113.9119700">
    <ele>71.4</ele>
    <time>2024-07-10T10:45:03Z</time>
   </trkpt>
   <trkpt lat="35.2777180" lon="113.9119700">
    <ele>71.3</ele>
    <time>2024-07-10T10:45:04Z</time>
   </trkpt>
   <trkpt lat="35.2776830" lon="113.9119700">
    <ele>71.2</ele>
    <time>2024-07-10T10:45:05Z</time>
   </trkpt>
   <trkpt lat="35.2776450" lon="113.9119700">
    <ele>71.1</ele>
    <time>2024-07-10T10:45:06Z</time>
   </trkpt>
   <trkpt lat="35.2776070" lon="113.9119700">
    <ele>71.0</ele>
    <time>2024-07-10T10:45:07Z</time>
   </trkpt>
   <trkpt lat="35.2775730" lon="113.9119700">
    <ele>70.9</ele>
    <time>2024-07-10T10:45:08Z</time>
   </trkpt>
   <trkpt lat="35.2775340" lon="113.9119700">
    <ele>70.8</ele>
    <time>2024-07-10T10:45:09Z</time>
   </trkpt>
   <trkpt lat="35.2774960" lon="113.9119700">
    <ele>70.8</ele>
    <time>2024-07-10T10:45:10Z</time>
   </trkpt>
   <trkpt lat="35.2774600" lon="113.9119700">
    <ele>70.7</ele>
    <time>2024-07-10T10:45:11Z</time>
   </trkpt>
   <trkpt lat="35.2774240" lon="113.9119700">
    <ele>70.7</ele>
    <time>2024-07-10T10:45:12Z</time>
   </trkpt>
   <trkpt lat="35.2773860" lon="113.9119700">
    <ele>70.7</ele>
    <time>2024-07-10T10:45:13Z</time>
   </trkpt>
   <trkpt lat="35.2773480" lon="113.9119700">
    <ele>70.7</ele>
    <time>2024-07-10T10:45:14Z</time>
   </trkpt>
   <trkpt lat="35.2773100" lon="113.9119700">
    <ele>70.6</ele>
    <time>2024-07-10T10:45:15Z</time>
   </trkpt>
   <trkpt lat="35.2772700" lon="113.9119700">
    <ele>70.6</ele>
    <time>2024-07-10T10:45:16Z</time>
   </trkpt>
   <trkpt lat="35.2772330" lon="113.9119700">
    <ele>70.6</ele>
    <time>2024-07-10T10:45:17Z</time>
   </trkpt>
   <trkpt lat="35.2771950" lon="113.9119700">
    <ele>70.6</ele>
    <time>2024-07-10T10:45:18Z</time>
   </trkpt>
   <trkpt lat="35.2771570" lon="113.9119700">
    <ele>70.6</ele>
    <time>2024-07-10T10:45:19Z</time>
   </trkpt>
   <trkpt lat="35.2771200" lon="113.9119700">
    <ele>70.6</ele>
    <time>2024-07-10T10:45:20Z</time>
   </trkpt>
   <trkpt lat="35.2770840" lon="113.9119800">
    <ele>70.6</ele>
    <time>2024-07-10T10:45:21Z</time>
   </trkpt>
   <trkpt lat="35.2770460" lon="113.9119700">
    <ele>70.6</ele>
    <time>2024-07-10T10:45:22Z</time>
   </trkpt>
   <trkpt lat="35.2770100" lon="113.9119700">
    <ele>70.6</ele>
    <time>2024-07-10T10:45:23Z</time>
   </trkpt>
   <trkpt lat="35.2769740" lon="113.9119640">
    <ele>70.6</ele>
    <time>2024-07-10T10:45:24Z</time>
   </trkpt>
   <trkpt lat="35.2769360" lon="113.9119600">
    <ele>70.6</ele>
    <time>2024-07-10T10:45:25Z</time>
   </trkpt>
   <trkpt lat="35.2768970" lon="113.9119600">
    <ele>70.6</ele>
    <time>2024-07-10T10:45:26Z</time>
   </trkpt>
   <trkpt lat="35.2768630" lon="113.9119600">
    <ele>70.6</ele>
    <time>2024-07-10T10:45:27Z</time>
   </trkpt>
   <trkpt lat="35.2768250" lon="113.9119640">
    <ele>70.6</ele>
    <time>2024-07-10T10:45:28Z</time>
   </trkpt>
   <trkpt lat="35.2767900" lon="113.9119640">
    <ele>70.6</ele>
    <time>2024-07-10T10:45:29Z</time>
   </trkpt>
   <trkpt lat="35.2767560" lon="113.9119640">
    <ele>70.6</ele>
    <time>2024-07-10T10:45:30Z</time>
   </trkpt>
   <trkpt lat="35.2767220" lon="113.9119640">
    <ele>70.7</ele>
    <time>2024-07-10T10:45:31Z</time>
   </trkpt>
   <trkpt lat="35.2766900" lon="113.9119700">
    <ele>70.7</ele>
    <time>2024-07-10T10:45:32Z</time>
   </trkpt>
   <trkpt lat="35.2766570" lon="113.9119700">
    <ele>70.7</ele>
    <time>2024-07-10T10:45:33Z</time>
   </trkpt>
   <trkpt lat="35.2766230" lon="113.9119700">
    <ele>70.8</ele>
    <time>2024-07-10T10:45:34Z</time>
   </trkpt>
   <trkpt lat="35.2765900" lon="113.9119700">
    <ele>70.8</ele>
    <time>2024-07-10T10:45:35Z</time>
   </trkpt>
   <trkpt lat="35.2765540" lon="113.9119700">
    <ele>70.8</ele>
    <time>2024-07-10T10:45:36Z</time>
   </trkpt>
   <trkpt lat="35.2765200" lon="113.9119700">
    <ele>70.9</ele>
    <time>2024-07-10T10:45:37Z</time>
   </trkpt>
   <trkpt lat="35.2764850" lon="113.9119700">
    <ele>70.9</ele>
    <time>2024-07-10T10:45:38Z</time>
   </trkpt>
   <trkpt lat="35.2764500" lon="113.9119700">
    <ele>71.0</ele>
    <time>2024-07-10T10:45:39Z</time>
   </trkpt>
   <trkpt lat="35.2764130" lon="113.9119700">
    <ele>71.1</ele>
    <time>2024-07-10T10:45:40Z</time>
   </trkpt>
   <trkpt lat="35.2763800" lon="113.9119700">
    <ele>71.2</ele>
    <time>2024-07-10T10:45:41Z</time>
   </trkpt>
   <trkpt lat="35.2763400" lon="113.9119700">
    <ele>71.2</ele>
    <time>2024-07-10T10:45:42Z</time>
   </trkpt>
   <trkpt lat="35.2763020" lon="113.9119700">
    <ele>71.3</ele>
    <time>2024-07-10T10:45:43Z</time>
   </trkpt>
   <trkpt lat="35.2762640" lon="113.9119700">
    <ele>71.4</ele>
    <time>2024-07-10T10:45:44Z</time>
   </trkpt>
   <trkpt lat="35.2762220" lon="113.9119700">
    <ele>71.5</ele>
    <time>2024-07-10T10:45:45Z</time>
   </trkpt>
   <trkpt lat="35.2761500" lon="113.9119700">
    <ele>71.6</ele>
    <time>2024-07-10T10:45:47Z</time>
   </trkpt>
   <trkpt lat="35.2761040" lon="113.9119700">
    <ele>71.7</ele>
    <time>2024-07-10T10:45:48Z</time>
   </trkpt>
   <trkpt lat="35.2760300" lon="113.9119700">
    <ele>71.8</ele>
    <time>2024-07-10T10:45:50Z</time>
   </trkpt>
   <trkpt lat="35.2759600" lon="113.9119640">
    <ele>71.9</ele>
    <time>2024-07-10T10:45:52Z</time>
   </trkpt>
   <trkpt lat="35.2759250" lon="113.9119500">
    <ele>72.0</ele>
    <time>2024-07-10T10:45:53Z</time>
   </trkpt>
   <trkpt lat="35.2758900" lon="113.9119400">
    <ele>72.0</ele>
    <time>2024-07-10T10:45:54Z</time>
   </trkpt>
   <trkpt lat="35.2758520" lon="113.9119400">
    <ele>72.1</ele>
    <time>2024-07-10T10:45:55Z</time>
   </trkpt>
   <trkpt lat="35.2758140" lon="113.9119400">
    <ele>72.2</ele>
    <time>2024-07-10T10:45:56Z</time>
   </trkpt>
   <trkpt lat="35.2757800" lon="113.9119400">
    <ele>72.2</ele>
    <time>2024-07-10T10:45:57Z</time>
   </trkpt>
   <trkpt lat="35.2757400" lon="113.9119400">
    <ele>72.3</ele>
    <time>2024-07-10T10:45:58Z</time>
   </trkpt>
   <trkpt lat="35.2757030" lon="113.9119400">
    <ele>72.4</ele>
    <time>2024-07-10T10:45:59Z</time>
   </trkpt>
   <trkpt lat="35.2756700" lon="113.9119400">
    <ele>72.5</ele>
    <time>2024-07-10T10:46:00Z</time>
   </trkpt>
   <trkpt lat="35.2756350" lon="113.9119400">
    <ele>72.5</ele>
    <time>2024-07-10T10:46:01Z</time>
   </trkpt>
   <trkpt lat="35.2756040" lon="113.9119400">
    <ele>72.6</ele>
    <time>2024-07-10T10:46:02Z</time>
   </trkpt>
   <trkpt lat="35.2755780" lon="113.9119400">
    <ele>72.6</ele>
    <time>2024-07-10T10:46:03Z</time>
   </trkpt>
   <trkpt lat="35.2755600" lon="113.9119400">
    <ele>72.6</ele>
    <time>2024-07-10T10:46:04Z</time>
   </trkpt>
   <trkpt lat="35.2755400" lon="113.9119400">
    <ele>72.7</ele>
    <time>2024-07-10T10:46:05Z</time>
   </trkpt>
   <trkpt lat="35.2755200" lon="113.9119400">
    <ele>72.7</ele>
    <time>2024-07-10T10:46:06Z</time>
   </trkpt>
   <trkpt lat="35.2755050" lon="113.9119400">
    <ele>72.7</ele>
    <time>2024-07-10T10:46:07Z</time>
   </trkpt>
   <trkpt lat="35.2754860" lon="113.9119400">
    <ele>72.7</ele>
    <time>2024-07-10T10:46:08Z</time>
   </trkpt>
   <trkpt lat="35.2754670" lon="113.9119400">
    <ele>72.8</ele>
    <time>2024-07-10T10:46:09Z</time>
   </trkpt>
   <trkpt lat="35.2754500" lon="113.9119400">
    <ele>72.8</ele>
    <time>2024-07-10T10:46:10Z</time>
   </trkpt>
   <trkpt lat="35.2754330" lon="113.9119400">
    <ele>72.8</ele>
    <time>2024-07-10T10:46:11Z</time>
   </trkpt>
   <trkpt lat="35.2754140" lon="113.9119400">
    <ele>72.8</ele>
    <time>2024-07-10T10:46:12Z</time>
   </trkpt>
   <trkpt lat="35.2753900" lon="113.9119400">
    <ele>72.8</ele>
    <time>2024-07-10T10:46:13Z</time>
   </trkpt>
   <trkpt lat="35.2753640" lon="113.9119400">
    <ele>72.8</ele>
    <time>2024-07-10T10:46:14Z</time>
   </trkpt>
   <trkpt lat="35.2753370" lon="113.9119400">
    <ele>72.8</ele>
    <time>2024-07-10T10:46:15Z</time>
   </trkpt>
   <trkpt lat="35.2753100" lon="113.9119400">
    <ele>72.8</ele>
    <time>2024-07-10T10:46:16Z</time>
   </trkpt>
   <trkpt lat="35.2752840" lon="113.9119400">
    <ele>72.8</ele>
    <time>2024-07-10T10:46:17Z</time>
   </trkpt>
   <trkpt lat="35.2752500" lon="113.9119340">
    <ele>72.8</ele>
    <time>2024-07-10T10:46:18Z</time>
   </trkpt>
   <trkpt lat="35.2752150" lon="113.9119340">
    <ele>72.8</ele>
    <time>2024-07-10T10:46:19Z</time>
   </trkpt>
   <trkpt lat="35.2751770" lon="113.9119340">
    <ele>72.8</ele>
    <time>2024-07-10T10:46:20Z</time>
   </trkpt>
   <trkpt lat="35.2751430" lon="113.9119300">
    <ele>72.8</ele>
    <time>2024-07-10T10:46:21Z</time>
   </trkpt>
   <trkpt lat="35.2751100" lon="113.9119300">
    <ele>72.6</ele>
    <time>2024-07-10T10:46:22Z</time>
   </trkpt>
   <trkpt lat="35.2750740" lon="113.9119300">
    <ele>72.3</ele>
    <time>2024-07-10T10:46:23Z</time>
   </trkpt>
   <trkpt lat="35.2750320" lon="113.9119340">
    <ele>72.2</ele>
    <time>2024-07-10T10:46:24Z</time>
   </trkpt>
   <trkpt lat="35.2749980" lon="113.9119340">
    <ele>72.3</ele>
    <time>2024-07-10T10:46:25Z</time>
   </trkpt>
   <trkpt lat="35.2749630" lon="113.9119400">
    <ele>72.3</ele>
    <time>2024-07-10T10:46:26Z</time>
   </trkpt>
   <trkpt lat="35.2749250" lon="113.9119400">
    <ele>72.4</ele>
    <time>2024-07-10T10:46:27Z</time>
   </trkpt>
   <trkpt lat="35.2748870" lon="113.9119400">
    <ele>72.4</ele>
    <time>2024-07-10T10:46:28Z</time>
   </trkpt>
   <trkpt lat="35.2748500" lon="113.9119400">
    <ele>72.5</ele>
    <time>2024-07-10T10:46:29Z</time>
   </trkpt>
   <trkpt lat="35.2748100" lon="113.9119500">
    <ele>72.5</ele>
    <time>2024-07-10T10:46:30Z</time>
   </trkpt>
   <trkpt lat="35.2747730" lon="113.9119500">
    <ele>72.6</ele>
    <time>2024-07-10T10:46:31Z</time>
   </trkpt>
   <trkpt lat="35.2747300" lon="113.9119500">
    <ele>72.6</ele>
    <time>2024-07-10T10:46:32Z</time>
   </trkpt>
   <trkpt lat="35.2746930" lon="113.9119400">
    <ele>72.7</ele>
    <time>2024-07-10T10:46:33Z</time>
   </trkpt>
   <trkpt lat="35.2746120" lon="113.9119400">
    <ele>72.9</ele>
    <time>2024-07-10T10:46:35Z</time>
   </trkpt>
   <trkpt lat="35.2745320" lon="113.9119500">
    <ele>73.1</ele>
    <time>2024-07-10T10:46:37Z</time>
   </trkpt>
   <trkpt lat="35.2744520" lon="113.9119500">
    <ele>73.1</ele>
    <time>2024-07-10T10:46:39Z</time>
   </trkpt>
   <trkpt lat="35.2743700" lon="113.9119600">
    <ele>73.2</ele>
    <time>2024-07-10T10:46:41Z</time>
   </trkpt>
   <trkpt lat="35.2742840" lon="113.9119640">
    <ele>73.2</ele>
    <time>2024-07-10T10:46:43Z</time>
   </trkpt>
   <trkpt lat="35.2742080" lon="113.9119700">
    <ele>73.2</ele>
    <time>2024-07-10T10:46:45Z</time>
   </trkpt>
   <trkpt lat="35.2741700" lon="113.9119700">
    <ele>73.3</ele>
    <time>2024-07-10T10:46:46Z</time>
   </trkpt>
   <trkpt lat="35.2741360" lon="113.9119700">
    <ele>73.3</ele>
    <time>2024-07-10T10:46:47Z</time>
   </trkpt>
   <trkpt lat="35.2741050" lon="113.9119700">
    <ele>73.4</ele>
    <time>2024-07-10T10:46:48Z</time>
   </trkpt>
   <trkpt lat="35.2740750" lon="113.9119700">
    <ele>73.4</ele>
    <time>2024-07-10T10:46:49Z</time>
   </trkpt>
   <trkpt lat="35.2740440" lon="113.9119800">
    <ele>73.5</ele>
    <time>2024-07-10T10:46:50Z</time>
   </trkpt>
   <trkpt lat="35.2740140" lon="113.9119900">
    <ele>73.5</ele>
    <time>2024-07-10T10:46:51Z</time>
   </trkpt>
   <trkpt lat="35.2739800" lon="113.9119800">
    <ele>73.6</ele>
    <time>2024-07-10T10:46:52Z</time>
   </trkpt>
   <trkpt lat="35.2739500" lon="113.9119700">
    <ele>73.6</ele>
    <time>2024-07-10T10:46:53Z</time>
   </trkpt>
   <trkpt lat="35.2739140" lon="113.9119640">
    <ele>73.6</ele>
    <time>2024-07-10T10:46:54Z</time>
   </trkpt>
   <trkpt lat="35.2738800" lon="113.9119640">
    <ele>73.6</ele>
    <time>2024-07-10T10:46:55Z</time>
   </trkpt>
   <trkpt lat="35.2738460" lon="113.9119640">
    <ele>73.7</ele>
    <time>2024-07-10T10:46:56Z</time>
   </trkpt>
   <trkpt lat="35.2738080" lon="113.9119640">
    <ele>73.7</ele>
    <time>2024-07-10T10:46:57Z</time>
   </trkpt>
   <trkpt lat="35.2737730" lon="113.9119700">
    <ele>73.7</ele>
    <time>2024-07-10T10:46:58Z</time>
   </trkpt>
   <trkpt lat="35.2737400" lon="113.9119640">
    <ele>73.7</ele>
    <time>2024-07-10T10:46:59Z</time>
   </trkpt>
   <trkpt lat="35.2737050" lon="113.9119640">
    <ele>73.7</ele>
    <time>2024-07-10T10:47:00Z</time>
   </trkpt>
   <trkpt lat="35.2736700" lon="113.9119640">
    <ele>73.7</ele>
    <time>2024-07-10T10:47:01Z</time>
   </trkpt>
   <trkpt lat="35.2736320" lon="113.9119640">
    <ele>73.6</ele>
    <time>2024-07-10T10:47:02Z</time>
   </trkpt>
   <trkpt lat="35.2735980" lon="113.9119640">
    <ele>73.6</ele>
    <time>2024-07-10T10:47:03Z</time>
   </trkpt>
   <trkpt lat="35.2735630" lon="113.9119640">
    <ele>73.6</ele>
    <time>2024-07-10T10:47:04Z</time>
   </trkpt>
   <trkpt lat="35.2735300" lon="113.9119640">
    <ele>73.6</ele>
    <time>2024-07-10T10:47:05Z</time>
   </trkpt>
   <trkpt lat="35.2734900" lon="113.9119640">
    <ele>73.6</ele>
    <time>2024-07-10T10:47:06Z</time>
   </trkpt>
   <trkpt lat="35.2734530" lon="113.9119640">
    <ele>73.6</ele>
    <time>2024-07-10T10:47:07Z</time>
   </trkpt>
   <trkpt lat="35.2734150" lon="113.9119640">
    <ele>73.6</ele>
    <time>2024-07-10T10:47:08Z</time>
   </trkpt>
   <trkpt lat="35.2733800" lon="113.9119640">
    <ele>73.6</ele>
    <time>2024-07-10T10:47:09Z</time>
   </trkpt>
   <trkpt lat="35.2733420" lon="113.9119640">
    <ele>73.6</ele>
    <time>2024-07-10T10:47:10Z</time>
   </trkpt>
   <trkpt lat="35.2733040" lon="113.9119640">
    <ele>73.6</ele>
    <time>2024-07-10T10:47:11Z</time>
   </trkpt>
   <trkpt lat="35.2732660" lon="113.9119640">
    <ele>73.5</ele>
    <time>2024-07-10T10:47:12Z</time>
   </trkpt>
   <trkpt lat="35.2732280" lon="113.9119640">
    <ele>73.5</ele>
    <time>2024-07-10T10:47:13Z</time>
   </trkpt>
   <trkpt lat="35.2731900" lon="113.9119640">
    <ele>73.5</ele>
    <time>2024-07-10T10:47:14Z</time>
   </trkpt>
   <trkpt lat="35.2731500" lon="113.9119640">
    <ele>73.5</ele>
    <time>2024-07-10T10:47:15Z</time>
   </trkpt>
   <trkpt lat="35.2731100" lon="113.9119640">
    <ele>73.5</ele>
    <time>2024-07-10T10:47:16Z</time>
   </trkpt>
   <trkpt lat="35.2730750" lon="113.9119640">
    <ele>73.5</ele>
    <time>2024-07-10T10:47:17Z</time>
   </trkpt>
   <trkpt lat="35.2730370" lon="113.9119640">
    <ele>73.4</ele>
    <time>2024-07-10T10:47:18Z</time>
   </trkpt>
   <trkpt lat="35.2730000" lon="113.9119700">
    <ele>73.4</ele>
    <time>2024-07-10T10:47:19Z</time>
   </trkpt>
   <trkpt lat="35.2729570" lon="113.9119700">
    <ele>73.4</ele>
    <time>2024-07-10T10:47:20Z</time>
   </trkpt>
   <trkpt lat="35.2729200" lon="113.9119640">
    <ele>73.3</ele>
    <time>2024-07-10T10:47:21Z</time>
   </trkpt>
   <trkpt lat="35.2728800" lon="113.9119640">
    <ele>73.3</ele>
    <time>2024-07-10T10:47:22Z</time>
   </trkpt>
   <trkpt lat="35.2728400" lon="113.9119640">
    <ele>73.3</ele>
    <time>2024-07-10T10:47:23Z</time>
   </trkpt>
   <trkpt lat="35.2728000" lon="113.9119640">
    <ele>73.2</ele>
    <time>2024-07-10T10:47:24Z</time>
   </trkpt>
   <trkpt lat="35.2727620" lon="113.9119640">
    <ele>73.2</ele>
    <time>2024-07-10T10:47:25Z</time>
   </trkpt>
   <trkpt lat="35.2727200" lon="113.9119640">
    <ele>73.1</ele>
    <time>2024-07-10T10:47:26Z</time>
   </trkpt>
   <trkpt lat="35.2726820" lon="113.9119640">
    <ele>73.1</ele>
    <time>2024-07-10T10:47:27Z</time>
   </trkpt>
   <trkpt lat="35.2726400" lon="113.9119640">
    <ele>73.0</ele>
    <time>2024-07-10T10:47:28Z</time>
   </trkpt>
   <trkpt lat="35.2726020" lon="113.9119640">
    <ele>73.0</ele>
    <time>2024-07-10T10:47:29Z</time>
   </trkpt>
   <trkpt lat="35.2725640" lon="113.9119640">
    <ele>73.0</ele>
    <time>2024-07-10T10:47:30Z</time>
   </trkpt>
   <trkpt lat="35.2724880" lon="113.9119640">
    <ele>73.0</ele>
    <time>2024-07-10T10:47:32Z</time>
   </trkpt>
   <trkpt lat="35.2724500" lon="113.9119640">
    <ele>73.0</ele>
    <time>2024-07-10T10:47:33Z</time>
   </trkpt>
   <trkpt lat="35.2724100" lon="113.9119640">
    <ele>73.1</ele>
    <time>2024-07-10T10:47:34Z</time>
   </trkpt>
   <trkpt lat="35.2723770" lon="113.9119640">
    <ele>73.1</ele>
    <time>2024-07-10T10:47:35Z</time>
   </trkpt>
   <trkpt lat="35.2723460" lon="113.9119640">
    <ele>73.1</ele>
    <time>2024-07-10T10:47:36Z</time>
   </trkpt>
   <trkpt lat="35.2723160" lon="113.9119640">
    <ele>73.2</ele>
    <time>2024-07-10T10:47:37Z</time>
   </trkpt>
   <trkpt lat="35.2722930" lon="113.9119640">
    <ele>73.2</ele>
    <time>2024-07-10T10:47:38Z</time>
   </trkpt>
   <trkpt lat="35.2722700" lon="113.9119700">
    <ele>73.2</ele>
    <time>2024-07-10T10:47:39Z</time>
   </trkpt>
   <trkpt lat="35.2722470" lon="113.9119700">
    <ele>73.2</ele>
    <time>2024-07-10T10:47:40Z</time>
   </trkpt>
   <trkpt lat="35.2722240" lon="113.9119640">
    <ele>73.2</ele>
    <time>2024-07-10T10:47:41Z</time>
   </trkpt>
   <trkpt lat="35.2722000" lon="113.9119640">
    <ele>73.3</ele>
    <time>2024-07-10T10:47:42Z</time>
   </trkpt>
   <trkpt lat="35.2721750" lon="113.9119640">
    <ele>73.3</ele>
    <time>2024-07-10T10:47:43Z</time>
   </trkpt>
   <trkpt lat="35.2721500" lon="113.9119640">
    <ele>73.4</ele>
    <time>2024-07-10T10:47:44Z</time>
   </trkpt>
   <trkpt lat="35.2721180" lon="113.9119700">
    <ele>73.4</ele>
    <time>2024-07-10T10:47:45Z</time>
   </trkpt>
   <trkpt lat="35.2720900" lon="113.9119700">
    <ele>73.4</ele>
    <time>2024-07-10T10:47:46Z</time>
   </trkpt>
   <trkpt lat="35.2720600" lon="113.9119700">
    <ele>73.5</ele>
    <time>2024-07-10T10:47:47Z</time>
   </trkpt>
   <trkpt lat="35.2720300" lon="113.9119700">
    <ele>73.5</ele>
    <time>2024-07-10T10:47:48Z</time>
   </trkpt>
   <trkpt lat="35.2720000" lon="113.9119700">
    <ele>73.5</ele>
    <time>2024-07-10T10:47:49Z</time>
   </trkpt>
   <trkpt lat="35.2719700" lon="113.9119700">
    <ele>73.6</ele>
    <time>2024-07-10T10:47:50Z</time>
   </trkpt>
   <trkpt lat="35.2719350" lon="113.9119800">
    <ele>73.6</ele>
    <time>2024-07-10T10:47:51Z</time>
   </trkpt>
   <trkpt lat="35.2719040" lon="113.9119700">
    <ele>73.6</ele>
    <time>2024-07-10T10:47:52Z</time>
   </trkpt>
   <trkpt lat="35.2718700" lon="113.9119700">
    <ele>73.6</ele>
    <time>2024-07-10T10:47:53Z</time>
   </trkpt>
   <trkpt lat="35.2718400" lon="113.9119700">
    <ele>73.6</ele>
    <time>2024-07-10T10:47:54Z</time>
   </trkpt>
   <trkpt lat="35.2718050" lon="113.9119700">
    <ele>73.6</ele>
    <time>2024-07-10T10:47:55Z</time>
   </trkpt>
   <trkpt lat="35.2717700" lon="113.9119700">
    <ele>73.6</ele>
    <time>2024-07-10T10:47:56Z</time>
   </trkpt>
   <trkpt lat="35.2717400" lon="113.9119700">
    <ele>73.6</ele>
    <time>2024-07-10T10:47:57Z</time>
   </trkpt>
   <trkpt lat="35.2717060" lon="113.9119640">
    <ele>73.6</ele>
    <time>2024-07-10T10:47:58Z</time>
   </trkpt>
   <trkpt lat="35.2716700" lon="113.9119640">
    <ele>73.6</ele>
    <time>2024-07-10T10:47:59Z</time>
   </trkpt>
   <trkpt lat="35.2716400" lon="113.9119640">
    <ele>73.6</ele>
    <time>2024-07-10T10:48:00Z</time>
   </trkpt>
   <trkpt lat="35.2716060" lon="113.9119640">
    <ele>73.6</ele>
    <time>2024-07-10T10:48:01Z</time>
   </trkpt>
   <trkpt lat="35.2715760" lon="113.9119700">
    <ele>73.5</ele>
    <time>2024-07-10T10:48:02Z</time>
   </trkpt>
   <trkpt lat="35.2715450" lon="113.9119700">
    <ele>73.5</ele>
    <time>2024-07-10T10:48:03Z</time>
   </trkpt>
   <trkpt lat="35.2715100" lon="113.9119800">
    <ele>73.5</ele>
    <time>2024-07-10T10:48:04Z</time>
   </trkpt>
   <trkpt lat="35.2714800" lon="113.9119800">
    <ele>73.5</ele>
    <time>2024-07-10T10:48:05Z</time>
   </trkpt>
   <trkpt lat="35.2714460" lon="113.9119900">
    <ele>73.5</ele>
    <time>2024-07-10T10:48:06Z</time>
   </trkpt>
   <trkpt lat="35.2714100" lon="113.9119900">
    <ele>73.5</ele>
    <time>2024-07-10T10:48:07Z</time>
   </trkpt>
   <trkpt lat="35.2713780" lon="113.9119800">
    <ele>73.6</ele>
    <time>2024-07-10T10:48:08Z</time>
   </trkpt>
   <trkpt lat="35.2713430" lon="113.9119640">
    <ele>73.6</ele>
    <time>2024-07-10T10:48:09Z</time>
   </trkpt>
   <trkpt lat="35.2713100" lon="113.9119640">
    <ele>73.6</ele>
    <time>2024-07-10T10:48:10Z</time>
   </trkpt>
   <trkpt lat="35.2712750" lon="113.9119600">
    <ele>73.6</ele>
    <time>2024-07-10T10:48:11Z</time>
   </trkpt>
   <trkpt lat="35.2712360" lon="113.9119600">
    <ele>73.6</ele>
    <time>2024-07-10T10:48:12Z</time>
   </trkpt>
   <trkpt lat="35.2712020" lon="113.9119600">
    <ele>73.6</ele>
    <time>2024-07-10T10:48:13Z</time>
   </trkpt>
   <trkpt lat="35.2711640" lon="113.9119640">
    <ele>73.7</ele>
    <time>2024-07-10T10:48:14Z</time>
   </trkpt>
   <trkpt lat="35.2711300" lon="113.9119640">
    <ele>73.7</ele>
    <time>2024-07-10T10:48:15Z</time>
   </trkpt>
   <trkpt lat="35.2710950" lon="113.9119640">
    <ele>73.8</ele>
    <time>2024-07-10T10:48:16Z</time>
   </trkpt>
   <trkpt lat="35.2710570" lon="113.9119640">
    <ele>73.9</ele>
    <time>2024-07-10T10:48:17Z</time>
   </trkpt>
   <trkpt lat="35.2710200" lon="113.9119640">
    <ele>73.7</ele>
    <time>2024-07-10T10:48:18Z</time>
   </trkpt>
   <trkpt lat="35.2709800" lon="113.9119640">
    <ele>73.6</ele>
    <time>2024-07-10T10:48:19Z</time>
   </trkpt>
   <trkpt lat="35.2709430" lon="113.9119600">
    <ele>73.4</ele>
    <time>2024-07-10T10:48:20Z</time>
   </trkpt>
   <trkpt lat="35.2709050" lon="113.9119640">
    <ele>73.2</ele>
    <time>2024-07-10T10:48:21Z</time>
   </trkpt>
   <trkpt lat="35.2708660" lon="113.9119640">
    <ele>73.0</ele>
    <time>2024-07-10T10:48:22Z</time>
   </trkpt>
   <trkpt lat="35.2708300" lon="113.9119640">
    <ele>72.9</ele>
    <time>2024-07-10T10:48:23Z</time>
   </trkpt>
   <trkpt lat="35.2707900" lon="113.9119640">
    <ele>72.7</ele>
    <time>2024-07-10T10:48:24Z</time>
   </trkpt>
   <trkpt lat="35.2707520" lon="113.9119600">
    <ele>72.6</ele>
    <time>2024-07-10T10:48:25Z</time>
   </trkpt>
   <trkpt lat="35.2707100" lon="113.9119600">
    <ele>72.5</ele>
    <time>2024-07-10T10:48:26Z</time>
   </trkpt>
   <trkpt lat="35.2706700" lon="113.9119640">
    <ele>72.4</ele>
    <time>2024-07-10T10:48:27Z</time>
   </trkpt>
   <trkpt lat="35.2706340" lon="113.9119640">
    <ele>72.3</ele>
    <time>2024-07-10T10:48:28Z</time>
   </trkpt>
   <trkpt lat="35.2705960" lon="113.9119600">
    <ele>72.2</ele>
    <time>2024-07-10T10:48:29Z</time>
   </trkpt>
   <trkpt lat="35.2705540" lon="113.9119600">
    <ele>72.1</ele>
    <time>2024-07-10T10:48:30Z</time>
   </trkpt>
   <trkpt lat="35.2705150" lon="113.9119600">
    <ele>72.1</ele>
    <time>2024-07-10T10:48:31Z</time>
   </trkpt>
   <trkpt lat="35.2704770" lon="113.9119600">
    <ele>72.0</ele>
    <time>2024-07-10T10:48:32Z</time>
   </trkpt>
   <trkpt lat="35.2704350" lon="113.9119600">
    <ele>72.0</ele>
    <time>2024-07-10T10:48:33Z</time>
   </trkpt>
   <trkpt lat="35.2703970" lon="113.9119600">
    <ele>71.9</ele>
    <time>2024-07-10T10:48:34Z</time>
   </trkpt>
   <trkpt lat="35.2703550" lon="113.9119600">
    <ele>71.9</ele>
    <time>2024-07-10T10:48:35Z</time>
   </trkpt>
   <trkpt lat="35.2703170" lon="113.9119600">
    <ele>71.8</ele>
    <time>2024-07-10T10:48:36Z</time>
   </trkpt>
   <trkpt lat="35.2702750" lon="113.9119600">
    <ele>71.7</ele>
    <time>2024-07-10T10:48:37Z</time>
   </trkpt>
   <trkpt lat="35.2702370" lon="113.9119600">
    <ele>71.6</ele>
    <time>2024-07-10T10:48:38Z</time>
   </trkpt>
   <trkpt lat="35.2701950" lon="113.9119600">
    <ele>71.5</ele>
    <time>2024-07-10T10:48:39Z</time>
   </trkpt>
   <trkpt lat="35.2701570" lon="113.9119600">
    <ele>71.4</ele>
    <time>2024-07-10T10:48:40Z</time>
   </trkpt>
   <trkpt lat="35.2701150" lon="113.9119600">
    <ele>71.3</ele>
    <time>2024-07-10T10:48:41Z</time>
   </trkpt>
   <trkpt lat="35.2700770" lon="113.9119600">
    <ele>71.2</ele>
    <time>2024-07-10T10:48:42Z</time>
   </trkpt>
   <trkpt lat="35.2700350" lon="113.9119600">
    <ele>71.1</ele>
    <time>2024-07-10T10:48:43Z</time>
   </trkpt>
   <trkpt lat="35.2699970" lon="113.9119600">
    <ele>71.0</ele>
    <time>2024-07-10T10:48:44Z</time>
   </trkpt>
   <trkpt lat="35.2699550" lon="113.9119600">
    <ele>70.9</ele>
    <time>2024-07-10T10:48:45Z</time>
   </trkpt>
   <trkpt lat="35.2699170" lon="113.9119600">
    <ele>70.9</ele>
    <time>2024-07-10T10:48:46Z</time>
   </trkpt>
   <trkpt lat="35.2698750" lon="113.9119600">
    <ele>70.8</ele>
    <time>2024-07-10T10:48:47Z</time>
   </trkpt>
   <trkpt lat="35.2698360" lon="113.9119600">
    <ele>70.7</ele>
    <time>2024-07-10T10:48:48Z</time>
   </trkpt>
   <trkpt lat="35.2698000" lon="113.9119600">
    <ele>70.7</ele>
    <time>2024-07-10T10:48:49Z</time>
   </trkpt>
   <trkpt lat="35.2697560" lon="113.9119640">
    <ele>70.6</ele>
    <time>2024-07-10T10:48:50Z</time>
   </trkpt>
   <trkpt lat="35.2697140" lon="113.9119600">
    <ele>70.6</ele>
    <time>2024-07-10T10:48:51Z</time>
   </trkpt>
   <trkpt lat="35.2696760" lon="113.9119500">
    <ele>70.5</ele>
    <time>2024-07-10T10:48:52Z</time>
   </trkpt>
   <trkpt lat="35.2696340" lon="113.9119400">
    <ele>70.5</ele>
    <time>2024-07-10T10:48:53Z</time>
   </trkpt>
   <trkpt lat="35.2695920" lon="113.9119300">
    <ele>70.5</ele>
    <time>2024-07-10T10:48:54Z</time>
   </trkpt>
   <trkpt lat="35.2695540" lon="113.9119300">
    <ele>70.4</ele>
    <time>2024-07-10T10:48:55Z</time>
   </trkpt>
   <trkpt lat="35.2695160" lon="113.9119300">
    <ele>70.4</ele>
    <time>2024-07-10T10:48:56Z</time>
   </trkpt>
   <trkpt lat="35.2694780" lon="113.9119300">
    <ele>70.4</ele>
    <time>2024-07-10T10:48:57Z</time>
   </trkpt>
   <trkpt lat="35.2694400" lon="113.9119340">
    <ele>70.5</ele>
    <time>2024-07-10T10:48:58Z</time>
   </trkpt>
   <trkpt lat="35.2694000" lon="113.9119340">
    <ele>70.5</ele>
    <time>2024-07-10T10:48:59Z</time>
   </trkpt>
   <trkpt lat="35.2693630" lon="113.9119300">
    <ele>70.6</ele>
    <time>2024-07-10T10:49:00Z</time>
   </trkpt>
   <trkpt lat="35.2693250" lon="113.9119300">
    <ele>70.7</ele>
    <time>2024-07-10T10:49:01Z</time>
   </trkpt>
   <trkpt lat="35.2692870" lon="113.9119300">
    <ele>70.7</ele>
    <time>2024-07-10T10:49:02Z</time>
   </trkpt>
   <trkpt lat="35.2692530" lon="113.9119300">
    <ele>70.8</ele>
    <time>2024-07-10T10:49:03Z</time>
   </trkpt>
   <trkpt lat="35.2692200" lon="113.9119300">
    <ele>70.8</ele>
    <time>2024-07-10T10:49:04Z</time>
   </trkpt>
   <trkpt lat="35.2691880" lon="113.9119340">
    <ele>70.9</ele>
    <time>2024-07-10T10:49:05Z</time>
   </trkpt>
   <trkpt lat="35.2691600" lon="113.9119340">
    <ele>70.9</ele>
    <time>2024-07-10T10:49:06Z</time>
   </trkpt>
   <trkpt lat="35.2691350" lon="113.9119200">
    <ele>70.9</ele>
    <time>2024-07-10T10:49:07Z</time>
   </trkpt>
   <trkpt lat="35.2691100" lon="113.9118960">
    <ele>70.9</ele>
    <time>2024-07-10T10:49:08Z</time>
   </trkpt>
   <trkpt lat="35.2691000" lon="113.9118700">
    <ele>70.9</ele>
    <time>2024-07-10T10:49:09Z</time>
   </trkpt>
   <trkpt lat="35.2690850" lon="113.9118400">
    <ele>70.9</ele>
    <time>2024-07-10T10:49:10Z</time>
   </trkpt>
   <trkpt lat="35.2690700" lon="113.9118100">
    <ele>70.9</ele>
    <time>2024-07-10T10:49:11Z</time>
   </trkpt>
   <trkpt lat="35.2690600" lon="113.9117900">
    <ele>70.9</ele>
    <time>2024-07-10T10:49:12Z</time>
   </trkpt>
   <trkpt lat="35.2690500" lon="113.9117660">
    <ele>70.9</ele>
    <time>2024-07-10T10:49:13Z</time>
   </trkpt>
   <trkpt lat="35.2690470" lon="113.9117360">
    <ele>70.8</ele>
    <time>2024-07-10T10:49:14Z</time>
   </trkpt>
   <trkpt lat="35.2690430" lon="113.9117050">
    <ele>70.8</ele>
    <time>2024-07-10T10:49:15Z</time>
   </trkpt>
   <trkpt lat="35.2690430" lon="113.9116740">
    <ele>70.8</ele>
    <time>2024-07-10T10:49:16Z</time>
   </trkpt>
   <trkpt lat="35.2690430" lon="113.9116400">
    <ele>70.8</ele>
    <time>2024-07-10T10:49:17Z</time>
   </trkpt>
   <trkpt lat="35.2690400" lon="113.9116060">
    <ele>70.8</ele>
    <time>2024-07-10T10:49:18Z</time>
   </trkpt>
   <trkpt lat="35.2690400" lon="113.9115700">
    <ele>70.8</ele>
    <time>2024-07-10T10:49:19Z</time>
   </trkpt>
   <trkpt lat="35.2690350" lon="113.9115200">
    <ele>70.7</ele>
    <time>2024-07-10T10:49:20Z</time>
   </trkpt>
   <trkpt lat="35.2690300" lon="113.9114800">
    <ele>70.7</ele>
    <time>2024-07-10T10:49:21Z</time>
   </trkpt>
   <trkpt lat="35.2690280" lon="113.9114400">
    <ele>70.7</ele>
    <time>2024-07-10T10:49:22Z</time>
   </trkpt>
   <trkpt lat="35.2690280" lon="113.9113900">
    <ele>70.7</ele>
    <time>2024-07-10T10:49:23Z</time>
   </trkpt>
   <trkpt lat="35.2690240" lon="113.9113500">
    <ele>70.6</ele>
    <time>2024-07-10T10:49:24Z</time>
   </trkpt>
   <trkpt lat="35.2690240" lon="113.9113000">
    <ele>70.6</ele>
    <time>2024-07-10T10:49:25Z</time>
   </trkpt>
   <trkpt lat="35.2690240" lon="113.9112550">
    <ele>70.6</ele>
    <time>2024-07-10T10:49:26Z</time>
   </trkpt>
   <trkpt lat="35.2690240" lon="113.9112100">
    <ele>70.6</ele>
    <time>2024-07-10T10:49:27Z</time>
   </trkpt>
   <trkpt lat="35.2690280" lon="113.9111600">
    <ele>70.7</ele>
    <time>2024-07-10T10:49:28Z</time>
   </trkpt>
   <trkpt lat="35.2690280" lon="113.9111250">
    <ele>70.7</ele>
    <time>2024-07-10T10:49:29Z</time>
   </trkpt>
   <trkpt lat="35.2690280" lon="113.9110800">
    <ele>70.7</ele>
    <time>2024-07-10T10:49:30Z</time>
   </trkpt>
   <trkpt lat="35.2690280" lon="113.9110400">
    <ele>70.7</ele>
    <time>2024-07-10T10:49:31Z</time>
   </trkpt>
   <trkpt lat="35.2690300" lon="113.9109950">
    <ele>70.7</ele>
    <time>2024-07-10T10:49:32Z</time>
   </trkpt>
   <trkpt lat="35.2690300" lon="113.9109500">
    <ele>70.8</ele>
    <time>2024-07-10T10:49:33Z</time>
   </trkpt>
   <trkpt lat="35.2690300" lon="113.9109100">
    <ele>70.8</ele>
    <time>2024-07-10T10:49:34Z</time>
   </trkpt>
   <trkpt lat="35.2690350" lon="113.9108660">
    <ele>70.8</ele>
    <time>2024-07-10T10:49:35Z</time>
   </trkpt>
   <trkpt lat="35.2690400" lon="113.9108300">
    <ele>70.8</ele>
    <time>2024-07-10T10:49:36Z</time>
   </trkpt>
   <trkpt lat="35.2690430" lon="113.9108000">
    <ele>70.9</ele>
    <time>2024-07-10T10:49:37Z</time>
   </trkpt>
   <trkpt lat="35.2690470" lon="113.9107400">
    <ele>70.9</ele>
    <time>2024-07-10T10:49:38Z</time>
   </trkpt>
   <trkpt lat="35.2690430" lon="113.9107100">
    <ele>70.9</ele>
    <time>2024-07-10T10:49:39Z</time>
   </trkpt>
   <trkpt lat="35.2690400" lon="113.9106700">
    <ele>70.9</ele>
    <time>2024-07-10T10:49:40Z</time>
   </trkpt>
   <trkpt lat="35.2690350" lon="113.9106300">
    <ele>70.9</ele>
    <time>2024-07-10T10:49:41Z</time>
   </trkpt>
   <trkpt lat="35.2690350" lon="113.9105800">
    <ele>71.0</ele>
    <time>2024-07-10T10:49:42Z</time>
   </trkpt>
   <trkpt lat="35.2690300" lon="113.9105450">
    <ele>71.0</ele>
    <time>2024-07-10T10:49:43Z</time>
   </trkpt>
   <trkpt lat="35.2690280" lon="113.9105000">
    <ele>71.0</ele>
    <time>2024-07-10T10:49:44Z</time>
   </trkpt>
   <trkpt lat="35.2690280" lon="113.9104600">
    <ele>71.0</ele>
    <time>2024-07-10T10:49:45Z</time>
   </trkpt>
   <trkpt lat="35.2690280" lon="113.9104160">
    <ele>71.0</ele>
    <time>2024-07-10T10:49:46Z</time>
   </trkpt>
   <trkpt lat="35.2690240" lon="113.9103800">
    <ele>70.9</ele>
    <time>2024-07-10T10:49:47Z</time>
   </trkpt>
   <trkpt lat="35.2690240" lon="113.9103500">
    <ele>70.9</ele>
    <time>2024-07-10T10:49:48Z</time>
   </trkpt>
   <trkpt lat="35.2690200" lon="113.9103100">
    <ele>70.9</ele>
    <time>2024-07-10T10:49:49Z</time>
   </trkpt>
   <trkpt lat="35.2690200" lon="113.9102800">
    <ele>70.9</ele>
    <time>2024-07-10T10:49:50Z</time>
   </trkpt>
   <trkpt lat="35.2690200" lon="113.9102500">
    <ele>70.8</ele>
    <time>2024-07-10T10:49:51Z</time>
   </trkpt>
   <trkpt lat="35.2690160" lon="113.9102200">
    <ele>70.8</ele>
    <time>2024-07-10T10:49:52Z</time>
   </trkpt>
   <trkpt lat="35.2690160" lon="113.9101900">
    <ele>70.8</ele>
    <time>2024-07-10T10:49:53Z</time>
   </trkpt>
   <trkpt lat="35.2690160" lon="113.9101600">
    <ele>70.7</ele>
    <time>2024-07-10T10:49:54Z</time>
   </trkpt>
   <trkpt lat="35.2690160" lon="113.9101200">
    <ele>70.7</ele>
    <time>2024-07-10T10:49:55Z</time>
   </trkpt>
   <trkpt lat="35.2690160" lon="113.9100900">
    <ele>70.6</ele>
    <time>2024-07-10T10:49:56Z</time>
   </trkpt>
   <trkpt lat="35.2690160" lon="113.9100650">
    <ele>70.6</ele>
    <time>2024-07-10T10:49:57Z</time>
   </trkpt>
   <trkpt lat="35.2690120" lon="113.9100340">
    <ele>70.6</ele>
    <time>2024-07-10T10:49:58Z</time>
   </trkpt>
   <trkpt lat="35.2690120" lon="113.9100000">
    <ele>70.6</ele>
    <time>2024-07-10T10:49:59Z</time>
   </trkpt>
   <trkpt lat="35.2690120" lon="113.9099700">
    <ele>70.5</ele>
    <time>2024-07-10T10:50:00Z</time>
   </trkpt>
   <trkpt lat="35.2690100" lon="113.9099480">
    <ele>70.5</ele>
    <time>2024-07-10T10:50:01Z</time>
   </trkpt>
   <trkpt lat="35.2690080" lon="113.9099460">
    <ele>70.5</ele>
    <time>2024-07-10T10:50:02Z</time>
   </trkpt>
   <trkpt lat="35.2690060" lon="113.9099440">
    <ele>70.5</ele>
    <time>2024-07-10T10:50:03Z</time>
   </trkpt>
   <trkpt lat="35.2690030" lon="113.9099410">
    <ele>70.5</ele>
    <time>2024-07-10T10:50:04Z</time>
   </trkpt>
   <trkpt lat="35.2690010" lon="113.9099390">
    <ele>70.5</ele>
    <time>2024-07-10T10:50:05Z</time>
   </trkpt>
   <trkpt lat="35.2689990" lon="113.9099370">
    <ele>70.5</ele>
    <time>2024-07-10T10:50:06Z</time>
   </trkpt>
   <trkpt lat="35.2689970" lon="113.9099350">
    <ele>70.5</ele>
    <time>2024-07-10T10:50:06Z</time>
   </trkpt>
   <trkpt lat="35.2688830" lon="113.9099200">
    <ele>70.4</ele>
    <time>2024-07-10T10:50:13Z</time>
   </trkpt>
   <trkpt lat="35.2688560" lon="113.9099100">
    <ele>70.4</ele>
    <time>2024-07-10T10:50:14Z</time>
   </trkpt>
   <trkpt lat="35.2688330" lon="113.9099000">
    <ele>70.4</ele>
    <time>2024-07-10T10:50:15Z</time>
   </trkpt>
   <trkpt lat="35.2688100" lon="113.9098800">
    <ele>70.4</ele>
    <time>2024-07-10T10:50:16Z</time>
   </trkpt>
   <trkpt lat="35.2687870" lon="113.9098600">
    <ele>70.4</ele>
    <time>2024-07-10T10:50:17Z</time>
   </trkpt>
   <trkpt lat="35.2687720" lon="113.9098300">
    <ele>70.4</ele>
    <time>2024-07-10T10:50:18Z</time>
   </trkpt>
   <trkpt lat="35.2687700" lon="113.9098050">
    <ele>70.4</ele>
    <time>2024-07-10T10:50:19Z</time>
   </trkpt>
   <trkpt lat="35.2687700" lon="113.9097800">
    <ele>70.4</ele>
    <time>2024-07-10T10:50:20Z</time>
   </trkpt>
   <trkpt lat="35.2687720" lon="113.9097500">
    <ele>70.4</ele>
    <time>2024-07-10T10:50:21Z</time>
   </trkpt>
   <trkpt lat="35.2687720" lon="113.9097200">
    <ele>70.3</ele>
    <time>2024-07-10T10:50:22Z</time>
   </trkpt>
   <trkpt lat="35.2687720" lon="113.9096900">
    <ele>70.3</ele>
    <time>2024-07-10T10:50:23Z</time>
   </trkpt>
   <trkpt lat="35.2687720" lon="113.9096600">
    <ele>70.3</ele>
    <time>2024-07-10T10:50:24Z</time>
   </trkpt>
   <trkpt lat="35.2687720" lon="113.9096300">
    <ele>70.3</ele>
    <time>2024-07-10T10:50:25Z</time>
   </trkpt>
   <trkpt lat="35.2687760" lon="113.9095900">
    <ele>70.2</ele>
    <time>2024-07-10T10:50:26Z</time>
   </trkpt>
   <trkpt lat="35.2687760" lon="113.9095600">
    <ele>70.2</ele>
    <time>2024-07-10T10:50:27Z</time>
   </trkpt>
   <trkpt lat="35.2687720" lon="113.9095200">
    <ele>70.2</ele>
    <time>2024-07-10T10:50:28Z</time>
   </trkpt>
   <trkpt lat="35.2687720" lon="113.9094900">
    <ele>70.1</ele>
    <time>2024-07-10T10:50:29Z</time>
   </trkpt>
   <trkpt lat="35.2687720" lon="113.9094540">
    <ele>70.1</ele>
    <time>2024-07-10T10:50:30Z</time>
   </trkpt>
   <trkpt lat="35.2687760" lon="113.9094240">
    <ele>70.1</ele>
    <time>2024-07-10T10:50:31Z</time>
   </trkpt>
   <trkpt lat="35.2687760" lon="113.9093860">
    <ele>70.0</ele>
    <time>2024-07-10T10:50:32Z</time>
   </trkpt>
   <trkpt lat="35.2687720" lon="113.9093550">
    <ele>70.0</ele>
    <time>2024-07-10T10:50:33Z</time>
   </trkpt>
   <trkpt lat="35.2687720" lon="113.9093250">
    <ele>69.9</ele>
    <time>2024-07-10T10:50:34Z</time>
   </trkpt>
   <trkpt lat="35.2687720" lon="113.9093000">
    <ele>69.9</ele>
    <time>2024-07-10T10:50:35Z</time>
   </trkpt>
   <trkpt lat="35.2687720" lon="113.9092700">
    <ele>69.9</ele>
    <time>2024-07-10T10:50:36Z</time>
   </trkpt>
   <trkpt lat="35.2687700" lon="113.9092400">
    <ele>69.9</ele>
    <time>2024-07-10T10:50:37Z</time>
   </trkpt>
   <trkpt lat="35.2687700" lon="113.9092200">
    <ele>69.8</ele>
    <time>2024-07-10T10:50:38Z</time>
   </trkpt>
   <trkpt lat="35.2687700" lon="113.9091950">
    <ele>69.8</ele>
    <time>2024-07-10T10:50:39Z</time>
   </trkpt>
   <trkpt lat="35.2687700" lon="113.9091700">
    <ele>69.8</ele>
    <time>2024-07-10T10:50:40Z</time>
   </trkpt>
   <trkpt lat="35.2687650" lon="113.9091560">
    <ele>69.8</ele>
    <time>2024-07-10T10:50:41Z</time>
   </trkpt>
   <trkpt lat="35.2687670" lon="113.9091510">
    <ele>69.8</ele>
    <time>2024-07-10T10:50:42Z</time>
   </trkpt>
   <trkpt lat="35.2687680" lon="113.9091470">
    <ele>69.8</ele>
    <time>2024-07-10T10:50:43Z</time>
   </trkpt>
   <trkpt lat="35.2687690" lon="113.9091430">
    <ele>69.8</ele>
    <time>2024-07-10T10:50:44Z</time>
   </trkpt>
   <trkpt lat="35.2687710" lon="113.9091380">
    <ele>69.7</ele>
    <time>2024-07-10T10:50:45Z</time>
   </trkpt>
   <trkpt lat="35.2687720" lon="113.9091340">
    <ele>69.7</ele>
    <time>2024-07-10T10:50:45Z</time>
   </trkpt>
   <trkpt lat="35.2687720" lon="113.9091340">
    <ele>69.7</ele>
    <time>2024-07-10T10:50:45Z</time>
   </trkpt>
  </trkseg>
 </trk>
</gpx>
