<?xml version="1.0" encoding="UTF-8"?>
<gpx creator="StravaGPX" version="1.1" xmlns="http://www.topografix.com/GPX/1/1" xmlns:xsi="http://www.w3.org/2001/XMLSchema-instance" xsi:schemaLocation="http://www.topografix.com/GPX/1/1 http://www.topografix.com/GPX/1/1/gpx.xsd">
 <metadata>
  <time>2015-02-08T23:54:42Z</time>
 </metadata>
 <trk>
  <name>Hike</name>
  <type>hiking</type>
  <trkseg>
   <trkpt lat="35.6383880" lon="113.5877800">
    <ele>955.4</ele>
    <time>2015-02-08T23:54:42Z</time>
   </trkpt>
   <trkpt lat="35.6384370" lon="113.5875380">
    <ele>957.5</ele>
    <time>2015-02-08T23:54:57Z</time>
   </trkpt>
   <trkpt lat="35.6384500" lon="113.5875090">
    <ele>957.8</ele>
    <time>2015-02-08T23:55:02Z</time>
   </trkpt>
   <trkpt lat="35.6384190" lon="113.5875050">
    <ele>958.1</ele>
    <time>2015-02-08T23:55:07Z</time>
   </trkpt>
   <trkpt lat="35.6384250" lon="113.5875530">
    <ele>958.6</ele>
    <time>2015-02-08T23:55:12Z</time>
   </trkpt>
   <trkpt lat="35.6383820" lon="113.5874970">
    <ele>959.3</ele>
    <time>2015-02-08T23:55:17Z</time>
   </trkpt>
   <trkpt lat="35.6383330" lon="113.5874510">
    <ele>960.1</ele>
    <time>2015-02-08T23:55:22Z</time>
   </trkpt>
   <trkpt lat="35.6383160" lon="113.5873610">
    <ele>961.1</ele>
    <time>2015-02-08T23:55:27Z</time>
   </trkpt>
   <trkpt lat="35.6383270" lon="113.5872800">
    <ele>961.9</ele>
    <time>2015-02-08T23:55:32Z</time>
   </trkpt>
   <trkpt lat="35.6382860" lon="113.5872330">
    <ele>962.7</ele>
    <time>2015-02-08T23:55:37Z</time>
   </trkpt>
   <trkpt lat="35.6382750" lon="113.5871650">
    <ele>963.5</ele>
    <time>2015-02-08T23:55:42Z</time>
   </trkpt>
   <trkpt lat="35.6382520" lon="113.5871030">
    <ele>964.3</ele>
    <time>2015-02-08T23:55:47Z</time>
   </trkpt>
   <trkpt lat="35.6382210" lon="113.5870180">
    <ele>965.5</ele>
    <time>2015-02-08T23:55:52Z</time>
   </trkpt>
   <trkpt lat="35.6381770" lon="113.5869580">
    <ele>966.6</ele>
    <time>2015-02-08T23:55:57Z</time>
   </trkpt>
   <trkpt lat="35.6381550" lon="113.5869150">
    <ele>967.3</ele>
    <time>2015-02-08T23:56:02Z</time>
   </trkpt>
   <trkpt lat="35.6381740" lon="113.5868340">
    <ele>968.6</ele>
    <time>2015-02-08T23:56:07Z</time>
   </trkpt>
   <trkpt lat="35.6381600" lon="113.5867850">
    <ele>969.3</ele>
    <time>2015-02-08T23:56:12Z</time>
   </trkpt>
   <trkpt lat="35.6381740" lon="113.5867280">
    <ele>970.2</ele>
    <time>2015-02-08T23:56:17Z</time>
   </trkpt>
   <trkpt lat="35.6381930" lon="113.5867410">
    <ele>970.6</ele>
    <time>2015-02-08T23:56:22Z</time>
   </trkpt>
   <trkpt lat="35.6382140" lon="113.5866720">
    <ele>971.6</ele>
    <time>2015-02-08T23:56:27Z</time>
   </trkpt>
   <trkpt lat="35.6382210" lon="113.5865990">
    <ele>972.5</ele>
    <time>2015-02-08T23:56:32Z</time>
   </trkpt>
   <trkpt lat="35.6382230" lon="113.5865610">
    <ele>972.9</ele>
    <time>2015-02-08T23:56:37Z</time>
   </trkpt>
   <trkpt lat="35.6382460" lon="113.5865100">
    <ele>973.5</ele>
    <time>2015-02-08T23:56:42Z</time>
   </trkpt>
   <trkpt lat="35.6382560" lon="113.5864660">
    <ele>974.0</ele>
    <time>2015-02-08T23:56:47Z</time>
   </trkpt>
   <trkpt lat="35.6382660" lon="113.5863830">
    <ele>974.8</ele>
    <time>2015-02-08T23:56:52Z</time>
   </trkpt>
   <trkpt lat="35.6382880" lon="113.5863350">
    <ele>975.3</ele>
    <time>2015-02-08T23:56:57Z</time>
   </trkpt>
   <trkpt lat="35.6383080" lon="113.5862910">
    <ele>975.8</ele>
    <time>2015-02-08T23:57:02Z</time>
   </trkpt>
   <trkpt lat="35.6383060" lon="113.5862450">
    <ele>976.2</ele>
    <time>2015-02-08T23:57:07Z</time>
   </trkpt>
   <trkpt lat="35.6383560" lon="113.5862120">
    <ele>976.7</ele>
    <time>2015-02-08T23:57:12Z</time>
   </trkpt>
   <trkpt lat="35.6383360" lon="113.5860650">
    <ele>977.8</ele>
    <time>2015-02-08T23:58:02Z</time>
   </trkpt>
   <trkpt lat="35.6383330" lon="113.5859170">
    <ele>978.9</ele>
    <time>2015-02-08T23:58:07Z</time>
   </trkpt>
   <trkpt lat="35.6383420" lon="113.5858350">
    <ele>979.5</ele>
    <time>2015-02-08T23:58:12Z</time>
   </trkpt>
   <trkpt lat="35.6383480" lon="113.5857010">
    <ele>980.8</ele>
    <time>2015-02-08T23:58:17Z</time>
   </trkpt>
   <trkpt lat="35.6383510" lon="113.5856110">
    <ele>981.7</ele>
    <time>2015-02-08T23:58:22Z</time>
   </trkpt>
   <trkpt lat="35.6383530" lon="113.5855290">
    <ele>982.7</ele>
    <time>2015-02-08T23:58:27Z</time>
   </trkpt>
   <trkpt lat="35.6383210" lon="113.5854200">
    <ele>984.1</ele>
    <time>2015-02-08T23:58:32Z</time>
   </trkpt>
   <trkpt lat="35.6383170" lon="113.5853360">
    <ele>985.2</ele>
    <time>2015-02-08T23:58:37Z</time>
   </trkpt>
   <trkpt lat="35.6383060" lon="113.5852270">
    <ele>986.7</ele>
    <time>2015-02-08T23:58:42Z</time>
   </trkpt>
   <trkpt lat="35.6383380" lon="113.5851540">
    <ele>987.9</ele>
    <time>2015-02-08T23:58:47Z</time>
   </trkpt>
   <trkpt lat="35.6382830" lon="113.5849970">
    <ele>990.6</ele>
    <time>2015-02-08T23:58:52Z</time>
   </trkpt>
   <trkpt lat="35.6382930" lon="113.5849370">
    <ele>991.5</ele>
    <time>2015-02-08T23:58:57Z</time>
   </trkpt>
   <trkpt lat="35.6383100" lon="113.5849030">
    <ele>992.1</ele>
    <time>2015-02-08T23:59:02Z</time>
   </trkpt>
   <trkpt lat="35.6384220" lon="113.5849850">
    <ele>994.6</ele>
    <time>2015-02-08T23:59:07Z</time>
   </trkpt>
   <trkpt lat="35.6383630" lon="113.5849170">
    <ele>996.1</ele>
    <time>2015-02-08T23:59:12Z</time>
   </trkpt>
   <trkpt lat="35.6383680" lon="113.5848580">
    <ele>997.1</ele>
    <time>2015-02-08T23:59:17Z</time>
   </trkpt>
   <trkpt lat="35.6383040" lon="113.5847360">
    <ele>999.5</ele>
    <time>2015-02-08T23:59:22Z</time>
   </trkpt>
   <trkpt lat="35.6382850" lon="113.5846380">
    <ele>1001.4</ele>
    <time>2015-02-08T23:59:27Z</time>
   </trkpt>
   <trkpt lat="35.6383760" lon="113.5846350">
    <ele>1003.6</ele>
    <time>2015-02-08T23:59:32Z</time>
   </trkpt>
   <trkpt lat="35.6383930" lon="113.5846200">
    <ele>1004.1</ele>
    <time>2015-02-08T23:59:37Z</time>
   </trkpt>
   <trkpt lat="35.6384000" lon="113.5846000">
    <ele>1004.5</ele>
    <time>2015-02-08T23:59:42Z</time>
   </trkpt>
   <trkpt lat="35.6383760" lon="113.5845020">
    <ele>1006.5</ele>
    <time>2015-02-08T23:59:47Z</time>
   </trkpt>
   <trkpt lat="35.6383750" lon="113.5844340">
    <ele>1007.8</ele>
    <time>2015-02-08T23:59:52Z</time>
   </trkpt>
   <trkpt lat="35.6383660" lon="113.5844180">
    <ele>1008.2</ele>
    <time>2015-02-08T23:59:57Z</time>
   </trkpt>
   <trkpt lat="35.6383820" lon="113.5843700">
    <ele>1009.1</ele>
    <time>2015-02-09T00:00:02Z</time>
   </trkpt>
   <trkpt lat="35.6383980" lon="113.5843130">
    <ele>1010.3</ele>
    <time>2015-02-09T00:00:07Z</time>
   </trkpt>
   <trkpt lat="35.6383630" lon="113.5842340">
    <ele>1012.0</ele>
    <time>2015-02-09T00:00:12Z</time>
   </trkpt>
   <trkpt lat="35.6384140" lon="113.5842260">
    <ele>1013.1</ele>
    <time>2015-02-09T00:00:17Z</time>
   </trkpt>
   <trkpt lat="35.6383840" lon="113.5841080">
    <ele>1015.5</ele>
    <time>2015-02-09T00:00:22Z</time>
   </trkpt>
   <trkpt lat="35.6383790" lon="113.5840910">
    <ele>1015.9</ele>
    <time>2015-02-09T00:00:27Z</time>
   </trkpt>
   <trkpt lat="35.6383820" lon="113.5840770">
    <ele>1016.1</ele>
    <time>2015-02-09T00:00:32Z</time>
   </trkpt>
   <trkpt lat="35.6384040" lon="113.5840730">
    <ele>1016.7</ele>
    <time>2015-02-09T00:00:37Z</time>
   </trkpt>
   <trkpt lat="35.6384330" lon="113.5840220">
    <ele>1017.9</ele>
    <time>2015-02-09T00:00:42Z</time>
   </trkpt>
   <trkpt lat="35.6384680" lon="113.5839840">
    <ele>1019.0</ele>
    <time>2015-02-09T00:00:47Z</time>
   </trkpt>
   <trkpt lat="35.6384590" lon="113.5839350">
    <ele>1020.1</ele>
    <time>2015-02-09T00:00:52Z</time>
   </trkpt>
   <trkpt lat="35.6384540" lon="113.5839220">
    <ele>1020.4</ele>
    <time>2015-02-09T00:00:57Z</time>
   </trkpt>
   <trkpt lat="35.6384710" lon="113.5838850">
    <ele>1021.2</ele>
    <time>2015-02-09T00:01:02Z</time>
   </trkpt>
   <trkpt lat="35.6384940" lon="113.5838620">
    <ele>1021.9</ele>
    <time>2015-02-09T00:01:07Z</time>
   </trkpt>
   <trkpt lat="35.6385100" lon="113.5838240">
    <ele>1022.8</ele>
    <time>2015-02-09T00:01:12Z</time>
   </trkpt>
   <trkpt lat="35.6384640" lon="113.5837660">
    <ele>1024.4</ele>
    <time>2015-02-09T00:01:17Z</time>
   </trkpt>
   <trkpt lat="35.6384880" lon="113.5837930">
    <ele>1025.2</ele>
    <time>2015-02-09T00:01:22Z</time>
   </trkpt>
   <trkpt lat="35.6384790" lon="113.5837730">
    <ele>1025.7</ele>
    <time>2015-02-09T00:01:27Z</time>
   </trkpt>
   <trkpt lat="35.6384790" lon="113.5837130">
    <ele>1026.9</ele>
    <time>2015-02-09T00:01:32Z</time>
   </trkpt>
   <trkpt lat="35.6385120" lon="113.5835300">
    <ele>1030.4</ele>
    <time>2015-02-09T00:02:32Z</time>
   </trkpt>
   <trkpt lat="35.6385420" lon="113.5834190">
    <ele>1032.5</ele>
    <time>2015-02-09T00:02:37Z</time>
   </trkpt>
   <trkpt lat="35.6385250" lon="113.5832640">
    <ele>1035.2</ele>
    <time>2015-02-09T00:02:42Z</time>
   </trkpt>
   <trkpt lat="35.6385380" lon="113.5831710">
    <ele>1036.9</ele>
    <time>2015-02-09T00:02:47Z</time>
   </trkpt>
   <trkpt lat="35.6385640" lon="113.5831030">
    <ele>1038.3</ele>
    <time>2015-02-09T00:02:52Z</time>
   </trkpt>
   <trkpt lat="35.6385620" lon="113.5830530">
    <ele>1039.2</ele>
    <time>2015-02-09T00:02:57Z</time>
   </trkpt>
   <trkpt lat="35.6385790" lon="113.5830530">
    <ele>1039.6</ele>
    <time>2015-02-09T00:03:02Z</time>
   </trkpt>
   <trkpt lat="35.6385610" lon="113.5829380">
    <ele>1042.0</ele>
    <time>2015-02-09T00:03:07Z</time>
   </trkpt>
   <trkpt lat="35.6385230" lon="113.5829510">
    <ele>1043.0</ele>
    <time>2015-02-09T00:03:12Z</time>
   </trkpt>
   <trkpt lat="35.6386230" lon="113.5829530">
    <ele>1045.4</ele>
    <time>2015-02-09T00:03:27Z</time>
   </trkpt>
   <trkpt lat="35.6386470" lon="113.5829620">
    <ele>1046.0</ele>
    <time>2015-02-09T00:03:32Z</time>
   </trkpt>
   <trkpt lat="35.6386900" lon="113.5830160">
    <ele>1047.3</ele>
    <time>2015-02-09T00:03:37Z</time>
   </trkpt>
   <trkpt lat="35.6387450" lon="113.5830690">
    <ele>1048.7</ele>
    <time>2015-02-09T00:03:42Z</time>
   </trkpt>
   <trkpt lat="35.6387550" lon="113.5831290">
    <ele>1049.7</ele>
    <time>2015-02-09T00:03:47Z</time>
   </trkpt>
   <trkpt lat="35.6387950" lon="113.5832240">
    <ele>1051.8</ele>
    <time>2015-02-09T00:03:57Z</time>
   </trkpt>
   <trkpt lat="35.6388250" lon="113.5833010">
    <ele>1053.5</ele>
    <time>2015-02-09T00:04:02Z</time>
   </trkpt>
   <trkpt lat="35.6388600" lon="113.5833430">
    <ele>1054.8</ele>
    <time>2015-02-09T00:04:07Z</time>
   </trkpt>
   <trkpt lat="35.6388700" lon="113.5833780">
    <ele>1055.6</ele>
    <time>2015-02-09T00:04:12Z</time>
   </trkpt>
   <trkpt lat="35.6388950" lon="113.5834200">
    <ele>1056.8</ele>
    <time>2015-02-09T00:04:17Z</time>
   </trkpt>
   <trkpt lat="35.6389110" lon="113.5834730">
    <ele>1058.0</ele>
    <time>2015-02-09T00:04:22Z</time>
   </trkpt>
   <trkpt lat="35.6389020" lon="113.5835070">
    <ele>1058.8</ele>
    <time>2015-02-09T00:04:27Z</time>
   </trkpt>
   <trkpt lat="35.6389340" lon="113.5835550">
    <ele>1060.2</ele>
    <time>2015-02-09T00:04:32Z</time>
   </trkpt>
   <trkpt lat="35.6389520" lon="113.5835680">
    <ele>1060.8</ele>
    <time>2015-02-09T00:04:37Z</time>
   </trkpt>
   <trkpt lat="35.6389880" lon="113.5836260">
    <ele>1062.4</ele>
    <time>2015-02-09T00:04:42Z</time>
   </trkpt>
   <trkpt lat="35.6390260" lon="113.5836600">
    <ele>1063.7</ele>
    <time>2015-02-09T00:04:47Z</time>
   </trkpt>
   <trkpt lat="35.6390630" lon="113.5836810">
    <ele>1064.8</ele>
    <time>2015-02-09T00:04:52Z</time>
   </trkpt>
   <trkpt lat="35.6391030" lon="113.5836880">
    <ele>1065.9</ele>
    <time>2015-02-09T00:04:57Z</time>
   </trkpt>
   <trkpt lat="35.6391520" lon="113.5837130">
    <ele>1067.4</ele>
    <time>2015-02-09T00:05:02Z</time>
   </trkpt>
   <trkpt lat="35.6392210" lon="113.5837340">
    <ele>1069.3</ele>
    <time>2015-02-09T00:05:12Z</time>
   </trkpt>
   <trkpt lat="35.6392640" lon="113.5837050">
    <ele>1070.7</ele>
    <time>2015-02-09T00:05:17Z</time>
   </trkpt>
   <trkpt lat="35.6392770" lon="113.5836270">
    <ele>1072.4</ele>
    <time>2015-02-09T00:05:22Z</time>
   </trkpt>
   <trkpt lat="35.6392840" lon="113.5835770">
    <ele>1073.6</ele>
    <time>2015-02-09T00:05:27Z</time>
   </trkpt>
   <trkpt lat="35.6393290" lon="113.5835160">
    <ele>1075.3</ele>
    <time>2015-02-09T00:05:32Z</time>
   </trkpt>
   <trkpt lat="35.6393670" lon="113.5834710">
    <ele>1076.6</ele>
    <time>2015-02-09T00:05:37Z</time>
   </trkpt>
   <trkpt lat="35.6394000" lon="113.5834430">
    <ele>1077.6</ele>
    <time>2015-02-09T00:05:42Z</time>
   </trkpt>
   <trkpt lat="35.6394060" lon="113.5833500">
    <ele>1079.3</ele>
    <time>2015-02-09T00:05:47Z</time>
   </trkpt>
   <trkpt lat="35.6394420" lon="113.5832610">
    <ele>1081.0</ele>
    <time>2015-02-09T00:05:52Z</time>
   </trkpt>
   <trkpt lat="35.6394410" lon="113.5832060">
    <ele>1082.0</ele>
    <time>2015-02-09T00:05:57Z</time>
   </trkpt>
   <trkpt lat="35.6394440" lon="113.5831510">
    <ele>1082.9</ele>
    <time>2015-02-09T00:06:02Z</time>
   </trkpt>
   <trkpt lat="35.6394520" lon="113.5829630">
    <ele>1086.2</ele>
    <time>2015-02-09T00:06:07Z</time>
   </trkpt>
   <trkpt lat="35.6395020" lon="113.5829690">
    <ele>1087.3</ele>
    <time>2015-02-09T00:06:12Z</time>
   </trkpt>
   <trkpt lat="35.6394900" lon="113.5829300">
    <ele>1088.1</ele>
    <time>2015-02-09T00:06:17Z</time>
   </trkpt>
   <trkpt lat="35.6394840" lon="113.5828700">
    <ele>1089.2</ele>
    <time>2015-02-09T00:06:22Z</time>
   </trkpt>
   <trkpt lat="35.6394740" lon="113.5828010">
    <ele>1090.5</ele>
    <time>2015-02-09T00:06:27Z</time>
   </trkpt>
   <trkpt lat="35.6394500" lon="113.5827340">
    <ele>1091.9</ele>
    <time>2015-02-09T00:06:32Z</time>
   </trkpt>
   <trkpt lat="35.6394520" lon="113.5826150">
    <ele>1094.4</ele>
    <time>2015-02-09T00:06:37Z</time>
   </trkpt>
   <trkpt lat="35.6394390" lon="113.5825680">
    <ele>1095.5</ele>
    <time>2015-02-09T00:06:42Z</time>
   </trkpt>
   <trkpt lat="35.6394530" lon="113.5824650">
    <ele>1097.8</ele>
    <time>2015-02-09T00:06:47Z</time>
   </trkpt>
   <trkpt lat="35.6394250" lon="113.5823840">
    <ele>1099.8</ele>
    <time>2015-02-09T00:06:52Z</time>
   </trkpt>
   <trkpt lat="35.6394250" lon="113.5822760">
    <ele>1102.3</ele>
    <time>2015-02-09T00:06:57Z</time>
   </trkpt>
   <trkpt lat="35.6394250" lon="113.5821760">
    <ele>1104.6</ele>
    <time>2015-02-09T00:07:02Z</time>
   </trkpt>
   <trkpt lat="35.6394420" lon="113.5821800">
    <ele>1105.1</ele>
    <time>2015-02-09T00:07:07Z</time>
   </trkpt>
   <trkpt lat="35.6394590" lon="113.5821470">
    <ele>1106.0</ele>
    <time>2015-02-09T00:07:12Z</time>
   </trkpt>
   <trkpt lat="35.6394760" lon="113.5821010">
    <ele>1107.1</ele>
    <time>2015-02-09T00:07:17Z</time>
   </trkpt>
   <trkpt lat="35.6394580" lon="113.5819950">
    <ele>1109.4</ele>
    <time>2015-02-09T00:07:22Z</time>
   </trkpt>
   <trkpt lat="35.6394950" lon="113.5819180">
    <ele>1111.4</ele>
    <time>2015-02-09T00:07:27Z</time>
   </trkpt>
   <trkpt lat="35.6394850" lon="113.5818680">
    <ele>1112.6</ele>
    <time>2015-02-09T00:07:32Z</time>
   </trkpt>
   <trkpt lat="35.6394690" lon="113.5818090">
    <ele>1114.0</ele>
    <time>2015-02-09T00:07:37Z</time>
   </trkpt>
   <trkpt lat="35.6394640" lon="113.5817640">
    <ele>1115.0</ele>
    <time>2015-02-09T00:07:42Z</time>
   </trkpt>
   <trkpt lat="35.6394470" lon="113.5816900">
    <ele>1116.7</ele>
    <time>2015-02-09T00:07:47Z</time>
   </trkpt>
   <trkpt lat="35.6394600" lon="113.5816290">
    <ele>1118.1</ele>
    <time>2015-02-09T00:07:52Z</time>
   </trkpt>
   <trkpt lat="35.6394560" lon="113.5815340">
    <ele>1120.1</ele>
    <time>2015-02-09T00:07:57Z</time>
   </trkpt>
   <trkpt lat="35.6394790" lon="113.5814770">
    <ele>1121.4</ele>
    <time>2015-02-09T00:08:02Z</time>
   </trkpt>
   <trkpt lat="35.6395040" lon="113.5813970">
    <ele>1123.2</ele>
    <time>2015-02-09T00:08:07Z</time>
   </trkpt>
   <trkpt lat="35.6395420" lon="113.5813150">
    <ele>1125.1</ele>
    <time>2015-02-09T00:08:12Z</time>
   </trkpt>
   <trkpt lat="35.6396220" lon="113.5813130">
    <ele>1127.1</ele>
    <time>2015-02-09T00:08:17Z</time>
   </trkpt>
   <trkpt lat="35.6396450" lon="113.5812370">
    <ele>1128.7</ele>
    <time>2015-02-09T00:08:22Z</time>
   </trkpt>
   <trkpt lat="35.6396760" lon="113.5812100">
    <ele>1129.7</ele>
    <time>2015-02-09T00:08:27Z</time>
   </trkpt>
   <trkpt lat="35.6396870" lon="113.5811450">
    <ele>1131.0</ele>
    <time>2015-02-09T00:08:32Z</time>
   </trkpt>
   <trkpt lat="35.6396890" lon="113.5810820">
    <ele>1132.3</ele>
    <time>2015-02-09T00:08:37Z</time>
   </trkpt>
   <trkpt lat="35.6396860" lon="113.5809990">
    <ele>1134.1</ele>
    <time>2015-02-09T00:08:42Z</time>
   </trkpt>
   <trkpt lat="35.6396870" lon="113.5809700">
    <ele>1134.7</ele>
    <time>2015-02-09T00:08:47Z</time>
   </trkpt>
   <trkpt lat="35.6397030" lon="113.5809650">
    <ele>1135.1</ele>
    <time>2015-02-09T00:08:52Z</time>
   </trkpt>
   <trkpt lat="35.6396790" lon="113.5808660">
    <ele>1137.4</ele>
    <time>2015-02-09T00:08:57Z</time>
   </trkpt>
   <trkpt lat="35.6396790" lon="113.5808330">
    <ele>1138.1</ele>
    <time>2015-02-09T00:09:02Z</time>
   </trkpt>
   <trkpt lat="35.6396180" lon="113.5807320">
    <ele>1141.0</ele>
    <time>2015-02-09T00:09:07Z</time>
   </trkpt>
   <trkpt lat="35.6395910" lon="113.5806880">
    <ele>1142.3</ele>
    <time>2015-02-09T00:09:12Z</time>
   </trkpt>
   <trkpt lat="35.6395680" lon="113.5805930">
    <ele>1144.6</ele>
    <time>2015-02-09T00:09:17Z</time>
   </trkpt>
   <trkpt lat="35.6395700" lon="113.5805280">
    <ele>1146.1</ele>
    <time>2015-02-09T00:09:22Z</time>
   </trkpt>
   <trkpt lat="35.6395500" lon="113.5803980">
    <ele>1149.1</ele>
    <time>2015-02-09T00:09:27Z</time>
   </trkpt>
   <trkpt lat="35.6395390" lon="113.5803220">
    <ele>1150.9</ele>
    <time>2015-02-09T00:09:32Z</time>
   </trkpt>
   <trkpt lat="35.6395400" lon="113.5802620">
    <ele>1152.3</ele>
    <time>2015-02-09T00:09:37Z</time>
   </trkpt>
   <trkpt lat="35.6395210" lon="113.5801660">
    <ele>1154.5</ele>
    <time>2015-02-09T00:09:42Z</time>
   </trkpt>
   <trkpt lat="35.6395640" lon="113.5801620">
    <ele>1155.7</ele>
    <time>2015-02-09T00:09:47Z</time>
   </trkpt>
   <trkpt lat="35.6395710" lon="113.5800820">
    <ele>1157.5</ele>
    <time>2015-02-09T00:09:52Z</time>
   </trkpt>
   <trkpt lat="35.6395820" lon="113.5800220">
    <ele>1158.9</ele>
    <time>2015-02-09T00:09:57Z</time>
   </trkpt>
   <trkpt lat="35.6395320" lon="113.5798290">
    <ele>1163.4</ele>
    <time>2015-02-09T00:10:02Z</time>
   </trkpt>
   <trkpt lat="35.6395710" lon="113.5798010">
    <ele>1164.6</ele>
    <time>2015-02-09T00:10:07Z</time>
   </trkpt>
   <trkpt lat="35.6396370" lon="113.5798000">
    <ele>1166.5</ele>
    <time>2015-02-09T00:10:12Z</time>
   </trkpt>
   <trkpt lat="35.6396850" lon="113.5797440">
    <ele>1168.3</ele>
    <time>2015-02-09T00:10:22Z</time>
   </trkpt>
   <trkpt lat="35.6397510" lon="113.5797130">
    <ele>1170.2</ele>
    <time>2015-02-09T00:10:27Z</time>
   </trkpt>
   <trkpt lat="35.6397860" lon="113.5797050">
    <ele>1171.2</ele>
    <time>2015-02-09T00:10:32Z</time>
   </trkpt>
   <trkpt lat="35.6398420" lon="113.5797060">
    <ele>1172.7</ele>
    <time>2015-02-09T00:10:37Z</time>
   </trkpt>
   <trkpt lat="35.6399410" lon="113.5796580">
    <ele>1175.7</ele>
    <time>2015-02-09T00:10:42Z</time>
   </trkpt>
   <trkpt lat="35.6399130" lon="113.5795680">
    <ele>1178.0</ele>
    <time>2015-02-09T00:10:47Z</time>
   </trkpt>
   <trkpt lat="35.6399340" lon="113.5795130">
    <ele>1179.3</ele>
    <time>2015-02-09T00:10:52Z</time>
   </trkpt>
   <trkpt lat="35.6399520" lon="113.5794650">
    <ele>1180.5</ele>
    <time>2015-02-09T00:10:57Z</time>
   </trkpt>
   <trkpt lat="35.6399810" lon="113.5793920">
    <ele>1182.3</ele>
    <time>2015-02-09T00:11:02Z</time>
   </trkpt>
   <trkpt lat="35.6400610" lon="113.5793000">
    <ele>1185.2</ele>
    <time>2015-02-09T00:11:12Z</time>
   </trkpt>
   <trkpt lat="35.6401020" lon="113.5792620">
    <ele>1186.5</ele>
    <time>2015-02-09T00:11:17Z</time>
   </trkpt>
   <trkpt lat="35.6401280" lon="113.5792660">
    <ele>1187.1</ele>
    <time>2015-02-09T00:11:22Z</time>
   </trkpt>
   <trkpt lat="35.6400870" lon="113.5791780">
    <ele>1189.2</ele>
    <time>2015-02-09T00:12:22Z</time>
   </trkpt>
   <trkpt lat="35.6401450" lon="113.5790270">
    <ele>1192.7</ele>
    <time>2015-02-09T00:12:27Z</time>
   </trkpt>
   <trkpt lat="35.6401640" lon="113.5789550">
    <ele>1194.3</ele>
    <time>2015-02-09T00:12:32Z</time>
   </trkpt>
   <trkpt lat="35.6401790" lon="113.5788290">
    <ele>1196.9</ele>
    <time>2015-02-09T00:12:37Z</time>
   </trkpt>
   <trkpt lat="35.6401860" lon="113.5786540">
    <ele>1200.7</ele>
    <time>2015-02-09T00:12:42Z</time>
   </trkpt>
   <trkpt lat="35.6402140" lon="113.5785910">
    <ele>1202.2</ele>
    <time>2015-02-09T00:12:47Z</time>
   </trkpt>
   <trkpt lat="35.6402450" lon="113.5785280">
    <ele>1203.8</ele>
    <time>2015-02-09T00:12:52Z</time>
   </trkpt>
   <trkpt lat="35.6402700" lon="113.5784760">
    <ele>1205.1</ele>
    <time>2015-02-09T00:12:57Z</time>
   </trkpt>
   <trkpt lat="35.6402710" lon="113.5783730">
    <ele>1207.3</ele>
    <time>2015-02-09T00:13:02Z</time>
   </trkpt>
   <trkpt lat="35.6403070" lon="113.5782990">
    <ele>1209.1</ele>
    <time>2015-02-09T00:13:07Z</time>
   </trkpt>
   <trkpt lat="35.6403530" lon="113.5782180">
    <ele>1211.1</ele>
    <time>2015-02-09T00:13:12Z</time>
   </trkpt>
   <trkpt lat="35.6403780" lon="113.5781590">
    <ele>1212.5</ele>
    <time>2015-02-09T00:13:17Z</time>
   </trkpt>
   <trkpt lat="35.6404330" lon="113.5781400">
    <ele>1213.9</ele>
    <time>2015-02-09T00:13:22Z</time>
   </trkpt>
   <trkpt lat="35.6404590" lon="113.5780860">
    <ele>1215.1</ele>
    <time>2015-02-09T00:13:27Z</time>
   </trkpt>
   <trkpt lat="35.6405150" lon="113.5780880">
    <ele>1216.5</ele>
    <time>2015-02-09T00:13:32Z</time>
   </trkpt>
   <trkpt lat="35.6405290" lon="113.5780380">
    <ele>1217.6</ele>
    <time>2015-02-09T00:13:37Z</time>
   </trkpt>
   <trkpt lat="35.6405820" lon="113.5779880">
    <ele>1219.3</ele>
    <time>2015-02-09T00:13:42Z</time>
   </trkpt>
   <trkpt lat="35.6405990" lon="113.5779520">
    <ele>1220.2</ele>
    <time>2015-02-09T00:14:07Z</time>
   </trkpt>
   <trkpt lat="35.6406860" lon="113.5777860">
    <ele>1224.5</ele>
    <time>2015-02-09T00:14:27Z</time>
   </trkpt>
   <trkpt lat="35.6406770" lon="113.5776780">
    <ele>1226.9</ele>
    <time>2015-02-09T00:14:32Z</time>
   </trkpt>
   <trkpt lat="35.6406890" lon="113.5776100">
    <ele>1228.4</ele>
    <time>2015-02-09T00:14:37Z</time>
   </trkpt>
   <trkpt lat="35.6407350" lon="113.5776840">
    <ele>1230.4</ele>
    <time>2015-02-09T00:14:47Z</time>
   </trkpt>
   <trkpt lat="35.6407300" lon="113.5777350">
    <ele>1231.4</ele>
    <time>2015-02-09T00:14:52Z</time>
   </trkpt>
   <trkpt lat="35.6407380" lon="113.5778470">
    <ele>1233.7</ele>
    <time>2015-02-09T00:14:57Z</time>
   </trkpt>
   <trkpt lat="35.6407200" lon="113.5779130">
    <ele>1235.2</ele>
    <time>2015-02-09T00:15:02Z</time>
   </trkpt>
   <trkpt lat="35.6407160" lon="113.5780120">
    <ele>1237.3</ele>
    <time>2015-02-09T00:15:07Z</time>
   </trkpt>
   <trkpt lat="35.6407000" lon="113.5780540">
    <ele>1238.3</ele>
    <time>2015-02-09T00:15:13Z</time>
   </trkpt>
   <trkpt lat="35.6407040" lon="113.5780230">
    <ele>1239.0</ele>
    <time>2015-02-09T00:15:43Z</time>
   </trkpt>
   <trkpt lat="35.6407740" lon="113.5779050">
    <ele>1242.1</ele>
    <time>2015-02-09T00:16:03Z</time>
   </trkpt>
   <trkpt lat="35.6408010" lon="113.5777990">
    <ele>1244.3</ele>
    <time>2015-02-09T00:16:08Z</time>
   </trkpt>
   <trkpt lat="35.6408260" lon="113.5777300">
    <ele>1245.8</ele>
    <time>2015-02-09T00:16:13Z</time>
   </trkpt>
   <trkpt lat="35.6408670" lon="113.5776530">
    <ele>1247.6</ele>
    <time>2015-02-09T00:16:18Z</time>
   </trkpt>
   <trkpt lat="35.6409070" lon="113.5775780">
    <ele>1249.3</ele>
    <time>2015-02-09T00:16:23Z</time>
   </trkpt>
   <trkpt lat="35.6410120" lon="113.5775120">
    <ele>1252.1</ele>
    <time>2015-02-09T00:16:38Z</time>
   </trkpt>
   <trkpt lat="35.6410440" lon="113.5773390">
    <ele>1255.5</ele>
    <time>2015-02-09T00:17:23Z</time>
   </trkpt>
   <trkpt lat="35.6410290" lon="113.5772960">
    <ele>1256.4</ele>
    <time>2015-02-09T00:17:28Z</time>
   </trkpt>
   <trkpt lat="35.6409850" lon="113.5772660">
    <ele>1257.6</ele>
    <time>2015-02-09T00:17:33Z</time>
   </trkpt>
   <trkpt lat="35.6409000" lon="113.5772930">
    <ele>1259.8</ele>
    <time>2015-02-09T00:17:38Z</time>
   </trkpt>
   <trkpt lat="35.6407960" lon="113.5773210">
    <ele>1262.4</ele>
    <time>2015-02-09T00:17:43Z</time>
   </trkpt>
   <trkpt lat="35.6407440" lon="113.5773050">
    <ele>1263.8</ele>
    <time>2015-02-09T00:17:48Z</time>
   </trkpt>
   <trkpt lat="35.6406580" lon="113.5773370">
    <ele>1266.1</ele>
    <time>2015-02-09T00:17:53Z</time>
   </trkpt>
   <trkpt lat="35.6406290" lon="113.5772860">
    <ele>1267.4</ele>
    <time>2015-02-09T00:17:58Z</time>
   </trkpt>
   <trkpt lat="35.6405900" lon="113.5772860">
    <ele>1268.4</ele>
    <time>2015-02-09T00:18:03Z</time>
   </trkpt>
   <trkpt lat="35.6405980" lon="113.5772620">
    <ele>1269.0</ele>
    <time>2015-02-09T00:18:08Z</time>
   </trkpt>
   <trkpt lat="35.6406340" lon="113.5770920">
    <ele>1272.8</ele>
    <time>2015-02-09T00:19:08Z</time>
   </trkpt>
   <trkpt lat="35.6405650" lon="113.5767180">
    <ele>1281.5</ele>
    <time>2015-02-09T00:19:13Z</time>
   </trkpt>
   <trkpt lat="35.6405060" lon="113.5766150">
    <ele>1284.4</ele>
    <time>2015-02-09T00:19:18Z</time>
   </trkpt>
   <trkpt lat="35.6405120" lon="113.5764960">
    <ele>1287.1</ele>
    <time>2015-02-09T00:19:28Z</time>
   </trkpt>
   <trkpt lat="35.6404500" lon="113.5764770">
    <ele>1288.9</ele>
    <time>2015-02-09T00:19:38Z</time>
   </trkpt>
   <trkpt lat="35.6403820" lon="113.5764920">
    <ele>1290.7</ele>
    <time>2015-02-09T00:19:43Z</time>
   </trkpt>
   <trkpt lat="35.6404560" lon="113.5762780">
    <ele>1295.8</ele>
    <time>2015-02-09T00:19:48Z</time>
   </trkpt>
   <trkpt lat="35.6404880" lon="113.5761440">
    <ele>1298.5</ele>
    <time>2015-02-09T00:19:53Z</time>
   </trkpt>
   <trkpt lat="35.6404960" lon="113.5761140">
    <ele>1299.1</ele>
    <time>2015-02-09T00:19:58Z</time>
   </trkpt>
   <trkpt lat="35.6404690" lon="113.5759870">
    <ele>1301.9</ele>
    <time>2015-02-09T00:20:13Z</time>
   </trkpt>
   <trkpt lat="35.6404770" lon="113.5759370">
    <ele>1302.4</ele>
    <time>2015-02-09T00:20:18Z</time>
   </trkpt>
   <trkpt lat="35.6405110" lon="113.5758190">
    <ele>1303.4</ele>
    <time>2015-02-09T00:20:23Z</time>
   </trkpt>
   <trkpt lat="35.6404780" lon="113.5759070">
    <ele>1304.2</ele>
    <time>2015-02-09T00:21:03Z</time>
   </trkpt>
   <trkpt lat="35.6405260" lon="113.5758270">
    <ele>1305.0</ele>
    <time>2015-02-09T00:21:08Z</time>
   </trkpt>
   <trkpt lat="35.6405480" lon="113.5757530">
    <ele>1305.7</ele>
    <time>2015-02-09T00:21:13Z</time>
   </trkpt>
   <trkpt lat="35.6405860" lon="113.5756960">
    <ele>1306.3</ele>
    <time>2015-02-09T00:21:18Z</time>
   </trkpt>
   <trkpt lat="35.6406060" lon="113.5755780">
    <ele>1307.3</ele>
    <time>2015-02-09T00:21:23Z</time>
   </trkpt>
   <trkpt lat="35.6406050" lon="113.5754780">
    <ele>1308.1</ele>
    <time>2015-02-09T00:21:28Z</time>
   </trkpt>
   <trkpt lat="35.6416700" lon="113.5676070">
    <ele>1394.1</ele>
    <time>2015-02-09T00:34:56Z</time>
   </trkpt>
   <trkpt lat="35.6418530" lon="113.5676140">
    <ele>1378.6</ele>
    <time>2015-02-09T00:36:27Z</time>
   </trkpt>
   <trkpt lat="35.6419420" lon="113.5676530">
    <ele>1370.7</ele>
    <time>2015-02-09T00:36:32Z</time>
   </trkpt>
   <trkpt lat="35.6420260" lon="113.5676080">
    <ele>1362.7</ele>
    <time>2015-02-09T00:36:52Z</time>
   </trkpt>
   <trkpt lat="35.6420440" lon="113.5675550">
    <ele>1358.5</ele>
    <time>2015-02-09T00:36:57Z</time>
   </trkpt>
   <trkpt lat="35.6420380" lon="113.5674790">
    <ele>1352.8</ele>
    <time>2015-02-09T00:37:02Z</time>
   </trkpt>
   <trkpt lat="35.6420890" lon="113.5673030">
    <ele>1338.7</ele>
    <time>2015-02-09T00:37:07Z</time>
   </trkpt>
   <trkpt lat="35.6420900" lon="113.5672470">
    <ele>1336.1</ele>
    <time>2015-02-09T00:37:12Z</time>
   </trkpt>
   <trkpt lat="35.6421800" lon="113.5671970">
    <ele>1336.7</ele>
    <time>2015-02-09T00:37:17Z</time>
   </trkpt>
   <trkpt lat="35.6422080" lon="113.5671730">
    <ele>1336.9</ele>
    <time>2015-02-09T00:37:22Z</time>
   </trkpt>
   <trkpt lat="35.6422440" lon="113.5671810">
    <ele>1337.1</ele>
    <time>2015-02-09T00:37:27Z</time>
   </trkpt>
   <trkpt lat="35.6423360" lon="113.5671220">
    <ele>1337.8</ele>
    <time>2015-02-09T00:38:22Z</time>
   </trkpt>
   <trkpt lat="35.6424040" lon="113.5669660">
    <ele>1338.6</ele>
    <time>2015-02-09T00:38:27Z</time>
   </trkpt>
   <trkpt lat="35.6424860" lon="113.5668450">
    <ele>1339.4</ele>
    <time>2015-02-09T00:38:32Z</time>
   </trkpt>
   <trkpt lat="35.6426390" lon="113.5667910">
    <ele>1340.3</ele>
    <time>2015-02-09T00:38:37Z</time>
   </trkpt>
   <trkpt lat="35.6427550" lon="113.5667960">
    <ele>1341.0</ele>
    <time>2015-02-09T00:38:42Z</time>
   </trkpt>
   <trkpt lat="35.6427980" lon="113.5668130">
    <ele>1341.3</ele>
    <time>2015-02-09T00:38:47Z</time>
   </trkpt>
   <trkpt lat="35.6428300" lon="113.5667590">
    <ele>1341.6</ele>
    <time>2015-02-09T00:38:52Z</time>
   </trkpt>
   <trkpt lat="35.6428480" lon="113.5666600">
    <ele>1342.1</ele>
    <time>2015-02-09T00:38:57Z</time>
   </trkpt>
   <trkpt lat="35.6428860" lon="113.5666040">
    <ele>1342.5</ele>
    <time>2015-02-09T00:39:02Z</time>
   </trkpt>
   <trkpt lat="35.6429400" lon="113.5665720">
    <ele>1342.8</ele>
    <time>2015-02-09T00:39:07Z</time>
   </trkpt>
   <trkpt lat="35.6430060" lon="113.5665640">
    <ele>1343.2</ele>
    <time>2015-02-09T00:39:12Z</time>
   </trkpt>
   <trkpt lat="35.6430400" lon="113.5665280">
    <ele>1343.5</ele>
    <time>2015-02-09T00:39:17Z</time>
   </trkpt>
   <trkpt lat="35.6430430" lon="113.5665580">
    <ele>1343.7</ele>
    <time>2015-02-09T00:39:22Z</time>
   </trkpt>
   <trkpt lat="35.6430640" lon="113.5665270">
    <ele>1343.8</ele>
    <time>2015-02-09T00:39:27Z</time>
   </trkpt>
   <trkpt lat="35.6430470" lon="113.5665440">
    <ele>1344.0</ele>
    <time>2015-02-09T00:39:32Z</time>
   </trkpt>
   <trkpt lat="35.6430560" lon="113.5665610">
    <ele>1344.1</ele>
    <time>2015-02-09T00:39:37Z</time>
   </trkpt>
   <trkpt lat="35.6430370" lon="113.5666880">
    <ele>1344.7</ele>
    <time>2015-02-09T00:39:42Z</time>
   </trkpt>
   <trkpt lat="35.6430880" lon="113.5667670">
    <ele>1345.2</ele>
    <time>2015-02-09T00:39:47Z</time>
   </trkpt>
   <trkpt lat="35.6431100" lon="113.5668190">
    <ele>1345.5</ele>
    <time>2015-02-09T00:39:52Z</time>
   </trkpt>
   <trkpt lat="35.6433920" lon="113.5670260">
    <ele>1347.4</ele>
    <time>2015-02-09T00:40:58Z</time>
   </trkpt>
   <trkpt lat="35.6435530" lon="113.5670850">
    <ele>1348.5</ele>
    <time>2015-02-09T00:42:12Z</time>
   </trkpt>
   <trkpt lat="35.6436280" lon="113.5671370">
    <ele>1349.0</ele>
    <time>2015-02-09T00:42:17Z</time>
   </trkpt>
   <trkpt lat="35.6437130" lon="113.5672050">
    <ele>1349.6</ele>
    <time>2015-02-09T00:42:22Z</time>
   </trkpt>
   <trkpt lat="35.6438350" lon="113.5672170">
    <ele>1350.3</ele>
    <time>2015-02-09T00:42:27Z</time>
   </trkpt>
   <trkpt lat="35.6439130" lon="113.5672550">
    <ele>1350.8</ele>
    <time>2015-02-09T00:42:32Z</time>
   </trkpt>
   <trkpt lat="35.6440900" lon="113.5673860">
    <ele>1352.0</ele>
    <time>2015-02-09T00:42:47Z</time>
   </trkpt>
   <trkpt lat="35.6443410" lon="113.5675040">
    <ele>1317.8</ele>
    <time>2015-02-09T00:43:22Z</time>
   </trkpt>
   <trkpt lat="35.6444330" lon="113.5675140">
    <ele>1294.8</ele>
    <time>2015-02-09T00:43:27Z</time>
   </trkpt>
   <trkpt lat="35.6444930" lon="113.5675210">
    <ele>1296.3</ele>
    <time>2015-02-09T00:43:32Z</time>
   </trkpt>
   <trkpt lat="35.6445570" lon="113.5675610">
    <ele>1289.5</ele>
    <time>2015-02-09T00:43:37Z</time>
   </trkpt>
   <trkpt lat="35.6446970" lon="113.5676790">
    <ele>1302.3</ele>
    <time>2015-02-09T00:43:52Z</time>
   </trkpt>
   <trkpt lat="35.6447900" lon="113.5676170">
    <ele>1294.5</ele>
    <time>2015-02-09T00:43:57Z</time>
   </trkpt>
   <trkpt lat="35.6448440" lon="113.5676180">
    <ele>1293.3</ele>
    <time>2015-02-09T00:44:02Z</time>
   </trkpt>
   <trkpt lat="35.6448870" lon="113.5676580">
    <ele>1298.7</ele>
    <time>2015-02-09T00:44:07Z</time>
   </trkpt>
   <trkpt lat="35.6450250" lon="113.5677570">
    <ele>1315.2</ele>
    <time>2015-02-09T00:44:27Z</time>
   </trkpt>
   <trkpt lat="35.6450610" lon="113.5677270">
    <ele>1313.6</ele>
    <time>2015-02-09T00:44:32Z</time>
   </trkpt>
   <trkpt lat="35.6451540" lon="113.5677590">
    <ele>1310.0</ele>
    <time>2015-02-09T00:44:37Z</time>
   </trkpt>
   <trkpt lat="35.6452100" lon="113.5676960">
    <ele>1307.2</ele>
    <time>2015-02-09T00:44:42Z</time>
   </trkpt>
   <trkpt lat="35.6452680" lon="113.5676510">
    <ele>1304.7</ele>
    <time>2015-02-09T00:44:52Z</time>
   </trkpt>
   <trkpt lat="35.6453280" lon="113.5676300">
    <ele>1302.4</ele>
    <time>2015-02-09T00:44:57Z</time>
   </trkpt>
   <trkpt lat="35.6454040" lon="113.5676010">
    <ele>1299.5</ele>
    <time>2015-02-09T00:45:02Z</time>
   </trkpt>
   <trkpt lat="35.6454640" lon="113.5675760">
    <ele>1297.2</ele>
    <time>2015-02-09T00:45:07Z</time>
   </trkpt>
   <trkpt lat="35.6455400" lon="113.5675170">
    <ele>1293.9</ele>
    <time>2015-02-09T00:45:12Z</time>
   </trkpt>
   <trkpt lat="35.6455760" lon="113.5674790">
    <ele>1292.1</ele>
    <time>2015-02-09T00:45:17Z</time>
   </trkpt>
   <trkpt lat="35.6456080" lon="113.5674380">
    <ele>1290.4</ele>
    <time>2015-02-09T00:45:22Z</time>
   </trkpt>
   <trkpt lat="35.6456980" lon="113.5675120">
    <ele>1286.4</ele>
    <time>2015-02-09T00:45:27Z</time>
   </trkpt>
   <trkpt lat="35.6457280" lon="113.5674030">
    <ele>1283.0</ele>
    <time>2015-02-09T00:45:32Z</time>
   </trkpt>
   <trkpt lat="35.6466970" lon="113.5672690">
    <ele>1247.1</ele>
    <time>2015-02-09T00:48:17Z</time>
   </trkpt>
   <trkpt lat="35.6468270" lon="113.5673760">
    <ele>1241.4</ele>
    <time>2015-02-09T00:48:22Z</time>
   </trkpt>
   <trkpt lat="35.6469200" lon="113.5674850">
    <ele>1274.7</ele>
    <time>2015-02-09T00:48:27Z</time>
   </trkpt>
   <trkpt lat="35.6469820" lon="113.5675960">
    <ele>1303.2</ele>
    <time>2015-02-09T00:48:32Z</time>
   </trkpt>
   <trkpt lat="35.6470840" lon="113.5676720">
    <ele>1326.7</ele>
    <time>2015-02-09T00:48:37Z</time>
   </trkpt>
   <trkpt lat="35.6471470" lon="113.5677030">
    <ele>1337.0</ele>
    <time>2015-02-09T00:48:42Z</time>
   </trkpt>
   <trkpt lat="35.6472290" lon="113.5677700">
    <ele>1338.3</ele>
    <time>2015-02-09T00:48:47Z</time>
   </trkpt>
   <trkpt lat="35.6473040" lon="113.5678060">
    <ele>1341.6</ele>
    <time>2015-02-09T00:48:52Z</time>
   </trkpt>
   <trkpt lat="35.6473980" lon="113.5678210">
    <ele>1341.2</ele>
    <time>2015-02-09T00:48:57Z</time>
   </trkpt>
   <trkpt lat="35.6474640" lon="113.5678220">
    <ele>1336.6</ele>
    <time>2015-02-09T00:49:02Z</time>
   </trkpt>
   <trkpt lat="35.6474630" lon="113.5679200">
    <ele>1347.9</ele>
    <time>2015-02-09T00:49:07Z</time>
   </trkpt>
   <trkpt lat="35.6475400" lon="113.5679390">
    <ele>1342.0</ele>
    <time>2015-02-09T00:49:12Z</time>
   </trkpt>
   <trkpt lat="35.6478830" lon="113.5673230">
    <ele>1294.2</ele>
    <time>2015-02-09T00:54:41Z</time>
   </trkpt>
   <trkpt lat="35.6462720" lon="113.5676680">
    <ele>1303.2</ele>
    <time>2015-02-09T00:58:22Z</time>
   </trkpt>
   <trkpt lat="35.6461580" lon="113.5677760">
    <ele>1324.4</ele>
    <time>2015-02-09T00:58:27Z</time>
   </trkpt>
   <trkpt lat="35.6460900" lon="113.5678780">
    <ele>1346.5</ele>
    <time>2015-02-09T00:58:32Z</time>
   </trkpt>
   <trkpt lat="35.6461550" lon="113.5679910">
    <ele>1364.6</ele>
    <time>2015-02-09T00:58:41Z</time>
   </trkpt>
   <trkpt lat="35.6473120" lon="113.5659240">
    <ele>1197.0</ele>
    <time>2015-02-09T01:00:32Z</time>
   </trkpt>
   <trkpt lat="35.6472260" lon="113.5658700">
    <ele>1204.2</ele>
    <time>2015-02-09T01:00:37Z</time>
   </trkpt>
   <trkpt lat="35.6470510" lon="113.5658230">
    <ele>1240.5</ele>
    <time>2015-02-09T01:00:42Z</time>
   </trkpt>
   <trkpt lat="35.6470240" lon="113.5658050">
    <ele>1247.7</ele>
    <time>2015-02-09T01:00:47Z</time>
   </trkpt>
   <trkpt lat="35.6469700" lon="113.5657980">
    <ele>1251.9</ele>
    <time>2015-02-09T01:00:52Z</time>
   </trkpt>
   <trkpt lat="35.6469310" lon="113.5658040">
    <ele>1260.7</ele>
    <time>2015-02-09T01:00:57Z</time>
   </trkpt>
   <trkpt lat="35.6468980" lon="113.5657150">
    <ele>1243.7</ele>
    <time>2015-02-09T01:01:02Z</time>
   </trkpt>
   <trkpt lat="35.6468910" lon="113.5658160">
    <ele>1261.4</ele>
    <time>2015-02-09T01:01:27Z</time>
   </trkpt>
   <trkpt lat="35.6468450" lon="113.5658090">
    <ele>1260.4</ele>
    <time>2015-02-09T01:01:32Z</time>
   </trkpt>
   <trkpt lat="35.6468840" lon="113.5658430">
    <ele>1261.4</ele>
    <time>2015-02-09T01:01:37Z</time>
   </trkpt>
   <trkpt lat="35.6468830" lon="113.5658680">
    <ele>1265.0</ele>
    <time>2015-02-09T01:04:21Z</time>
   </trkpt>
   <trkpt lat="35.6468340" lon="113.5658610">
    <ele>1259.6</ele>
    <time>2015-02-09T01:04:26Z</time>
   </trkpt>
   <trkpt lat="35.6467720" lon="113.5657720">
    <ele>1254.2</ele>
    <time>2015-02-09T01:04:31Z</time>
   </trkpt>
   <trkpt lat="35.6466190" lon="113.5657570">
    <ele>1244.2</ele>
    <time>2015-02-09T01:04:37Z</time>
   </trkpt>
   <trkpt lat="35.6464840" lon="113.5656030">
    <ele>1240.1</ele>
    <time>2015-02-09T01:04:42Z</time>
   </trkpt>
   <trkpt lat="35.6463320" lon="113.5655570">
    <ele>1219.4</ele>
    <time>2015-02-09T01:04:47Z</time>
   </trkpt>
   <trkpt lat="35.6462160" lon="113.5656200">
    <ele>1213.2</ele>
    <time>2015-02-09T01:04:52Z</time>
   </trkpt>
   <trkpt lat="35.6461860" lon="113.5655570">
    <ele>1209.1</ele>
    <time>2015-02-09T01:04:57Z</time>
   </trkpt>
   <trkpt lat="35.6461360" lon="113.5654800">
    <ele>1197.5</ele>
    <time>2015-02-09T01:05:02Z</time>
   </trkpt>
   <trkpt lat="35.6461190" lon="113.5653800">
    <ele>1186.1</ele>
    <time>2015-02-09T01:05:07Z</time>
   </trkpt>
   <trkpt lat="35.6460890" lon="113.5653570">
    <ele>1178.1</ele>
    <time>2015-02-09T01:05:12Z</time>
   </trkpt>
   <trkpt lat="35.6460740" lon="113.5653280">
    <ele>1172.9</ele>
    <time>2015-02-09T01:05:17Z</time>
   </trkpt>
   <trkpt lat="35.6460250" lon="113.5654240">
    <ele>1186.5</ele>
    <time>2015-02-09T01:05:22Z</time>
   </trkpt>
   <trkpt lat="35.6459930" lon="113.5654200">
    <ele>1184.6</ele>
    <time>2015-02-09T01:05:27Z</time>
   </trkpt>
   <trkpt lat="35.6459380" lon="113.5654600">
    <ele>1188.8</ele>
    <time>2015-02-09T01:05:32Z</time>
   </trkpt>
   <trkpt lat="35.6459140" lon="113.5654400">
    <ele>1180.0</ele>
    <time>2015-02-09T01:05:37Z</time>
   </trkpt>
   <trkpt lat="35.6458380" lon="113.5654800">
    <ele>1179.6</ele>
    <time>2015-02-09T01:05:42Z</time>
   </trkpt>
   <trkpt lat="35.6458420" lon="113.5653630">
    <ele>1160.7</ele>
    <time>2015-02-09T01:05:47Z</time>
   </trkpt>
   <trkpt lat="35.6458160" lon="113.5652940">
    <ele>1151.9</ele>
    <time>2015-02-09T01:05:52Z</time>
   </trkpt>
   <trkpt lat="35.6457550" lon="113.5652610">
    <ele>1145.2</ele>
    <time>2015-02-09T01:05:57Z</time>
   </trkpt>
   <trkpt lat="35.6457360" lon="113.5652560">
    <ele>1142.5</ele>
    <time>2015-02-09T01:06:02Z</time>
   </trkpt>
   <trkpt lat="35.6457140" lon="113.5651700">
    <ele>1138.5</ele>
    <time>2015-02-09T01:06:07Z</time>
   </trkpt>
   <trkpt lat="35.6456460" lon="113.5651510">
    <ele>1134.4</ele>
    <time>2015-02-09T01:06:12Z</time>
   </trkpt>
   <trkpt lat="35.6456160" lon="113.5650780">
    <ele>1134.6</ele>
    <time>2015-02-09T01:06:17Z</time>
   </trkpt>
   <trkpt lat="35.6456360" lon="113.5650020">
    <ele>1134.5</ele>
    <time>2015-02-09T01:06:22Z</time>
   </trkpt>
   <trkpt lat="35.6456170" lon="113.5649180">
    <ele>1133.6</ele>
    <time>2015-02-09T01:06:27Z</time>
   </trkpt>
   <trkpt lat="35.6456540" lon="113.5649050">
    <ele>1136.4</ele>
    <time>2015-02-09T01:06:32Z</time>
   </trkpt>
   <trkpt lat="35.6456640" lon="113.5648860">
    <ele>1135.4</ele>
    <time>2015-02-09T01:06:37Z</time>
   </trkpt>
   <trkpt lat="35.6456290" lon="113.5648480">
    <ele>1131.5</ele>
    <time>2015-02-09T01:06:42Z</time>
   </trkpt>
   <trkpt lat="35.6456130" lon="113.5648050">
    <ele>1127.5</ele>
    <time>2015-02-09T01:06:47Z</time>
   </trkpt>
   <trkpt lat="35.6455730" lon="113.5647340">
    <ele>1123.7</ele>
    <time>2015-02-09T01:06:52Z</time>
   </trkpt>
   <trkpt lat="35.6455200" lon="113.5646830">
    <ele>1121.4</ele>
    <time>2015-02-09T01:06:57Z</time>
   </trkpt>
   <trkpt lat="35.6454730" lon="113.5647300">
    <ele>1109.6</ele>
    <time>2015-02-09T01:07:02Z</time>
   </trkpt>
   <trkpt lat="35.6454110" lon="113.5647030">
    <ele>1105.5</ele>
    <time>2015-02-09T01:07:07Z</time>
   </trkpt>
   <trkpt lat="35.6454940" lon="113.5645690">
    <ele>1119.6</ele>
    <time>2015-02-09T01:07:12Z</time>
   </trkpt>
   <trkpt lat="35.6454460" lon="113.5645370">
    <ele>1116.2</ele>
    <time>2015-02-09T01:07:17Z</time>
   </trkpt>
   <trkpt lat="35.6454450" lon="113.5644930">
    <ele>1116.5</ele>
    <time>2015-02-09T01:07:22Z</time>
   </trkpt>
   <trkpt lat="35.6454240" lon="113.5644940">
    <ele>1112.1</ele>
    <time>2015-02-09T01:07:27Z</time>
   </trkpt>
   <trkpt lat="35.6454140" lon="113.5644700">
    <ele>1112.2</ele>
    <time>2015-02-09T01:07:32Z</time>
   </trkpt>
   <trkpt lat="35.6454000" lon="113.5645130">
    <ele>1107.7</ele>
    <time>2015-02-09T01:07:37Z</time>
   </trkpt>
   <trkpt lat="35.6453230" lon="113.5644540">
    <ele>1100.3</ele>
    <time>2015-02-09T01:07:57Z</time>
   </trkpt>
   <trkpt lat="35.6453300" lon="113.5643340">
    <ele>1100.8</ele>
    <time>2015-02-09T01:08:02Z</time>
   </trkpt>
   <trkpt lat="35.6452870" lon="113.5643030">
    <ele>1098.4</ele>
    <time>2015-02-09T01:08:07Z</time>
   </trkpt>
   <trkpt lat="35.6452640" lon="113.5641690">
    <ele>1100.4</ele>
    <time>2015-02-09T01:09:27Z</time>
   </trkpt>
   <trkpt lat="35.6452880" lon="113.5639730">
    <ele>1109.9</ele>
    <time>2015-02-09T01:09:32Z</time>
   </trkpt>
   <trkpt lat="35.6452490" lon="113.5639280">
    <ele>1109.9</ele>
    <time>2015-02-09T01:09:37Z</time>
   </trkpt>
   <trkpt lat="35.6451870" lon="113.5639140">
    <ele>1106.9</ele>
    <time>2015-02-09T01:09:42Z</time>
   </trkpt>
   <trkpt lat="35.6451240" lon="113.5639070">
    <ele>1101.9</ele>
    <time>2015-02-09T01:09:47Z</time>
   </trkpt>
   <trkpt lat="35.6449340" lon="113.5639430">
    <ele>1088.6</ele>
    <time>2015-02-09T01:10:47Z</time>
   </trkpt>
   <trkpt lat="35.6447880" lon="113.5640160">
    <ele>1076.8</ele>
    <time>2015-02-09T01:10:52Z</time>
   </trkpt>
   <trkpt lat="35.6446170" lon="113.5640590">
    <ele>1058.3</ele>
    <time>2015-02-09T01:10:57Z</time>
   </trkpt>
   <trkpt lat="35.6444830" lon="113.5640720">
    <ele>1044.7</ele>
    <time>2015-02-09T01:11:02Z</time>
   </trkpt>
   <trkpt lat="35.6443640" lon="113.5640710">
    <ele>1037.2</ele>
    <time>2015-02-09T01:11:07Z</time>
   </trkpt>
   <trkpt lat="35.6442940" lon="113.5640860">
    <ele>1033.3</ele>
    <time>2015-02-09T01:11:12Z</time>
   </trkpt>
   <trkpt lat="35.6442200" lon="113.5640960">
    <ele>1030.3</ele>
    <time>2015-02-09T01:11:17Z</time>
   </trkpt>
   <trkpt lat="35.6441500" lon="113.5641400">
    <ele>1028.8</ele>
    <time>2015-02-09T01:11:22Z</time>
   </trkpt>
   <trkpt lat="35.6440980" lon="113.5641750">
    <ele>1029.4</ele>
    <time>2015-02-09T01:11:27Z</time>
   </trkpt>
   <trkpt lat="35.6440640" lon="113.5641970">
    <ele>1029.8</ele>
    <time>2015-02-09T01:11:32Z</time>
   </trkpt>
   <trkpt lat="35.6440200" lon="113.5641870">
    <ele>1030.4</ele>
    <time>2015-02-09T01:11:37Z</time>
   </trkpt>
   <trkpt lat="35.6439840" lon="113.5641870">
    <ele>1031.0</ele>
    <time>2015-02-09T01:11:42Z</time>
   </trkpt>
   <trkpt lat="35.6439560" lon="113.5642020">
    <ele>1031.7</ele>
    <time>2015-02-09T01:11:47Z</time>
   </trkpt>
   <trkpt lat="35.6438950" lon="113.5641800">
    <ele>1032.9</ele>
    <time>2015-02-09T01:11:52Z</time>
   </trkpt>
   <trkpt lat="35.6438930" lon="113.5641710">
    <ele>1030.4</ele>
    <time>2015-02-09T01:11:57Z</time>
   </trkpt>
   <trkpt lat="35.6438660" lon="113.5641260">
    <ele>1028.4</ele>
    <time>2015-02-09T01:12:02Z</time>
   </trkpt>
   <trkpt lat="35.6438360" lon="113.5641190">
    <ele>1028.4</ele>
    <time>2015-02-09T01:12:07Z</time>
   </trkpt>
   <trkpt lat="35.6438500" lon="113.5642020">
    <ele>1033.3</ele>
    <time>2015-02-09T01:12:12Z</time>
   </trkpt>
   <trkpt lat="35.6438690" lon="113.5643100">
    <ele>1041.3</ele>
    <time>2015-02-09T01:12:17Z</time>
   </trkpt>
   <trkpt lat="35.6437920" lon="113.5643770">
    <ele>1039.4</ele>
    <time>2015-02-09T01:12:22Z</time>
   </trkpt>
   <trkpt lat="35.6438760" lon="113.5642920">
    <ele>1037.2</ele>
    <time>2015-02-09T01:12:27Z</time>
   </trkpt>
   <trkpt lat="35.6437960" lon="113.5643840">
    <ele>1035.0</ele>
    <time>2015-02-09T01:12:37Z</time>
   </trkpt>
   <trkpt lat="35.6437440" lon="113.5644010">
    <ele>1033.9</ele>
    <time>2015-02-09T01:12:42Z</time>
   </trkpt>
   <trkpt lat="35.6437190" lon="113.5643860">
    <ele>1033.4</ele>
    <time>2015-02-09T01:12:47Z</time>
   </trkpt>
   <trkpt lat="35.6437130" lon="113.5642940">
    <ele>1031.9</ele>
    <time>2015-02-09T01:13:02Z</time>
   </trkpt>
   <trkpt lat="35.6436910" lon="113.5642470">
    <ele>1031.0</ele>
    <time>2015-02-09T01:13:07Z</time>
   </trkpt>
   <trkpt lat="35.6437380" lon="113.5642250">
    <ele>1030.0</ele>
    <time>2015-02-09T01:13:12Z</time>
   </trkpt>
   <trkpt lat="35.6437410" lon="113.5642210">
    <ele>1029.9</ele>
    <time>2015-02-09T01:13:17Z</time>
   </trkpt>
   <trkpt lat="35.6437430" lon="113.5642080">
    <ele>1029.7</ele>
    <time>2015-02-09T01:13:22Z</time>
   </trkpt>
   <trkpt lat="35.6437530" lon="113.5641040">
    <ele>1027.9</ele>
    <time>2015-02-09T01:13:27Z</time>
   </trkpt>
   <trkpt lat="35.6437500" lon="113.5641620">
    <ele>1027.0</ele>
    <time>2015-02-09T01:13:44Z</time>
   </trkpt>
   <trkpt lat="35.6436800" lon="113.5641600">
    <ele>1025.6</ele>
    <time>2015-02-09T01:13:54Z</time>
   </trkpt>
   <trkpt lat="35.6436920" lon="113.5641870">
    <ele>1025.1</ele>
    <time>2015-02-09T01:13:59Z</time>
   </trkpt>
   <trkpt lat="35.6436180" lon="113.5641680">
    <ele>1023.6</ele>
    <time>2015-02-09T01:14:04Z</time>
   </trkpt>
   <trkpt lat="35.6436270" lon="113.5641540">
    <ele>1023.3</ele>
    <time>2015-02-09T01:14:09Z</time>
   </trkpt>
   <trkpt lat="35.6436070" lon="113.5640560">
    <ele>1021.6</ele>
    <time>2015-02-09T01:14:14Z</time>
   </trkpt>
   <trkpt lat="35.6435780" lon="113.5639470">
    <ele>1019.7</ele>
    <time>2015-02-09T01:14:19Z</time>
   </trkpt>
   <trkpt lat="35.6435400" lon="113.5638880">
    <ele>1018.5</ele>
    <time>2015-02-09T01:14:24Z</time>
   </trkpt>
   <trkpt lat="35.6435000" lon="113.5638290">
    <ele>1017.3</ele>
    <time>2015-02-09T01:14:29Z</time>
   </trkpt>
   <trkpt lat="35.6434430" lon="113.5637740">
    <ele>1016.8</ele>
    <time>2015-02-09T01:14:34Z</time>
   </trkpt>
   <trkpt lat="35.6433840" lon="113.5637360">
    <ele>1016.7</ele>
    <time>2015-02-09T01:14:39Z</time>
   </trkpt>
   <trkpt lat="35.6433430" lon="113.5636070">
    <ele>1016.1</ele>
    <time>2015-02-09T01:14:44Z</time>
   </trkpt>
   <trkpt lat="35.6432350" lon="113.5635410">
    <ele>1014.7</ele>
    <time>2015-02-09T01:15:05Z</time>
   </trkpt>
   <trkpt lat="35.6432770" lon="113.5635040">
    <ele>1014.0</ele>
    <time>2015-02-09T01:15:10Z</time>
   </trkpt>
   <trkpt lat="35.6432650" lon="113.5635310">
    <ele>1013.6</ele>
    <time>2015-02-09T01:15:17Z</time>
   </trkpt>
   <trkpt lat="35.6432720" lon="113.5635010">
    <ele>1013.2</ele>
    <time>2015-02-09T01:15:32Z</time>
   </trkpt>
   <trkpt lat="35.6432440" lon="113.5634360">
    <ele>1012.3</ele>
    <time>2015-02-09T01:15:37Z</time>
   </trkpt>
   <trkpt lat="35.6432300" lon="113.5633850">
    <ele>1011.6</ele>
    <time>2015-02-09T01:15:42Z</time>
   </trkpt>
   <trkpt lat="35.6432330" lon="113.5631700">
    <ele>1009.3</ele>
    <time>2015-02-09T01:16:07Z</time>
   </trkpt>
   <trkpt lat="35.6432040" lon="113.5630690">
    <ele>1008.3</ele>
    <time>2015-02-09T01:16:12Z</time>
   </trkpt>
   <trkpt lat="35.6432260" lon="113.5629750">
    <ele>1007.5</ele>
    <time>2015-02-09T01:16:17Z</time>
   </trkpt>
   <trkpt lat="35.6432250" lon="113.5628980">
    <ele>1006.9</ele>
    <time>2015-02-09T01:16:22Z</time>
   </trkpt>
   <trkpt lat="35.6431600" lon="113.5628540">
    <ele>1006.0</ele>
    <time>2015-02-09T01:16:27Z</time>
   </trkpt>
   <trkpt lat="35.6430890" lon="113.5628210">
    <ele>1005.1</ele>
    <time>2015-02-09T01:16:32Z</time>
   </trkpt>
   <trkpt lat="35.6430280" lon="113.5627960">
    <ele>1004.4</ele>
    <time>2015-02-09T01:16:37Z</time>
   </trkpt>
   <trkpt lat="35.6429600" lon="113.5627720">
    <ele>1003.6</ele>
    <time>2015-02-09T01:16:42Z</time>
   </trkpt>
   <trkpt lat="35.6429480" lon="113.5627500">
    <ele>1003.3</ele>
    <time>2015-02-09T01:16:47Z</time>
   </trkpt>
   <trkpt lat="35.6428960" lon="113.5627520">
    <ele>1002.7</ele>
    <time>2015-02-09T01:16:52Z</time>
   </trkpt>
   <trkpt lat="35.6427710" lon="113.5627840">
    <ele>1001.2</ele>
    <time>2015-02-09T01:16:57Z</time>
   </trkpt>
   <trkpt lat="35.6426940" lon="113.5628170">
    <ele>1000.2</ele>
    <time>2015-02-09T01:17:02Z</time>
   </trkpt>
   <trkpt lat="35.6426400" lon="113.5628060">
    <ele>999.4</ele>
    <time>2015-02-09T01:17:07Z</time>
   </trkpt>
   <trkpt lat="35.6426280" lon="113.5628010">
    <ele>999.2</ele>
    <time>2015-02-09T01:17:12Z</time>
   </trkpt>
   <trkpt lat="35.6426140" lon="113.5627550">
    <ele>998.6</ele>
    <time>2015-02-09T01:17:32Z</time>
   </trkpt>
   <trkpt lat="35.6425930" lon="113.5627580">
    <ele>998.3</ele>
    <time>2015-02-09T01:17:37Z</time>
   </trkpt>
   <trkpt lat="35.6425530" lon="113.5627180">
    <ele>997.4</ele>
    <time>2015-02-09T01:17:42Z</time>
   </trkpt>
   <trkpt lat="35.6425230" lon="113.5626540">
    <ele>996.5</ele>
    <time>2015-02-09T01:17:47Z</time>
   </trkpt>
   <trkpt lat="35.6424840" lon="113.5625760">
    <ele>995.3</ele>
    <time>2015-02-09T01:17:52Z</time>
   </trkpt>
   <trkpt lat="35.6424550" lon="113.5624960">
    <ele>994.3</ele>
    <time>2015-02-09T01:17:57Z</time>
   </trkpt>
   <trkpt lat="35.6424200" lon="113.5624300">
    <ele>993.4</ele>
    <time>2015-02-09T01:18:07Z</time>
   </trkpt>
   <trkpt lat="35.6423810" lon="113.5623810">
    <ele>992.7</ele>
    <time>2015-02-09T01:18:12Z</time>
   </trkpt>
   <trkpt lat="35.6423450" lon="113.5623050">
    <ele>991.9</ele>
    <time>2015-02-09T01:18:17Z</time>
   </trkpt>
   <trkpt lat="35.6423640" lon="113.5622190">
    <ele>991.0</ele>
    <time>2015-02-09T01:18:22Z</time>
   </trkpt>
   <trkpt lat="35.6423770" lon="113.5621510">
    <ele>990.4</ele>
    <time>2015-02-09T01:18:27Z</time>
   </trkpt>
   <trkpt lat="35.6423760" lon="113.5621070">
    <ele>990.0</ele>
    <time>2015-02-09T01:18:32Z</time>
   </trkpt>
   <trkpt lat="35.6423550" lon="113.5620770">
    <ele>989.7</ele>
    <time>2015-02-09T01:18:52Z</time>
   </trkpt>
   <trkpt lat="35.6423260" lon="113.5620360">
    <ele>989.2</ele>
    <time>2015-02-09T01:18:57Z</time>
   </trkpt>
   <trkpt lat="35.6422330" lon="113.5619230">
    <ele>987.7</ele>
    <time>2015-02-09T01:19:02Z</time>
   </trkpt>
   <trkpt lat="35.6421480" lon="113.5618970">
    <ele>986.6</ele>
    <time>2015-02-09T01:19:07Z</time>
   </trkpt>
   <trkpt lat="35.6421010" lon="113.5618770">
    <ele>986.1</ele>
    <time>2015-02-09T01:19:12Z</time>
   </trkpt>
   <trkpt lat="35.6420770" lon="113.5618720">
    <ele>985.9</ele>
    <time>2015-02-09T01:19:17Z</time>
   </trkpt>
   <trkpt lat="35.6420250" lon="113.5618830">
    <ele>985.5</ele>
    <time>2015-02-09T01:19:22Z</time>
   </trkpt>
   <trkpt lat="35.6419740" lon="113.5619050">
    <ele>985.2</ele>
    <time>2015-02-09T01:19:27Z</time>
   </trkpt>
   <trkpt lat="35.6419700" lon="113.5618330">
    <ele>984.7</ele>
    <time>2015-02-09T01:19:32Z</time>
   </trkpt>
   <trkpt lat="35.6419480" lon="113.5618030">
    <ele>984.5</ele>
    <time>2015-02-09T01:19:37Z</time>
   </trkpt>
   <trkpt lat="35.6418800" lon="113.5617500">
    <ele>983.7</ele>
    <time>2015-02-09T01:19:42Z</time>
   </trkpt>
   <trkpt lat="35.6418130" lon="113.5617600">
    <ele>982.9</ele>
    <time>2015-02-09T01:19:47Z</time>
   </trkpt>
   <trkpt lat="35.6416960" lon="113.5617420">
    <ele>981.5</ele>
    <time>2015-02-09T01:19:52Z</time>
   </trkpt>
   <trkpt lat="35.6416330" lon="113.5617600">
    <ele>980.9</ele>
    <time>2015-02-09T01:19:57Z</time>
   </trkpt>
   <trkpt lat="35.6416810" lon="113.5617260">
    <ele>980.3</ele>
    <time>2015-02-09T01:20:02Z</time>
   </trkpt>
   <trkpt lat="35.6416020" lon="113.5617740">
    <ele>979.5</ele>
    <time>2015-02-09T01:20:07Z</time>
   </trkpt>
   <trkpt lat="35.6415520" lon="113.5618090">
    <ele>979.0</ele>
    <time>2015-02-09T01:20:12Z</time>
   </trkpt>
   <trkpt lat="35.6414890" lon="113.5618270">
    <ele>978.4</ele>
    <time>2015-02-09T01:20:17Z</time>
   </trkpt>
   <trkpt lat="35.6414360" lon="113.5618490">
    <ele>977.8</ele>
    <time>2015-02-09T01:20:22Z</time>
   </trkpt>
   <trkpt lat="35.6413810" lon="113.5617790">
    <ele>977.8</ele>
    <time>2015-02-09T01:20:27Z</time>
   </trkpt>
   <trkpt lat="35.6413250" lon="113.5617640">
    <ele>977.7</ele>
    <time>2015-02-09T01:20:32Z</time>
   </trkpt>
   <trkpt lat="35.6413050" lon="113.5616420">
    <ele>977.4</ele>
    <time>2015-02-09T01:21:07Z</time>
   </trkpt>
   <trkpt lat="35.6413030" lon="113.5615430">
    <ele>977.2</ele>
    <time>2015-02-09T01:21:12Z</time>
   </trkpt>
   <trkpt lat="35.6412790" lon="113.5614670">
    <ele>976.0</ele>
    <time>2015-02-09T01:21:17Z</time>
   </trkpt>
   <trkpt lat="35.6412400" lon="113.5614350">
    <ele>975.5</ele>
    <time>2015-02-09T01:21:22Z</time>
   </trkpt>
   <trkpt lat="35.6412120" lon="113.5614160">
    <ele>975.2</ele>
    <time>2015-02-09T01:21:27Z</time>
   </trkpt>
   <trkpt lat="35.6411620" lon="113.5613610">
    <ele>974.6</ele>
    <time>2015-02-09T01:21:32Z</time>
   </trkpt>
   <trkpt lat="35.6411060" lon="113.5613830">
    <ele>974.1</ele>
    <time>2015-02-09T01:21:37Z</time>
   </trkpt>
   <trkpt lat="35.6410470" lon="113.5613780">
    <ele>973.6</ele>
    <time>2015-02-09T01:21:42Z</time>
   </trkpt>
   <trkpt lat="35.6410540" lon="113.5614010">
    <ele>973.5</ele>
    <time>2015-02-09T01:21:47Z</time>
   </trkpt>
   <trkpt lat="35.6410020" lon="113.5613680">
    <ele>973.0</ele>
    <time>2015-02-09T01:21:52Z</time>
   </trkpt>
   <trkpt lat="35.6409610" lon="113.5613180">
    <ele>972.5</ele>
    <time>2015-02-09T01:21:57Z</time>
   </trkpt>
   <trkpt lat="35.6409160" lon="113.5612910">
    <ele>972.1</ele>
    <time>2015-02-09T01:22:02Z</time>
   </trkpt>
   <trkpt lat="35.6409220" lon="113.5612750">
    <ele>972.0</ele>
    <time>2015-02-09T01:22:07Z</time>
   </trkpt>
   <trkpt lat="35.6408660" lon="113.5612300">
    <ele>971.2</ele>
    <time>2015-02-09T01:22:12Z</time>
   </trkpt>
   <trkpt lat="35.6408450" lon="113.5612190">
    <ele>971.0</ele>
    <time>2015-02-09T01:22:17Z</time>
   </trkpt>
   <trkpt lat="35.6407520" lon="113.5611500">
    <ele>969.6</ele>
    <time>2015-02-09T01:22:22Z</time>
   </trkpt>
   <trkpt lat="35.6407200" lon="113.5611610">
    <ele>969.2</ele>
    <time>2015-02-09T01:22:27Z</time>
   </trkpt>
   <trkpt lat="35.6406780" lon="113.5611330">
    <ele>968.6</ele>
    <time>2015-02-09T01:22:32Z</time>
   </trkpt>
   <trkpt lat="35.6406620" lon="113.5610980">
    <ele>968.3</ele>
    <time>2015-02-09T01:22:37Z</time>
   </trkpt>
   <trkpt lat="35.6406170" lon="113.5610660">
    <ele>967.7</ele>
    <time>2015-02-09T01:22:42Z</time>
   </trkpt>
   <trkpt lat="35.6405720" lon="113.5610310">
    <ele>967.1</ele>
    <time>2015-02-09T01:22:47Z</time>
   </trkpt>
   <trkpt lat="35.6405840" lon="113.5610340">
    <ele>967.0</ele>
    <time>2015-02-09T01:22:52Z</time>
   </trkpt>
   <trkpt lat="35.6405100" lon="113.5609800">
    <ele>966.2</ele>
    <time>2015-02-09T01:22:57Z</time>
   </trkpt>
   <trkpt lat="35.6405090" lon="113.5609510">
    <ele>965.9</ele>
    <time>2015-02-09T01:23:02Z</time>
   </trkpt>
   <trkpt lat="35.6404640" lon="113.5608870">
    <ele>965.3</ele>
    <time>2015-02-09T01:23:07Z</time>
   </trkpt>
   <trkpt lat="35.6404050" lon="113.5608600">
    <ele>964.7</ele>
    <time>2015-02-09T01:23:12Z</time>
   </trkpt>
   <trkpt lat="35.6403850" lon="113.5608070">
    <ele>964.2</ele>
    <time>2015-02-09T01:23:17Z</time>
   </trkpt>
   <trkpt lat="35.6403450" lon="113.5607520">
    <ele>963.6</ele>
    <time>2015-02-09T01:23:22Z</time>
   </trkpt>
   <trkpt lat="35.6403050" lon="113.5607090">
    <ele>963.0</ele>
    <time>2015-02-09T01:23:27Z</time>
   </trkpt>
   <trkpt lat="35.6402870" lon="113.5607150">
    <ele>962.8</ele>
    <time>2015-02-09T01:23:32Z</time>
   </trkpt>
   <trkpt lat="35.6402600" lon="113.5607000">
    <ele>962.5</ele>
    <time>2015-02-09T01:23:37Z</time>
   </trkpt>
   <trkpt lat="35.6402480" lon="113.5606720">
    <ele>962.2</ele>
    <time>2015-02-09T01:23:42Z</time>
   </trkpt>
   <trkpt lat="35.6402320" lon="113.5606820">
    <ele>962.1</ele>
    <time>2015-02-09T01:23:47Z</time>
   </trkpt>
   <trkpt lat="35.6401900" lon="113.5606120">
    <ele>961.3</ele>
    <time>2015-02-09T01:23:52Z</time>
   </trkpt>
   <trkpt lat="35.6401280" lon="113.5605540">
    <ele>960.5</ele>
    <time>2015-02-09T01:23:57Z</time>
   </trkpt>
   <trkpt lat="35.6400790" lon="113.5605470">
    <ele>960.0</ele>
    <time>2015-02-09T01:24:02Z</time>
   </trkpt>
   <trkpt lat="35.6400200" lon="113.5605240">
    <ele>959.4</ele>
    <time>2015-02-09T01:24:07Z</time>
   </trkpt>
   <trkpt lat="35.6399890" lon="113.5604760">
    <ele>958.9</ele>
    <time>2015-02-09T01:24:12Z</time>
   </trkpt>
   <trkpt lat="35.6399570" lon="113.5604320">
    <ele>958.4</ele>
    <time>2015-02-09T01:24:17Z</time>
   </trkpt>
   <trkpt lat="35.6399210" lon="113.5603960">
    <ele>957.9</ele>
    <time>2015-02-09T01:24:22Z</time>
   </trkpt>
   <trkpt lat="35.6398650" lon="113.5603800">
    <ele>957.3</ele>
    <time>2015-02-09T01:24:27Z</time>
   </trkpt>
   <trkpt lat="35.6398300" lon="113.5603730">
    <ele>956.8</ele>
    <time>2015-02-09T01:24:32Z</time>
   </trkpt>
   <trkpt lat="35.6397800" lon="113.5603560">
    <ele>956.1</ele>
    <time>2015-02-09T01:24:37Z</time>
   </trkpt>
   <trkpt lat="35.6397300" lon="113.5603340">
    <ele>955.2</ele>
    <time>2015-02-09T01:24:42Z</time>
   </trkpt>
   <trkpt lat="35.6396900" lon="113.5603090">
    <ele>954.4</ele>
    <time>2015-02-09T01:24:47Z</time>
   </trkpt>
   <trkpt lat="35.6396560" lon="113.5602790">
    <ele>953.7</ele>
    <time>2015-02-09T01:24:52Z</time>
   </trkpt>
   <trkpt lat="35.6396180" lon="113.5602380">
    <ele>952.8</ele>
    <time>2015-02-09T01:24:57Z</time>
   </trkpt>
   <trkpt lat="35.6395860" lon="113.5601820">
    <ele>951.8</ele>
    <time>2015-02-09T01:25:02Z</time>
   </trkpt>
   <trkpt lat="35.6395590" lon="113.5601360">
    <ele>951.0</ele>
    <time>2015-02-09T01:25:07Z</time>
   </trkpt>
   <trkpt lat="35.6395330" lon="113.5600870">
    <ele>950.2</ele>
    <time>2015-02-09T01:25:12Z</time>
   </trkpt>
   <trkpt lat="35.6394880" lon="113.5600420">
    <ele>949.3</ele>
    <time>2015-02-09T01:25:17Z</time>
   </trkpt>
   <trkpt lat="35.6394450" lon="113.5600130">
    <ele>948.6</ele>
    <time>2015-02-09T01:25:22Z</time>
   </trkpt>
   <trkpt lat="35.6394060" lon="113.5599780">
    <ele>947.9</ele>
    <time>2015-02-09T01:25:27Z</time>
   </trkpt>
   <trkpt lat="35.6393780" lon="113.5599490">
    <ele>947.4</ele>
    <time>2015-02-09T01:25:32Z</time>
   </trkpt>
   <trkpt lat="35.6393360" lon="113.5599130">
    <ele>946.8</ele>
    <time>2015-02-09T01:25:37Z</time>
   </trkpt>
   <trkpt lat="35.6392900" lon="113.5598800">
    <ele>946.1</ele>
    <time>2015-02-09T01:25:42Z</time>
   </trkpt>
   <trkpt lat="35.6392470" lon="113.5598460">
    <ele>945.6</ele>
    <time>2015-02-09T01:25:47Z</time>
   </trkpt>
   <trkpt lat="35.6392010" lon="113.5598150">
    <ele>945.1</ele>
    <time>2015-02-09T01:25:52Z</time>
   </trkpt>
   <trkpt lat="35.6391380" lon="113.5597600">
    <ele>944.2</ele>
    <time>2015-02-09T01:25:58Z</time>
   </trkpt>
   <trkpt lat="35.6391060" lon="113.5597290">
    <ele>943.8</ele>
    <time>2015-02-09T01:26:03Z</time>
   </trkpt>
   <trkpt lat="35.6390340" lon="113.5596910">
    <ele>942.9</ele>
    <time>2015-02-09T01:26:08Z</time>
   </trkpt>
   <trkpt lat="35.6390400" lon="113.5596590">
    <ele>942.6</ele>
    <time>2015-02-09T01:26:13Z</time>
   </trkpt>
   <trkpt lat="35.6389720" lon="113.5596400">
    <ele>941.8</ele>
    <time>2015-02-09T01:26:18Z</time>
   </trkpt>
   <trkpt lat="35.6388900" lon="113.5596210">
    <ele>940.7</ele>
    <time>2015-02-09T01:26:23Z</time>
   </trkpt>
   <trkpt lat="35.6388700" lon="113.5595650">
    <ele>940.1</ele>
    <time>2015-02-09T01:26:28Z</time>
   </trkpt>
   <trkpt lat="35.6388580" lon="113.5595130">
    <ele>939.6</ele>
    <time>2015-02-09T01:26:34Z</time>
   </trkpt>
   <trkpt lat="35.6388180" lon="113.5594740">
    <ele>939.1</ele>
    <time>2015-02-09T01:26:39Z</time>
   </trkpt>
   <trkpt lat="35.6387660" lon="113.5594210">
    <ele>938.4</ele>
    <time>2015-02-09T01:26:44Z</time>
   </trkpt>
   <trkpt lat="35.6387150" lon="113.5593770">
    <ele>937.7</ele>
    <time>2015-02-09T01:26:49Z</time>
   </trkpt>
   <trkpt lat="35.6386820" lon="113.5593280">
    <ele>937.1</ele>
    <time>2015-02-09T01:26:54Z</time>
   </trkpt>
   <trkpt lat="35.6386540" lon="113.5592640">
    <ele>936.4</ele>
    <time>2015-02-09T01:26:59Z</time>
   </trkpt>
   <trkpt lat="35.6386230" lon="113.5592100">
    <ele>935.8</ele>
    <time>2015-02-09T01:27:04Z</time>
   </trkpt>
   <trkpt lat="35.6385860" lon="113.5591610">
    <ele>935.1</ele>
    <time>2015-02-09T01:27:09Z</time>
   </trkpt>
   <trkpt lat="35.6385600" lon="113.5591050">
    <ele>934.4</ele>
    <time>2015-02-09T01:27:14Z</time>
   </trkpt>
   <trkpt lat="35.6385180" lon="113.5590590">
    <ele>933.5</ele>
    <time>2015-02-09T01:27:19Z</time>
   </trkpt>
   <trkpt lat="35.6384880" lon="113.5590190">
    <ele>932.8</ele>
    <time>2015-02-09T01:27:24Z</time>
   </trkpt>
   <trkpt lat="35.6384630" lon="113.5589690">
    <ele>932.1</ele>
    <time>2015-02-09T01:27:29Z</time>
   </trkpt>
   <trkpt lat="35.6384270" lon="113.5589110">
    <ele>931.1</ele>
    <time>2015-02-09T01:27:34Z</time>
   </trkpt>
   <trkpt lat="35.6384230" lon="113.5588560">
    <ele>930.3</ele>
    <time>2015-02-09T01:27:39Z</time>
   </trkpt>
   <trkpt lat="35.6384050" lon="113.5588000">
    <ele>929.5</ele>
    <time>2015-02-09T01:27:44Z</time>
   </trkpt>
   <trkpt lat="35.6384040" lon="113.5587430">
    <ele>928.7</ele>
    <time>2015-02-09T01:27:49Z</time>
   </trkpt>
   <trkpt lat="35.6383870" lon="113.5586850">
    <ele>928.0</ele>
    <time>2015-02-09T01:27:54Z</time>
   </trkpt>
   <trkpt lat="35.6383650" lon="113.5586350">
    <ele>927.3</ele>
    <time>2015-02-09T01:27:59Z</time>
   </trkpt>
   <trkpt lat="35.6383650" lon="113.5585650">
    <ele>926.6</ele>
    <time>2015-02-09T01:28:04Z</time>
   </trkpt>
   <trkpt lat="35.6383460" lon="113.5584920">
    <ele>926.0</ele>
    <time>2015-02-09T01:28:09Z</time>
   </trkpt>
   <trkpt lat="35.6383290" lon="113.5584200">
    <ele>925.5</ele>
    <time>2015-02-09T01:28:14Z</time>
   </trkpt>
   <trkpt lat="35.6382810" lon="113.5583830">
    <ele>925.2</ele>
    <time>2015-02-09T01:28:19Z</time>
   </trkpt>
   <trkpt lat="35.6382490" lon="113.5583390">
    <ele>925.0</ele>
    <time>2015-02-09T01:28:24Z</time>
   </trkpt>
   <trkpt lat="35.6381980" lon="113.5583180">
    <ele>924.9</ele>
    <time>2015-02-09T01:28:29Z</time>
   </trkpt>
   <trkpt lat="35.6381400" lon="113.5583120">
    <ele>924.7</ele>
    <time>2015-02-09T01:28:34Z</time>
   </trkpt>
   <trkpt lat="35.6380920" lon="113.5583050">
    <ele>924.6</ele>
    <time>2015-02-09T01:28:39Z</time>
   </trkpt>
   <trkpt lat="35.6380910" lon="113.5583240">
    <ele>924.5</ele>
    <time>2015-02-09T01:28:44Z</time>
   </trkpt>
   <trkpt lat="35.6380640" lon="113.5582830">
    <ele>924.4</ele>
    <time>2015-02-09T01:28:49Z</time>
   </trkpt>
   <trkpt lat="35.6380480" lon="113.5582370">
    <ele>924.2</ele>
    <time>2015-02-09T01:28:54Z</time>
   </trkpt>
   <trkpt lat="35.6380300" lon="113.5581850">
    <ele>924.1</ele>
    <time>2015-02-09T01:28:59Z</time>
   </trkpt>
   <trkpt lat="35.6379610" lon="113.5580990">
    <ele>923.7</ele>
    <time>2015-02-09T01:29:04Z</time>
   </trkpt>
   <trkpt lat="35.6379220" lon="113.5580460">
    <ele>923.5</ele>
    <time>2015-02-09T01:29:09Z</time>
   </trkpt>
   <trkpt lat="35.6378460" lon="113.5579680">
    <ele>923.0</ele>
    <time>2015-02-09T01:29:14Z</time>
   </trkpt>
   <trkpt lat="35.6377960" lon="113.5578990">
    <ele>922.5</ele>
    <time>2015-02-09T01:29:19Z</time>
   </trkpt>
   <trkpt lat="35.6377680" lon="113.5578810">
    <ele>922.2</ele>
    <time>2015-02-09T01:29:24Z</time>
   </trkpt>
   <trkpt lat="35.6377520" lon="113.5578540">
    <ele>921.9</ele>
    <time>2015-02-09T01:29:29Z</time>
   </trkpt>
   <trkpt lat="35.6377140" lon="113.5577880">
    <ele>921.2</ele>
    <time>2015-02-09T01:29:34Z</time>
   </trkpt>
   <trkpt lat="35.6376670" lon="113.5577420">
    <ele>920.5</ele>
    <time>2015-02-09T01:29:39Z</time>
   </trkpt>
   <trkpt lat="35.6376330" lon="113.5576990">
    <ele>919.9</ele>
    <time>2015-02-09T01:29:44Z</time>
   </trkpt>
   <trkpt lat="35.6376010" lon="113.5576630">
    <ele>919.3</ele>
    <time>2015-02-09T01:29:49Z</time>
   </trkpt>
   <trkpt lat="35.6376550" lon="113.5577050">
    <ele>918.5</ele>
    <time>2015-02-09T01:29:54Z</time>
   </trkpt>
   <trkpt lat="35.6376440" lon="113.5577080">
    <ele>918.3</ele>
    <time>2015-02-09T01:29:59Z</time>
   </trkpt>
   <trkpt lat="35.6375820" lon="113.5576600">
    <ele>917.4</ele>
    <time>2015-02-09T01:30:04Z</time>
   </trkpt>
   <trkpt lat="35.6375310" lon="113.5576360">
    <ele>916.6</ele>
    <time>2015-02-09T01:30:09Z</time>
   </trkpt>
   <trkpt lat="35.6374990" lon="113.5576090">
    <ele>916.1</ele>
    <time>2015-02-09T01:30:14Z</time>
   </trkpt>
   <trkpt lat="35.6374500" lon="113.5575810">
    <ele>915.4</ele>
    <time>2015-02-09T01:30:19Z</time>
   </trkpt>
   <trkpt lat="35.6374100" lon="113.5575100">
    <ele>914.4</ele>
    <time>2015-02-09T01:30:24Z</time>
   </trkpt>
   <trkpt lat="35.6373710" lon="113.5574350">
    <ele>913.4</ele>
    <time>2015-02-09T01:30:29Z</time>
   </trkpt>
   <trkpt lat="35.6373770" lon="113.5573610">
    <ele>912.6</ele>
    <time>2015-02-09T01:30:34Z</time>
   </trkpt>
   <trkpt lat="35.6373770" lon="113.5572830">
    <ele>911.7</ele>
    <time>2015-02-09T01:30:39Z</time>
   </trkpt>
   <trkpt lat="35.6373560" lon="113.5572630">
    <ele>911.3</ele>
    <time>2015-02-09T01:30:44Z</time>
   </trkpt>
   <trkpt lat="35.6372760" lon="113.5571930">
    <ele>910.0</ele>
    <time>2015-02-09T01:30:49Z</time>
   </trkpt>
   <trkpt lat="35.6372550" lon="113.5571670">
    <ele>909.6</ele>
    <time>2015-02-09T01:30:54Z</time>
   </trkpt>
   <trkpt lat="35.6371960" lon="113.5571510">
    <ele>908.7</ele>
    <time>2015-02-09T01:30:59Z</time>
   </trkpt>
   <trkpt lat="35.6371780" lon="113.5571180">
    <ele>908.3</ele>
    <time>2015-02-09T01:31:04Z</time>
   </trkpt>
   <trkpt lat="35.6371570" lon="113.5571120">
    <ele>908.0</ele>
    <time>2015-02-09T01:31:09Z</time>
   </trkpt>
   <trkpt lat="35.6371580" lon="113.5570730">
    <ele>907.5</ele>
    <time>2015-02-09T01:31:14Z</time>
   </trkpt>
   <trkpt lat="35.6371320" lon="113.5570310">
    <ele>906.9</ele>
    <time>2015-02-09T01:31:19Z</time>
   </trkpt>
   <trkpt lat="35.6370780" lon="113.5570010">
    <ele>906.0</ele>
    <time>2015-02-09T01:31:24Z</time>
   </trkpt>
   <trkpt lat="35.6370660" lon="113.5569770">
    <ele>905.7</ele>
    <time>2015-02-09T01:31:29Z</time>
   </trkpt>
   <trkpt lat="35.6370720" lon="113.5568990">
    <ele>904.7</ele>
    <time>2015-02-09T01:31:34Z</time>
   </trkpt>
   <trkpt lat="35.6371120" lon="113.5568600">
    <ele>903.9</ele>
    <time>2015-02-09T01:31:39Z</time>
   </trkpt>
   <trkpt lat="35.6371120" lon="113.5568430">
    <ele>903.7</ele>
    <time>2015-02-09T01:31:44Z</time>
   </trkpt>
   <trkpt lat="35.6371200" lon="113.5568210">
    <ele>903.3</ele>
    <time>2015-02-09T01:31:49Z</time>
   </trkpt>
   <trkpt lat="35.6371690" lon="113.5568000">
    <ele>902.5</ele>
    <time>2015-02-09T01:31:54Z</time>
   </trkpt>
   <trkpt lat="35.6371620" lon="113.5568040">
    <ele>902.4</ele>
    <time>2015-02-09T01:31:59Z</time>
   </trkpt>
   <trkpt lat="35.6372750" lon="113.5568130">
    <ele>900.5</ele>
    <time>2015-02-09T01:32:04Z</time>
   </trkpt>
   <trkpt lat="35.6373490" lon="113.5568140">
    <ele>899.1</ele>
    <time>2015-02-09T01:32:09Z</time>
   </trkpt>
   <trkpt lat="35.6373880" lon="113.5568210">
    <ele>898.4</ele>
    <time>2015-02-09T01:32:14Z</time>
   </trkpt>
   <trkpt lat="35.6374530" lon="113.5567970">
    <ele>897.0</ele>
    <time>2015-02-09T01:32:19Z</time>
   </trkpt>
   <trkpt lat="35.6374820" lon="113.5567960">
    <ele>896.4</ele>
    <time>2015-02-09T01:32:24Z</time>
   </trkpt>
   <trkpt lat="35.6375140" lon="113.5567680">
    <ele>895.6</ele>
    <time>2015-02-09T01:32:29Z</time>
   </trkpt>
   <trkpt lat="35.6375540" lon="113.5567120">
    <ele>894.2</ele>
    <time>2015-02-09T01:32:34Z</time>
   </trkpt>
   <trkpt lat="35.6375530" lon="113.5566990">
    <ele>894.0</ele>
    <time>2015-02-09T01:32:39Z</time>
   </trkpt>
   <trkpt lat="35.6375940" lon="113.5566820">
    <ele>893.1</ele>
    <time>2015-02-09T01:32:44Z</time>
   </trkpt>
   <trkpt lat="35.6376540" lon="113.5566810">
    <ele>891.8</ele>
    <time>2015-02-09T01:32:49Z</time>
   </trkpt>
   <trkpt lat="35.6376880" lon="113.5566760">
    <ele>891.0</ele>
    <time>2015-02-09T01:32:54Z</time>
   </trkpt>
   <trkpt lat="35.6377510" lon="113.5566450">
    <ele>889.6</ele>
    <time>2015-02-09T01:32:59Z</time>
   </trkpt>
   <trkpt lat="35.6377830" lon="113.5566200">
    <ele>888.9</ele>
    <time>2015-02-09T01:33:04Z</time>
   </trkpt>
   <trkpt lat="35.6378250" lon="113.5566070">
    <ele>888.1</ele>
    <time>2015-02-09T01:33:09Z</time>
   </trkpt>
   <trkpt lat="35.6378380" lon="113.5565900">
    <ele>887.8</ele>
    <time>2015-02-09T01:33:14Z</time>
   </trkpt>
   <trkpt lat="35.6379680" lon="113.5565190">
    <ele>885.7</ele>
    <time>2015-02-09T01:33:39Z</time>
   </trkpt>
   <trkpt lat="35.6380700" lon="113.5564540">
    <ele>884.1</ele>
    <time>2015-02-09T01:33:44Z</time>
   </trkpt>
   <trkpt lat="35.6381410" lon="113.5563820">
    <ele>882.9</ele>
    <time>2015-02-09T01:33:49Z</time>
   </trkpt>
   <trkpt lat="35.6381810" lon="113.5563350">
    <ele>882.2</ele>
    <time>2015-02-09T01:33:54Z</time>
   </trkpt>
   <trkpt lat="35.6382440" lon="113.5562940">
    <ele>881.3</ele>
    <time>2015-02-09T01:33:59Z</time>
   </trkpt>
   <trkpt lat="35.6383170" lon="113.5562600">
    <ele>880.4</ele>
    <time>2015-02-09T01:34:04Z</time>
   </trkpt>
   <trkpt lat="35.6383630" lon="113.5562200">
    <ele>879.7</ele>
    <time>2015-02-09T01:34:09Z</time>
   </trkpt>
   <trkpt lat="35.6383940" lon="113.5562000">
    <ele>879.2</ele>
    <time>2015-02-09T01:34:14Z</time>
   </trkpt>
   <trkpt lat="35.6384380" lon="113.5561760">
    <ele>878.6</ele>
    <time>2015-02-09T01:34:19Z</time>
   </trkpt>
   <trkpt lat="35.6384530" lon="113.5561640">
    <ele>878.4</ele>
    <time>2015-02-09T01:34:24Z</time>
   </trkpt>
   <trkpt lat="35.6385230" lon="113.5561790">
    <ele>877.5</ele>
    <time>2015-02-09T01:34:29Z</time>
   </trkpt>
   <trkpt lat="35.6385510" lon="113.5562000">
    <ele>877.1</ele>
    <time>2015-02-09T01:34:34Z</time>
   </trkpt>
   <trkpt lat="35.6385780" lon="113.5562040">
    <ele>876.8</ele>
    <time>2015-02-09T01:34:39Z</time>
   </trkpt>
   <trkpt lat="35.6386200" lon="113.5562200">
    <ele>876.4</ele>
    <time>2015-02-09T01:34:44Z</time>
   </trkpt>
   <trkpt lat="35.6386490" lon="113.5562630">
    <ele>875.9</ele>
    <time>2015-02-09T01:34:49Z</time>
   </trkpt>
   <trkpt lat="35.6386920" lon="113.5562740">
    <ele>875.5</ele>
    <time>2015-02-09T01:34:54Z</time>
   </trkpt>
   <trkpt lat="35.6388100" lon="113.5562380">
    <ele>874.4</ele>
    <time>2015-02-09T01:34:59Z</time>
   </trkpt>
   <trkpt lat="35.6388720" lon="113.5562560">
    <ele>873.8</ele>
    <time>2015-02-09T01:35:04Z</time>
   </trkpt>
   <trkpt lat="35.6389170" lon="113.5562850">
    <ele>873.4</ele>
    <time>2015-02-09T01:35:09Z</time>
   </trkpt>
   <trkpt lat="35.6389240" lon="113.5562650">
    <ele>873.2</ele>
    <time>2015-02-09T01:35:14Z</time>
   </trkpt>
   <trkpt lat="35.6389470" lon="113.5562300">
    <ele>872.9</ele>
    <time>2015-02-09T01:35:24Z</time>
   </trkpt>
   <trkpt lat="35.6389690" lon="113.5562090">
    <ele>872.6</ele>
    <time>2015-02-09T01:35:34Z</time>
   </trkpt>
   <trkpt lat="35.6389940" lon="113.5561450">
    <ele>872.1</ele>
    <time>2015-02-09T01:35:39Z</time>
   </trkpt>
   <trkpt lat="35.6390260" lon="113.5561000">
    <ele>871.5</ele>
    <time>2015-02-09T01:35:44Z</time>
   </trkpt>
   <trkpt lat="35.6390670" lon="113.5560410">
    <ele>870.7</ele>
    <time>2015-02-09T01:35:49Z</time>
   </trkpt>
   <trkpt lat="35.6391240" lon="113.5560030">
    <ele>869.8</ele>
    <time>2015-02-09T01:35:54Z</time>
   </trkpt>
   <trkpt lat="35.6391810" lon="113.5559730">
    <ele>868.9</ele>
    <time>2015-02-09T01:35:59Z</time>
   </trkpt>
   <trkpt lat="35.6392500" lon="113.5559490">
    <ele>867.9</ele>
    <time>2015-02-09T01:36:04Z</time>
   </trkpt>
   <trkpt lat="35.6393060" lon="113.5559270">
    <ele>867.0</ele>
    <time>2015-02-09T01:36:09Z</time>
   </trkpt>
   <trkpt lat="35.6393770" lon="113.5558900">
    <ele>865.8</ele>
    <time>2015-02-09T01:36:14Z</time>
   </trkpt>
   <trkpt lat="35.6394250" lon="113.5558660">
    <ele>865.0</ele>
    <time>2015-02-09T01:36:19Z</time>
   </trkpt>
   <trkpt lat="35.6394390" lon="113.5558310">
    <ele>864.5</ele>
    <time>2015-02-09T01:36:24Z</time>
   </trkpt>
   <trkpt lat="35.6394600" lon="113.5557870">
    <ele>864.0</ele>
    <time>2015-02-09T01:36:29Z</time>
   </trkpt>
   <trkpt lat="35.6394810" lon="113.5557450">
    <ele>863.7</ele>
    <time>2015-02-09T01:36:34Z</time>
   </trkpt>
   <trkpt lat="35.6395260" lon="113.5556720">
    <ele>863.2</ele>
    <time>2015-02-09T01:36:39Z</time>
   </trkpt>
   <trkpt lat="35.6395460" lon="113.5556360">
    <ele>862.9</ele>
    <time>2015-02-09T01:36:44Z</time>
   </trkpt>
   <trkpt lat="35.6395890" lon="113.5555970">
    <ele>862.5</ele>
    <time>2015-02-09T01:36:49Z</time>
   </trkpt>
   <trkpt lat="35.6396070" lon="113.5554400">
    <ele>861.5</ele>
    <time>2015-02-09T01:37:19Z</time>
   </trkpt>
   <trkpt lat="35.6396220" lon="113.5553550">
    <ele>860.9</ele>
    <time>2015-02-09T01:37:24Z</time>
   </trkpt>
   <trkpt lat="35.6396410" lon="113.5552950">
    <ele>860.4</ele>
    <time>2015-02-09T01:37:29Z</time>
   </trkpt>
   <trkpt lat="35.6396380" lon="113.5552240">
    <ele>859.9</ele>
    <time>2015-02-09T01:37:34Z</time>
   </trkpt>
   <trkpt lat="35.6396640" lon="113.5551760">
    <ele>859.4</ele>
    <time>2015-02-09T01:37:39Z</time>
   </trkpt>
   <trkpt lat="35.6396840" lon="113.5551100">
    <ele>858.9</ele>
    <time>2015-02-09T01:37:44Z</time>
   </trkpt>
   <trkpt lat="35.6396820" lon="113.5550260">
    <ele>858.2</ele>
    <time>2015-02-09T01:37:49Z</time>
   </trkpt>
   <trkpt lat="35.6397170" lon="113.5549770">
    <ele>857.7</ele>
    <time>2015-02-09T01:37:54Z</time>
   </trkpt>
   <trkpt lat="35.6397620" lon="113.5549260">
    <ele>857.1</ele>
    <time>2015-02-09T01:37:59Z</time>
   </trkpt>
   <trkpt lat="35.6397890" lon="113.5548800">
    <ele>856.6</ele>
    <time>2015-02-09T01:38:04Z</time>
   </trkpt>
   <trkpt lat="35.6398140" lon="113.5548490">
    <ele>856.2</ele>
    <time>2015-02-09T01:38:09Z</time>
   </trkpt>
   <trkpt lat="35.6398520" lon="113.5548220">
    <ele>855.7</ele>
    <time>2015-02-09T01:38:14Z</time>
   </trkpt>
   <trkpt lat="35.6398920" lon="113.5548140">
    <ele>855.1</ele>
    <time>2015-02-09T01:38:19Z</time>
   </trkpt>
   <trkpt lat="35.6399460" lon="113.5548180">
    <ele>854.4</ele>
    <time>2015-02-09T01:38:24Z</time>
   </trkpt>
   <trkpt lat="35.6399790" lon="113.5548440">
    <ele>853.9</ele>
    <time>2015-02-09T01:38:29Z</time>
   </trkpt>
   <trkpt lat="35.6400120" lon="113.5548950">
    <ele>853.3</ele>
    <time>2015-02-09T01:38:34Z</time>
   </trkpt>
   <trkpt lat="35.6400390" lon="113.5549300">
    <ele>852.8</ele>
    <time>2015-02-09T01:38:39Z</time>
   </trkpt>
   <trkpt lat="35.6400780" lon="113.5549540">
    <ele>852.4</ele>
    <time>2015-02-09T01:38:44Z</time>
   </trkpt>
   <trkpt lat="35.6400950" lon="113.5550000">
    <ele>852.0</ele>
    <time>2015-02-09T01:38:49Z</time>
   </trkpt>
   <trkpt lat="35.6401840" lon="113.5550280">
    <ele>851.2</ele>
    <time>2015-02-09T01:38:54Z</time>
   </trkpt>
   <trkpt lat="35.6402330" lon="113.5550060">
    <ele>850.8</ele>
    <time>2015-02-09T01:38:59Z</time>
   </trkpt>
   <trkpt lat="35.6402510" lon="113.5549890">
    <ele>850.7</ele>
    <time>2015-02-09T01:39:04Z</time>
   </trkpt>
   <trkpt lat="35.6402740" lon="113.5549830">
    <ele>850.5</ele>
    <time>2015-02-09T01:39:09Z</time>
   </trkpt>
   <trkpt lat="35.6402910" lon="113.5551040">
    <ele>850.0</ele>
    <time>2015-02-09T01:39:14Z</time>
   </trkpt>
   <trkpt lat="35.6405020" lon="113.5549740">
    <ele>849.3</ele>
    <time>2015-02-09T01:39:19Z</time>
   </trkpt>
   <trkpt lat="35.6405570" lon="113.5549530">
    <ele>849.1</ele>
    <time>2015-02-09T01:39:24Z</time>
   </trkpt>
   <trkpt lat="35.6404370" lon="113.5550390">
    <ele>848.3</ele>
    <time>2015-02-09T01:39:29Z</time>
   </trkpt>
   <trkpt lat="35.6404070" lon="113.5550140">
    <ele>848.0</ele>
    <time>2015-02-09T01:39:34Z</time>
   </trkpt>
   <trkpt lat="35.6404370" lon="113.5549710">
    <ele>847.6</ele>
    <time>2015-02-09T01:39:39Z</time>
   </trkpt>
   <trkpt lat="35.6404580" lon="113.5549410">
    <ele>847.3</ele>
    <time>2015-02-09T01:39:44Z</time>
   </trkpt>
   <trkpt lat="35.6404680" lon="113.5549160">
    <ele>847.1</ele>
    <time>2015-02-09T01:39:49Z</time>
   </trkpt>
   <trkpt lat="35.6405060" lon="113.5548840">
    <ele>846.6</ele>
    <time>2015-02-09T01:39:59Z</time>
   </trkpt>
   <trkpt lat="35.6405370" lon="113.5548530">
    <ele>846.1</ele>
    <time>2015-02-09T01:40:04Z</time>
   </trkpt>
   <trkpt lat="35.6405430" lon="113.5548320">
    <ele>845.9</ele>
    <time>2015-02-09T01:40:14Z</time>
   </trkpt>
   <trkpt lat="35.6405210" lon="113.5548370">
    <ele>845.7</ele>
    <time>2015-02-09T01:40:19Z</time>
   </trkpt>
   <trkpt lat="35.6405790" lon="113.5548310">
    <ele>845.0</ele>
    <time>2015-02-09T01:40:49Z</time>
   </trkpt>
   <trkpt lat="35.6406320" lon="113.5548180">
    <ele>844.4</ele>
    <time>2015-02-09T01:40:54Z</time>
   </trkpt>
   <trkpt lat="35.6406720" lon="113.5548200">
    <ele>844.0</ele>
    <time>2015-02-09T01:41:09Z</time>
   </trkpt>
   <trkpt lat="35.6407210" lon="113.5547900">
    <ele>843.5</ele>
    <time>2015-02-09T01:41:14Z</time>
   </trkpt>
   <trkpt lat="35.6407420" lon="113.5547800">
    <ele>843.3</ele>
    <time>2015-02-09T01:41:19Z</time>
   </trkpt>
   <trkpt lat="35.6407820" lon="113.5547410">
    <ele>842.8</ele>
    <time>2015-02-09T01:41:24Z</time>
   </trkpt>
   <trkpt lat="35.6408220" lon="113.5547180">
    <ele>842.5</ele>
    <time>2015-02-09T01:41:29Z</time>
   </trkpt>
   <trkpt lat="35.6408680" lon="113.5546860">
    <ele>842.2</ele>
    <time>2015-02-09T01:41:34Z</time>
   </trkpt>
   <trkpt lat="35.6409210" lon="113.5546680">
    <ele>841.9</ele>
    <time>2015-02-09T01:41:39Z</time>
   </trkpt>
   <trkpt lat="35.6409590" lon="113.5546830">
    <ele>841.7</ele>
    <time>2015-02-09T01:41:44Z</time>
   </trkpt>
   <trkpt lat="35.6410050" lon="113.5546990">
    <ele>841.4</ele>
    <time>2015-02-09T01:41:49Z</time>
   </trkpt>
   <trkpt lat="35.6410500" lon="113.5547230">
    <ele>841.2</ele>
    <time>2015-02-09T01:41:54Z</time>
   </trkpt>
   <trkpt lat="35.6410950" lon="113.5547400">
    <ele>840.9</ele>
    <time>2015-02-09T01:41:59Z</time>
   </trkpt>
   <trkpt lat="35.6411130" lon="113.5547590">
    <ele>840.8</ele>
    <time>2015-02-09T01:42:04Z</time>
   </trkpt>
   <trkpt lat="35.6411540" lon="113.5547040">
    <ele>840.5</ele>
    <time>2015-02-09T01:42:09Z</time>
   </trkpt>
   <trkpt lat="35.6411540" lon="113.5546650">
    <ele>840.3</ele>
    <time>2015-02-09T01:42:14Z</time>
   </trkpt>
   <trkpt lat="35.6411710" lon="113.5546240">
    <ele>840.1</ele>
    <time>2015-02-09T01:42:19Z</time>
   </trkpt>
   <trkpt lat="35.6411890" lon="113.5545750">
    <ele>839.8</ele>
    <time>2015-02-09T01:42:24Z</time>
   </trkpt>
   <trkpt lat="35.6412250" lon="113.5545220">
    <ele>839.5</ele>
    <time>2015-02-09T01:42:29Z</time>
   </trkpt>
   <trkpt lat="35.6412570" lon="113.5544770">
    <ele>839.2</ele>
    <time>2015-02-09T01:42:34Z</time>
   </trkpt>
   <trkpt lat="35.6412900" lon="113.5544130">
    <ele>838.8</ele>
    <time>2015-02-09T01:42:39Z</time>
   </trkpt>
   <trkpt lat="35.6413220" lon="113.5543720">
    <ele>838.5</ele>
    <time>2015-02-09T01:42:44Z</time>
   </trkpt>
   <trkpt lat="35.6413670" lon="113.5543350">
    <ele>838.1</ele>
    <time>2015-02-09T01:42:49Z</time>
   </trkpt>
   <trkpt lat="35.6414130" lon="113.5543100">
    <ele>837.7</ele>
    <time>2015-02-09T01:42:54Z</time>
   </trkpt>
   <trkpt lat="35.6414530" lon="113.5542870">
    <ele>837.4</ele>
    <time>2015-02-09T01:42:59Z</time>
   </trkpt>
   <trkpt lat="35.6415120" lon="113.5542580">
    <ele>836.9</ele>
    <time>2015-02-09T01:43:04Z</time>
   </trkpt>
   <trkpt lat="35.6415380" lon="113.5542330">
    <ele>836.6</ele>
    <time>2015-02-09T01:43:14Z</time>
   </trkpt>
   <trkpt lat="35.6415840" lon="113.5542220">
    <ele>836.1</ele>
    <time>2015-02-09T01:43:19Z</time>
   </trkpt>
   <trkpt lat="35.6416340" lon="113.5541970">
    <ele>835.6</ele>
    <time>2015-02-09T01:43:24Z</time>
   </trkpt>
   <trkpt lat="35.6417060" lon="113.5541860">
    <ele>834.9</ele>
    <time>2015-02-09T01:43:29Z</time>
   </trkpt>
   <trkpt lat="35.6417350" lon="113.5541510">
    <ele>834.5</ele>
    <time>2015-02-09T01:43:34Z</time>
   </trkpt>
   <trkpt lat="35.6417930" lon="113.5541260">
    <ele>833.9</ele>
    <time>2015-02-09T01:43:39Z</time>
   </trkpt>
   <trkpt lat="35.6417530" lon="113.5540540">
    <ele>833.3</ele>
    <time>2015-02-09T01:43:44Z</time>
   </trkpt>
   <trkpt lat="35.6417670" lon="113.5540030">
    <ele>833.0</ele>
    <time>2015-02-09T01:43:49Z</time>
   </trkpt>
   <trkpt lat="35.6417620" lon="113.5539430">
    <ele>832.6</ele>
    <time>2015-02-09T01:43:54Z</time>
   </trkpt>
   <trkpt lat="35.6417670" lon="113.5538710">
    <ele>832.0</ele>
    <time>2015-02-09T01:43:59Z</time>
   </trkpt>
   <trkpt lat="35.6417490" lon="113.5538180">
    <ele>831.6</ele>
    <time>2015-02-09T01:44:04Z</time>
   </trkpt>
   <trkpt lat="35.6417440" lon="113.5537720">
    <ele>831.2</ele>
    <time>2015-02-09T01:44:09Z</time>
   </trkpt>
   <trkpt lat="35.6417510" lon="113.5537300">
    <ele>830.8</ele>
    <time>2015-02-09T01:44:14Z</time>
   </trkpt>
   <trkpt lat="35.6417820" lon="113.5536600">
    <ele>830.1</ele>
    <time>2015-02-09T01:44:54Z</time>
   </trkpt>
   <trkpt lat="35.6418680" lon="113.5535960">
    <ele>829.0</ele>
    <time>2015-02-09T01:44:59Z</time>
   </trkpt>
   <trkpt lat="35.6419010" lon="113.5535240">
    <ele>828.3</ele>
    <time>2015-02-09T01:45:04Z</time>
   </trkpt>
   <trkpt lat="35.6419600" lon="113.5534630">
    <ele>827.6</ele>
    <time>2015-02-09T01:45:09Z</time>
   </trkpt>
   <trkpt lat="35.6420390" lon="113.5534370">
    <ele>826.9</ele>
    <time>2015-02-09T01:45:14Z</time>
   </trkpt>
   <trkpt lat="35.6420980" lon="113.5533830">
    <ele>826.4</ele>
    <time>2015-02-09T01:45:19Z</time>
   </trkpt>
   <trkpt lat="35.6421930" lon="113.5533430">
    <ele>825.9</ele>
    <time>2015-02-09T01:45:24Z</time>
   </trkpt>
   <trkpt lat="35.6422750" lon="113.5533130">
    <ele>825.6</ele>
    <time>2015-02-09T01:45:29Z</time>
   </trkpt>
   <trkpt lat="35.6423320" lon="113.5532420">
    <ele>825.2</ele>
    <time>2015-02-09T01:45:34Z</time>
   </trkpt>
   <trkpt lat="35.6423660" lon="113.5531910">
    <ele>825.0</ele>
    <time>2015-02-09T01:45:39Z</time>
   </trkpt>
   <trkpt lat="35.6423880" lon="113.5531710">
    <ele>824.8</ele>
    <time>2015-02-09T01:45:44Z</time>
   </trkpt>
   <trkpt lat="35.6423990" lon="113.5531400">
    <ele>824.7</ele>
    <time>2015-02-09T01:46:34Z</time>
   </trkpt>
   <trkpt lat="35.6423880" lon="113.5530270">
    <ele>824.1</ele>
    <time>2015-02-09T01:46:44Z</time>
   </trkpt>
   <trkpt lat="35.6424000" lon="113.5529560">
    <ele>823.7</ele>
    <time>2015-02-09T01:46:49Z</time>
   </trkpt>
   <trkpt lat="35.6424230" lon="113.5528830">
    <ele>823.1</ele>
    <time>2015-02-09T01:47:14Z</time>
   </trkpt>
   <trkpt lat="35.6424910" lon="113.5528110">
    <ele>822.3</ele>
    <time>2015-02-09T01:47:19Z</time>
   </trkpt>
   <trkpt lat="35.6425240" lon="113.5527250">
    <ele>821.5</ele>
    <time>2015-02-09T01:47:24Z</time>
   </trkpt>
   <trkpt lat="35.6425130" lon="113.5526760">
    <ele>821.1</ele>
    <time>2015-02-09T01:47:29Z</time>
   </trkpt>
   <trkpt lat="35.6425200" lon="113.5525650">
    <ele>820.3</ele>
    <time>2015-02-09T01:47:34Z</time>
   </trkpt>
   <trkpt lat="35.6425000" lon="113.5524870">
    <ele>819.9</ele>
    <time>2015-02-09T01:47:39Z</time>
   </trkpt>
   <trkpt lat="35.6425050" lon="113.5524050">
    <ele>819.6</ele>
    <time>2015-02-09T01:47:44Z</time>
   </trkpt>
   <trkpt lat="35.6424950" lon="113.5523260">
    <ele>819.4</ele>
    <time>2015-02-09T01:47:49Z</time>
   </trkpt>
   <trkpt lat="35.6424650" lon="113.5522720">
    <ele>819.2</ele>
    <time>2015-02-09T01:47:54Z</time>
   </trkpt>
   <trkpt lat="35.6424590" lon="113.5522310">
    <ele>819.0</ele>
    <time>2015-02-09T01:47:59Z</time>
   </trkpt>
   <trkpt lat="35.6424200" lon="113.5521650">
    <ele>818.6</ele>
    <time>2015-02-09T01:48:04Z</time>
   </trkpt>
   <trkpt lat="35.6424000" lon="113.5521060">
    <ele>818.3</ele>
    <time>2015-02-09T01:48:09Z</time>
   </trkpt>
   <trkpt lat="35.6423720" lon="113.5520540">
    <ele>818.0</ele>
    <time>2015-02-09T01:48:14Z</time>
   </trkpt>
   <trkpt lat="35.6423580" lon="113.5519730">
    <ele>817.5</ele>
    <time>2015-02-09T01:48:19Z</time>
   </trkpt>
   <trkpt lat="35.6423420" lon="113.5518810">
    <ele>817.1</ele>
    <time>2015-02-09T01:48:24Z</time>
   </trkpt>
   <trkpt lat="35.6423610" lon="113.5517920">
    <ele>816.6</ele>
    <time>2015-02-09T01:48:29Z</time>
   </trkpt>
   <trkpt lat="35.6423550" lon="113.5517220">
    <ele>816.3</ele>
    <time>2015-02-09T01:48:34Z</time>
   </trkpt>
   <trkpt lat="35.6423290" lon="113.5516310">
    <ele>815.9</ele>
    <time>2015-02-09T01:48:39Z</time>
   </trkpt>
   <trkpt lat="35.6423180" lon="113.5515580">
    <ele>815.6</ele>
    <time>2015-02-09T01:48:44Z</time>
   </trkpt>
   <trkpt lat="35.6423690" lon="113.5515250">
    <ele>815.3</ele>
    <time>2015-02-09T01:48:49Z</time>
   </trkpt>
   <trkpt lat="35.6424120" lon="113.5515270">
    <ele>815.1</ele>
    <time>2015-02-09T01:48:54Z</time>
   </trkpt>
   <trkpt lat="35.6424680" lon="113.5514940">
    <ele>814.9</ele>
    <time>2015-02-09T01:48:59Z</time>
   </trkpt>
   <trkpt lat="35.6424820" lon="113.5514140">
    <ele>814.7</ele>
    <time>2015-02-09T01:49:09Z</time>
   </trkpt>
   <trkpt lat="35.6424360" lon="113.5513260">
    <ele>814.5</ele>
    <time>2015-02-09T01:49:14Z</time>
   </trkpt>
   <trkpt lat="35.6424210" lon="113.5512490">
    <ele>814.4</ele>
    <time>2015-02-09T01:49:19Z</time>
   </trkpt>
   <trkpt lat="35.6424140" lon="113.5511600">
    <ele>814.3</ele>
    <time>2015-02-09T01:49:24Z</time>
   </trkpt>
   <trkpt lat="35.6424700" lon="113.5510240">
    <ele>814.1</ele>
    <time>2015-02-09T01:49:39Z</time>
   </trkpt>
   <trkpt lat="35.6425260" lon="113.5509560">
    <ele>815.6</ele>
    <time>2015-02-09T01:49:44Z</time>
   </trkpt>
   <trkpt lat="35.6425150" lon="113.5509280">
    <ele>816.5</ele>
    <time>2015-02-09T01:49:49Z</time>
   </trkpt>
   <trkpt lat="35.6425200" lon="113.5507470">
    <ele>822.0</ele>
    <time>2015-02-09T01:54:51Z</time>
   </trkpt>
   <trkpt lat="35.6424510" lon="113.5505340">
    <ele>828.9</ele>
    <time>2015-02-09T01:54:56Z</time>
   </trkpt>
   <trkpt lat="35.6423360" lon="113.5503900">
    <ele>830.0</ele>
    <time>2015-02-09T01:55:01Z</time>
   </trkpt>
   <trkpt lat="35.6422690" lon="113.5503020">
    <ele>830.0</ele>
    <time>2015-02-09T01:55:06Z</time>
   </trkpt>
   <trkpt lat="35.6422200" lon="113.5501360">
    <ele>830.0</ele>
    <time>2015-02-09T01:55:11Z</time>
   </trkpt>
   <trkpt lat="35.6421740" lon="113.5500630">
    <ele>830.0</ele>
    <time>2015-02-09T01:55:16Z</time>
   </trkpt>
   <trkpt lat="35.6420790" lon="113.5498940">
    <ele>830.0</ele>
    <time>2015-02-09T01:55:21Z</time>
   </trkpt>
   <trkpt lat="35.6421100" lon="113.5500600">
    <ele>830.0</ele>
    <time>2015-02-09T01:55:26Z</time>
   </trkpt>
   <trkpt lat="35.6420520" lon="113.5500630">
    <ele>830.0</ele>
    <time>2015-02-09T01:55:31Z</time>
   </trkpt>
   <trkpt lat="35.6420140" lon="113.5500780">
    <ele>830.0</ele>
    <time>2015-02-09T01:55:36Z</time>
   </trkpt>
   <trkpt lat="35.6419740" lon="113.5501340">
    <ele>830.0</ele>
    <time>2015-02-09T01:55:41Z</time>
   </trkpt>
   <trkpt lat="35.6419100" lon="113.5502210">
    <ele>830.0</ele>
    <time>2015-02-09T01:55:46Z</time>
   </trkpt>
   <trkpt lat="35.6418800" lon="113.5503420">
    <ele>829.3</ele>
    <time>2015-02-09T01:55:51Z</time>
   </trkpt>
   <trkpt lat="35.6417820" lon="113.5503480">
    <ele>828.5</ele>
    <time>2015-02-09T01:55:56Z</time>
   </trkpt>
   <trkpt lat="35.6418090" lon="113.5505490">
    <ele>827.2</ele>
    <time>2015-02-09T01:56:52Z</time>
   </trkpt>
  </trkseg>
 </trk>
</gpx>
