<?xml version="1.0" encoding="UTF-8"?>
<gpx creator="StravaGPX" version="1.1" xmlns="http://www.topografix.com/GPX/1/1" xmlns:xsi="http://www.w3.org/2001/XMLSchema-instance" xsi:schemaLocation="http://www.topografix.com/GPX/1/1 http://www.topografix.com/GPX/1/1/gpx.xsd">
 <metadata>
  <time>2016-01-03T10:21:40Z</time>
 </metadata>
 <trk>
  <name>Run</name>
  <type>running</type>
  <trkseg>
   <trkpt lat="35.1869010" lon="113.2619670">
    <ele>93.9</ele>
    <time>2016-01-03T10:21:40Z</time>
   </trkpt>
   <trkpt lat="35.1869100" lon="113.2618350">
    <ele>94.3</ele>
    <time>2016-01-03T10:21:45Z</time>
   </trkpt>
   <trkpt lat="35.1868710" lon="113.2616470">
    <ele>95.1</ele>
    <time>2016-01-03T10:21:50Z</time>
   </trkpt>
   <trkpt lat="35.1868350" lon="113.2614860">
    <ele>95.2</ele>
    <time>2016-01-03T10:21:55Z</time>
   </trkpt>
   <trkpt lat="35.1866800" lon="113.2614060">
    <ele>94.2</ele>
    <time>2016-01-03T10:22:00Z</time>
   </trkpt>
   <trkpt lat="35.1865360" lon="113.2613610">
    <ele>93.1</ele>
    <time>2016-01-03T10:22:05Z</time>
   </trkpt>
   <trkpt lat="35.1864110" lon="113.2613910">
    <ele>92.3</ele>
    <time>2016-01-03T10:22:10Z</time>
   </trkpt>
   <trkpt lat="35.1862740" lon="113.2614170">
    <ele>91.8</ele>
    <time>2016-01-03T10:22:15Z</time>
   </trkpt>
   <trkpt lat="35.1861240" lon="113.2614230">
    <ele>91.8</ele>
    <time>2016-01-03T10:22:20Z</time>
   </trkpt>
   <trkpt lat="35.1860190" lon="113.2613840">
    <ele>92.1</ele>
    <time>2016-01-03T10:22:25Z</time>
   </trkpt>
   <trkpt lat="35.1858760" lon="113.2614510">
    <ele>92.0</ele>
    <time>2016-01-03T10:22:30Z</time>
   </trkpt>
   <trkpt lat="35.1857500" lon="113.2615290">
    <ele>92.3</ele>
    <time>2016-01-03T10:22:35Z</time>
   </trkpt>
   <trkpt lat="35.1855980" lon="113.2615910">
    <ele>93.0</ele>
    <time>2016-01-03T10:22:40Z</time>
   </trkpt>
   <trkpt lat="35.1855230" lon="113.2617030">
    <ele>93.1</ele>
    <time>2016-01-03T10:22:45Z</time>
   </trkpt>
   <trkpt lat="35.1854770" lon="113.2618720">
    <ele>93.1</ele>
    <time>2016-01-03T10:22:50Z</time>
   </trkpt>
   <trkpt lat="35.1855010" lon="113.2619990">
    <ele>93.1</ele>
    <time>2016-01-03T10:22:55Z</time>
   </trkpt>
   <trkpt lat="35.1855930" lon="113.2621330">
    <ele>92.6</ele>
    <time>2016-01-03T10:23:00Z</time>
   </trkpt>
   <trkpt lat="35.1857190" lon="113.2622310">
    <ele>92.0</ele>
    <time>2016-01-03T10:23:05Z</time>
   </trkpt>
   <trkpt lat="35.1858670" lon="113.2622560">
    <ele>91.9</ele>
    <time>2016-01-03T10:23:10Z</time>
   </trkpt>
   <trkpt lat="35.1860060" lon="113.2622730">
    <ele>92.4</ele>
    <time>2016-01-03T10:23:15Z</time>
   </trkpt>
   <trkpt lat="35.1861240" lon="113.2622650">
    <ele>93.1</ele>
    <time>2016-01-03T10:23:20Z</time>
   </trkpt>
   <trkpt lat="35.1862200" lon="113.2622290">
    <ele>93.0</ele>
    <time>2016-01-03T10:23:25Z</time>
   </trkpt>
   <trkpt lat="35.1863310" lon="113.2621860">
    <ele>93.1</ele>
    <time>2016-01-03T10:23:30Z</time>
   </trkpt>
   <trkpt lat="35.1864290" lon="113.2621520">
    <ele>93.1</ele>
    <time>2016-01-03T10:23:35Z</time>
   </trkpt>
   <trkpt lat="35.1865400" lon="113.2621110">
    <ele>93.0</ele>
    <time>2016-01-03T10:23:40Z</time>
   </trkpt>
   <trkpt lat="35.1866470" lon="113.2620760">
    <ele>93.2</ele>
    <time>2016-01-03T10:23:45Z</time>
   </trkpt>
   <trkpt lat="35.1867710" lon="113.2619780">
    <ele>93.9</ele>
    <time>2016-01-03T10:23:50Z</time>
   </trkpt>
   <trkpt lat="35.1868690" lon="113.2618650">
    <ele>94.3</ele>
    <time>2016-01-03T10:23:55Z</time>
   </trkpt>
   <trkpt lat="35.1869450" lon="113.2617540">
    <ele>94.9</ele>
    <time>2016-01-03T10:24:00Z</time>
   </trkpt>
   <trkpt lat="35.1868940" lon="113.2615670">
    <ele>95.0</ele>
    <time>2016-01-03T10:24:05Z</time>
   </trkpt>
   <trkpt lat="35.1868140" lon="113.2614150">
    <ele>95.1</ele>
    <time>2016-01-03T10:24:10Z</time>
   </trkpt>
   <trkpt lat="35.1867320" lon="113.2613360">
    <ele>94.5</ele>
    <time>2016-01-03T10:24:15Z</time>
   </trkpt>
   <trkpt lat="35.1866190" lon="113.2613220">
    <ele>93.9</ele>
    <time>2016-01-03T10:24:20Z</time>
   </trkpt>
   <trkpt lat="35.1864940" lon="113.2613320">
    <ele>92.9</ele>
    <time>2016-01-03T10:24:25Z</time>
   </trkpt>
   <trkpt lat="35.1863720" lon="113.2613660">
    <ele>92.1</ele>
    <time>2016-01-03T10:24:30Z</time>
   </trkpt>
   <trkpt lat="35.1862200" lon="113.2614130">
    <ele>91.8</ele>
    <time>2016-01-03T10:24:35Z</time>
   </trkpt>
   <trkpt lat="35.1860900" lon="113.2614200">
    <ele>91.8</ele>
    <time>2016-01-03T10:24:40Z</time>
   </trkpt>
   <trkpt lat="35.1859500" lon="113.2614670">
    <ele>92.0</ele>
    <time>2016-01-03T10:24:45Z</time>
   </trkpt>
   <trkpt lat="35.1858240" lon="113.2614760">
    <ele>91.9</ele>
    <time>2016-01-03T10:24:50Z</time>
   </trkpt>
   <trkpt lat="35.1857110" lon="113.2614910">
    <ele>92.6</ele>
    <time>2016-01-03T10:24:55Z</time>
   </trkpt>
   <trkpt lat="35.1855790" lon="113.2615850">
    <ele>93.0</ele>
    <time>2016-01-03T10:25:00Z</time>
   </trkpt>
   <trkpt lat="35.1854740" lon="113.2617010">
    <ele>93.3</ele>
    <time>2016-01-03T10:25:05Z</time>
   </trkpt>
   <trkpt lat="35.1854360" lon="113.2618340">
    <ele>93.2</ele>
    <time>2016-01-03T10:25:10Z</time>
   </trkpt>
   <trkpt lat="35.1854300" lon="113.2619590">
    <ele>92.9</ele>
    <time>2016-01-03T10:25:15Z</time>
   </trkpt>
   <trkpt lat="35.1854640" lon="113.2620640">
    <ele>92.8</ele>
    <time>2016-01-03T10:25:20Z</time>
   </trkpt>
   <trkpt lat="35.1855220" lon="113.2621500">
    <ele>92.6</ele>
    <time>2016-01-03T10:25:25Z</time>
   </trkpt>
   <trkpt lat="35.1856010" lon="113.2621810">
    <ele>92.1</ele>
    <time>2016-01-03T10:25:30Z</time>
   </trkpt>
   <trkpt lat="35.1857190" lon="113.2622160">
    <ele>91.9</ele>
    <time>2016-01-03T10:25:35Z</time>
   </trkpt>
   <trkpt lat="35.1858250" lon="113.2622190">
    <ele>92.0</ele>
    <time>2016-01-03T10:25:40Z</time>
   </trkpt>
   <trkpt lat="35.1859460" lon="113.2622130">
    <ele>92.1</ele>
    <time>2016-01-03T10:25:45Z</time>
   </trkpt>
   <trkpt lat="35.1860750" lon="113.2621880">
    <ele>93.0</ele>
    <time>2016-01-03T10:25:50Z</time>
   </trkpt>
   <trkpt lat="35.1861700" lon="113.2621620">
    <ele>93.2</ele>
    <time>2016-01-03T10:25:55Z</time>
   </trkpt>
   <trkpt lat="35.1862480" lon="113.2621340">
    <ele>93.1</ele>
    <time>2016-01-03T10:26:00Z</time>
   </trkpt>
   <trkpt lat="35.1863440" lon="113.2621170">
    <ele>93.1</ele>
    <time>2016-01-03T10:26:05Z</time>
   </trkpt>
   <trkpt lat="35.1864660" lon="113.2620840">
    <ele>93.0</ele>
    <time>2016-01-03T10:26:10Z</time>
   </trkpt>
   <trkpt lat="35.1865730" lon="113.2620340">
    <ele>93.1</ele>
    <time>2016-01-03T10:26:15Z</time>
   </trkpt>
   <trkpt lat="35.1866450" lon="113.2619490">
    <ele>93.8</ele>
    <time>2016-01-03T10:26:20Z</time>
   </trkpt>
   <trkpt lat="35.1867770" lon="113.2618700">
    <ele>94.3</ele>
    <time>2016-01-03T10:26:25Z</time>
   </trkpt>
   <trkpt lat="35.1868960" lon="113.2617670">
    <ele>94.9</ele>
    <time>2016-01-03T10:26:30Z</time>
   </trkpt>
   <trkpt lat="35.1869470" lon="113.2616460">
    <ele>95.1</ele>
    <time>2016-01-03T10:26:35Z</time>
   </trkpt>
   <trkpt lat="35.1869020" lon="113.2615370">
    <ele>95.0</ele>
    <time>2016-01-03T10:26:40Z</time>
   </trkpt>
   <trkpt lat="35.1868290" lon="113.2614730">
    <ele>95.2</ele>
    <time>2016-01-03T10:26:45Z</time>
   </trkpt>
   <trkpt lat="35.1867280" lon="113.2613900">
    <ele>94.7</ele>
    <time>2016-01-03T10:26:50Z</time>
   </trkpt>
   <trkpt lat="35.1866180" lon="113.2613590">
    <ele>93.9</ele>
    <time>2016-01-03T10:26:55Z</time>
   </trkpt>
   <trkpt lat="35.1865030" lon="113.2613470">
    <ele>92.9</ele>
    <time>2016-01-03T10:27:00Z</time>
   </trkpt>
   <trkpt lat="35.1863910" lon="113.2613470">
    <ele>92.4</ele>
    <time>2016-01-03T10:27:05Z</time>
   </trkpt>
   <trkpt lat="35.1862550" lon="113.2613660">
    <ele>92.1</ele>
    <time>2016-01-03T10:27:10Z</time>
   </trkpt>
   <trkpt lat="35.1861880" lon="113.2613700">
    <ele>92.1</ele>
    <time>2016-01-03T10:27:15Z</time>
   </trkpt>
   <trkpt lat="35.1860600" lon="113.2614060">
    <ele>91.8</ele>
    <time>2016-01-03T10:27:20Z</time>
   </trkpt>
   <trkpt lat="35.1859120" lon="113.2614470">
    <ele>92.0</ele>
    <time>2016-01-03T10:27:25Z</time>
   </trkpt>
   <trkpt lat="35.1858060" lon="113.2614620">
    <ele>91.9</ele>
    <time>2016-01-03T10:27:30Z</time>
   </trkpt>
   <trkpt lat="35.1857180" lon="113.2614850">
    <ele>92.6</ele>
    <time>2016-01-03T10:27:35Z</time>
   </trkpt>
   <trkpt lat="35.1856000" lon="113.2615820">
    <ele>93.0</ele>
    <time>2016-01-03T10:27:40Z</time>
   </trkpt>
   <trkpt lat="35.1855360" lon="113.2616690">
    <ele>93.0</ele>
    <time>2016-01-03T10:27:45Z</time>
   </trkpt>
   <trkpt lat="35.1854690" lon="113.2618290">
    <ele>93.1</ele>
    <time>2016-01-03T10:27:50Z</time>
   </trkpt>
   <trkpt lat="35.1854640" lon="113.2619500">
    <ele>93.0</ele>
    <time>2016-01-03T10:27:55Z</time>
   </trkpt>
   <trkpt lat="35.1854840" lon="113.2621100">
    <ele>92.7</ele>
    <time>2016-01-03T10:28:00Z</time>
   </trkpt>
   <trkpt lat="35.1855360" lon="113.2622280">
    <ele>92.1</ele>
    <time>2016-01-03T10:28:05Z</time>
   </trkpt>
   <trkpt lat="35.1856540" lon="113.2622640">
    <ele>92.0</ele>
    <time>2016-01-03T10:28:10Z</time>
   </trkpt>
   <trkpt lat="35.1857480" lon="113.2622810">
    <ele>92.0</ele>
    <time>2016-01-03T10:28:15Z</time>
   </trkpt>
   <trkpt lat="35.1858620" lon="113.2622660">
    <ele>91.9</ele>
    <time>2016-01-03T10:28:20Z</time>
   </trkpt>
   <trkpt lat="35.1859820" lon="113.2622290">
    <ele>92.4</ele>
    <time>2016-01-03T10:28:25Z</time>
   </trkpt>
   <trkpt lat="35.1860880" lon="113.2622060">
    <ele>93.1</ele>
    <time>2016-01-03T10:28:30Z</time>
   </trkpt>
   <trkpt lat="35.1862170" lon="113.2621830">
    <ele>93.1</ele>
    <time>2016-01-03T10:28:35Z</time>
   </trkpt>
   <trkpt lat="35.1863140" lon="113.2621440">
    <ele>93.1</ele>
    <time>2016-01-03T10:28:40Z</time>
   </trkpt>
   <trkpt lat="35.1863990" lon="113.2621360">
    <ele>93.1</ele>
    <time>2016-01-03T10:28:45Z</time>
   </trkpt>
   <trkpt lat="35.1864820" lon="113.2621460">
    <ele>93.0</ele>
    <time>2016-01-03T10:28:50Z</time>
   </trkpt>
   <trkpt lat="35.1865750" lon="113.2621340">
    <ele>92.8</ele>
    <time>2016-01-03T10:28:55Z</time>
   </trkpt>
   <trkpt lat="35.1867020" lon="113.2620740">
    <ele>93.4</ele>
    <time>2016-01-03T10:29:00Z</time>
   </trkpt>
   <trkpt lat="35.1868470" lon="113.2619530">
    <ele>93.9</ele>
    <time>2016-01-03T10:29:05Z</time>
   </trkpt>
   <trkpt lat="35.1869590" lon="113.2618330">
    <ele>94.6</ele>
    <time>2016-01-03T10:29:10Z</time>
   </trkpt>
   <trkpt lat="35.1869760" lon="113.2616740">
    <ele>95.1</ele>
    <time>2016-01-03T10:29:15Z</time>
   </trkpt>
   <trkpt lat="35.1869530" lon="113.2615750">
    <ele>95.0</ele>
    <time>2016-01-03T10:29:20Z</time>
   </trkpt>
   <trkpt lat="35.1868750" lon="113.2614640">
    <ele>95.1</ele>
    <time>2016-01-03T10:29:25Z</time>
   </trkpt>
   <trkpt lat="35.1867610" lon="113.2613830">
    <ele>94.9</ele>
    <time>2016-01-03T10:29:30Z</time>
   </trkpt>
   <trkpt lat="35.1866570" lon="113.2613260">
    <ele>94.1</ele>
    <time>2016-01-03T10:29:35Z</time>
   </trkpt>
   <trkpt lat="35.1865350" lon="113.2613380">
    <ele>93.1</ele>
    <time>2016-01-03T10:29:40Z</time>
   </trkpt>
   <trkpt lat="35.1864310" lon="113.2613660">
    <ele>92.3</ele>
    <time>2016-01-03T10:29:45Z</time>
   </trkpt>
   <trkpt lat="35.1863130" lon="113.2613940">
    <ele>92.0</ele>
    <time>2016-01-03T10:29:50Z</time>
   </trkpt>
   <trkpt lat="35.1861980" lon="113.2614040">
    <ele>92.1</ele>
    <time>2016-01-03T10:29:55Z</time>
   </trkpt>
   <trkpt lat="35.1860780" lon="113.2614360">
    <ele>91.8</ele>
    <time>2016-01-03T10:30:00Z</time>
   </trkpt>
   <trkpt lat="35.1859720" lon="113.2614410">
    <ele>92.0</ele>
    <time>2016-01-03T10:30:05Z</time>
   </trkpt>
   <trkpt lat="35.1858680" lon="113.2614560">
    <ele>91.9</ele>
    <time>2016-01-03T10:30:10Z</time>
   </trkpt>
   <trkpt lat="35.1857600" lon="113.2614820">
    <ele>92.3</ele>
    <time>2016-01-03T10:30:15Z</time>
   </trkpt>
   <trkpt lat="35.1856780" lon="113.2615340">
    <ele>92.9</ele>
    <time>2016-01-03T10:30:20Z</time>
   </trkpt>
   <trkpt lat="35.1855960" lon="113.2616300">
    <ele>93.0</ele>
    <time>2016-01-03T10:30:25Z</time>
   </trkpt>
   <trkpt lat="35.1855180" lon="113.2617430">
    <ele>93.1</ele>
    <time>2016-01-03T10:30:30Z</time>
   </trkpt>
   <trkpt lat="35.1854910" lon="113.2618380">
    <ele>93.0</ele>
    <time>2016-01-03T10:30:35Z</time>
   </trkpt>
   <trkpt lat="35.1854890" lon="113.2619540">
    <ele>93.0</ele>
    <time>2016-01-03T10:30:40Z</time>
   </trkpt>
   <trkpt lat="35.1855080" lon="113.2621440">
    <ele>92.6</ele>
    <time>2016-01-03T10:30:45Z</time>
   </trkpt>
   <trkpt lat="35.1855730" lon="113.2622620">
    <ele>92.0</ele>
    <time>2016-01-03T10:30:50Z</time>
   </trkpt>
   <trkpt lat="35.1856860" lon="113.2622880">
    <ele>92.0</ele>
    <time>2016-01-03T10:30:55Z</time>
   </trkpt>
   <trkpt lat="35.1857970" lon="113.2622940">
    <ele>92.0</ele>
    <time>2016-01-03T10:31:00Z</time>
   </trkpt>
   <trkpt lat="35.1859220" lon="113.2622790">
    <ele>91.9</ele>
    <time>2016-01-03T10:31:05Z</time>
   </trkpt>
   <trkpt lat="35.1860540" lon="113.2622460">
    <ele>92.9</ele>
    <time>2016-01-03T10:31:10Z</time>
   </trkpt>
   <trkpt lat="35.1861520" lon="113.2622230">
    <ele>93.1</ele>
    <time>2016-01-03T10:31:15Z</time>
   </trkpt>
   <trkpt lat="35.1862660" lon="113.2621830">
    <ele>93.0</ele>
    <time>2016-01-03T10:31:20Z</time>
   </trkpt>
   <trkpt lat="35.1863860" lon="113.2621450">
    <ele>93.1</ele>
    <time>2016-01-03T10:31:25Z</time>
   </trkpt>
   <trkpt lat="35.1865630" lon="113.2621190">
    <ele>92.9</ele>
    <time>2016-01-03T10:31:30Z</time>
   </trkpt>
   <trkpt lat="35.1866470" lon="113.2620940">
    <ele>93.0</ele>
    <time>2016-01-03T10:31:35Z</time>
   </trkpt>
   <trkpt lat="35.1867960" lon="113.2620290">
    <ele>94.0</ele>
    <time>2016-01-03T10:31:40Z</time>
   </trkpt>
   <trkpt lat="35.1868960" lon="113.2619360">
    <ele>93.9</ele>
    <time>2016-01-03T10:31:45Z</time>
   </trkpt>
   <trkpt lat="35.1869790" lon="113.2618000">
    <ele>94.6</ele>
    <time>2016-01-03T10:31:50Z</time>
   </trkpt>
   <trkpt lat="35.1869640" lon="113.2616550">
    <ele>95.1</ele>
    <time>2016-01-03T10:31:55Z</time>
   </trkpt>
   <trkpt lat="35.1868850" lon="113.2614970">
    <ele>95.1</ele>
    <time>2016-01-03T10:32:00Z</time>
   </trkpt>
   <trkpt lat="35.1867790" lon="113.2614060">
    <ele>95.0</ele>
    <time>2016-01-03T10:32:05Z</time>
   </trkpt>
   <trkpt lat="35.1866790" lon="113.2613690">
    <ele>94.1</ele>
    <time>2016-01-03T10:32:10Z</time>
   </trkpt>
   <trkpt lat="35.1865760" lon="113.2613720">
    <ele>93.4</ele>
    <time>2016-01-03T10:32:15Z</time>
   </trkpt>
   <trkpt lat="35.1864570" lon="113.2613870">
    <ele>92.6</ele>
    <time>2016-01-03T10:32:20Z</time>
   </trkpt>
   <trkpt lat="35.1863270" lon="113.2613970">
    <ele>92.0</ele>
    <time>2016-01-03T10:32:25Z</time>
   </trkpt>
   <trkpt lat="35.1862000" lon="113.2614170">
    <ele>91.8</ele>
    <time>2016-01-03T10:32:30Z</time>
   </trkpt>
   <trkpt lat="35.1860980" lon="113.2614270">
    <ele>91.8</ele>
    <time>2016-01-03T10:32:35Z</time>
   </trkpt>
   <trkpt lat="35.1859500" lon="113.2614400">
    <ele>92.0</ele>
    <time>2016-01-03T10:32:40Z</time>
   </trkpt>
   <trkpt lat="35.1858280" lon="113.2614590">
    <ele>91.9</ele>
    <time>2016-01-03T10:32:45Z</time>
   </trkpt>
   <trkpt lat="35.1857320" lon="113.2614780">
    <ele>92.6</ele>
    <time>2016-01-03T10:32:50Z</time>
   </trkpt>
   <trkpt lat="35.1856110" lon="113.2615510">
    <ele>93.0</ele>
    <time>2016-01-03T10:32:55Z</time>
   </trkpt>
   <trkpt lat="35.1855270" lon="113.2616550">
    <ele>93.0</ele>
    <time>2016-01-03T10:33:00Z</time>
   </trkpt>
   <trkpt lat="35.1854620" lon="113.2617600">
    <ele>93.2</ele>
    <time>2016-01-03T10:33:05Z</time>
   </trkpt>
   <trkpt lat="35.1854460" lon="113.2618780">
    <ele>93.0</ele>
    <time>2016-01-03T10:33:10Z</time>
   </trkpt>
   <trkpt lat="35.1854450" lon="113.2620030">
    <ele>92.8</ele>
    <time>2016-01-03T10:33:15Z</time>
   </trkpt>
   <trkpt lat="35.1855140" lon="113.2621180">
    <ele>92.9</ele>
    <time>2016-01-03T10:33:20Z</time>
   </trkpt>
   <trkpt lat="35.1856010" lon="113.2622270">
    <ele>92.0</ele>
    <time>2016-01-03T10:33:25Z</time>
   </trkpt>
   <trkpt lat="35.1856980" lon="113.2622690">
    <ele>92.0</ele>
    <time>2016-01-03T10:33:30Z</time>
   </trkpt>
   <trkpt lat="35.1858130" lon="113.2622990">
    <ele>92.0</ele>
    <time>2016-01-03T10:33:35Z</time>
   </trkpt>
   <trkpt lat="35.1859390" lon="113.2622750">
    <ele>91.9</ele>
    <time>2016-01-03T10:33:40Z</time>
   </trkpt>
   <trkpt lat="35.1860440" lon="113.2622650">
    <ele>92.7</ele>
    <time>2016-01-03T10:33:45Z</time>
   </trkpt>
   <trkpt lat="35.1861400" lon="113.2622430">
    <ele>93.1</ele>
    <time>2016-01-03T10:33:50Z</time>
   </trkpt>
   <trkpt lat="35.1862290" lon="113.2622270">
    <ele>93.0</ele>
    <time>2016-01-03T10:33:55Z</time>
   </trkpt>
   <trkpt lat="35.1863260" lon="113.2622060">
    <ele>93.0</ele>
    <time>2016-01-03T10:34:00Z</time>
   </trkpt>
   <trkpt lat="35.1864330" lon="113.2621710">
    <ele>93.1</ele>
    <time>2016-01-03T10:34:05Z</time>
   </trkpt>
   <trkpt lat="35.1865480" lon="113.2621380">
    <ele>92.8</ele>
    <time>2016-01-03T10:34:10Z</time>
   </trkpt>
   <trkpt lat="35.1866600" lon="113.2620850">
    <ele>93.2</ele>
    <time>2016-01-03T10:34:15Z</time>
   </trkpt>
   <trkpt lat="35.1867540" lon="113.2619960">
    <ele>93.9</ele>
    <time>2016-01-03T10:34:20Z</time>
   </trkpt>
   <trkpt lat="35.1868470" lon="113.2618920">
    <ele>94.1</ele>
    <time>2016-01-03T10:34:25Z</time>
   </trkpt>
   <trkpt lat="35.1869720" lon="113.2617310">
    <ele>95.0</ele>
    <time>2016-01-03T10:34:30Z</time>
   </trkpt>
   <trkpt lat="35.1869790" lon="113.2615880">
    <ele>95.0</ele>
    <time>2016-01-03T10:34:35Z</time>
   </trkpt>
   <trkpt lat="35.1869100" lon="113.2614580">
    <ele>95.0</ele>
    <time>2016-01-03T10:34:40Z</time>
   </trkpt>
   <trkpt lat="35.1868000" lon="113.2613870">
    <ele>95.0</ele>
    <time>2016-01-03T10:34:45Z</time>
   </trkpt>
   <trkpt lat="35.1866790" lon="113.2613220">
    <ele>94.1</ele>
    <time>2016-01-03T10:34:50Z</time>
   </trkpt>
   <trkpt lat="35.1865620" lon="113.2613420">
    <ele>93.4</ele>
    <time>2016-01-03T10:34:55Z</time>
   </trkpt>
   <trkpt lat="35.1864480" lon="113.2613740">
    <ele>92.6</ele>
    <time>2016-01-03T10:35:00Z</time>
   </trkpt>
   <trkpt lat="35.1863680" lon="113.2614160">
    <ele>92.0</ele>
    <time>2016-01-03T10:35:05Z</time>
   </trkpt>
   <trkpt lat="35.1862480" lon="113.2614270">
    <ele>91.8</ele>
    <time>2016-01-03T10:35:10Z</time>
   </trkpt>
   <trkpt lat="35.1861340" lon="113.2614390">
    <ele>91.8</ele>
    <time>2016-01-03T10:35:15Z</time>
   </trkpt>
   <trkpt lat="35.1860000" lon="113.2614800">
    <ele>91.9</ele>
    <time>2016-01-03T10:35:20Z</time>
   </trkpt>
   <trkpt lat="35.1859430" lon="113.2614760">
    <ele>92.0</ele>
    <time>2016-01-03T10:35:25Z</time>
   </trkpt>
   <trkpt lat="35.1859150" lon="113.2614680">
    <ele>92.0</ele>
    <time>2016-01-03T10:35:30Z</time>
   </trkpt>
   <trkpt lat="35.1858010" lon="113.2615200">
    <ele>92.1</ele>
    <time>2016-01-03T10:35:35Z</time>
   </trkpt>
   <trkpt lat="35.1857140" lon="113.2615750">
    <ele>92.6</ele>
    <time>2016-01-03T10:35:40Z</time>
   </trkpt>
   <trkpt lat="35.1856210" lon="113.2616880">
    <ele>93.0</ele>
    <time>2016-01-03T10:35:45Z</time>
   </trkpt>
   <trkpt lat="35.1855630" lon="113.2617690">
    <ele>93.0</ele>
    <time>2016-01-03T10:35:50Z</time>
   </trkpt>
   <trkpt lat="35.1854810" lon="113.2618330">
    <ele>93.1</ele>
    <time>2016-01-03T10:35:55Z</time>
   </trkpt>
   <trkpt lat="35.1854710" lon="113.2618330">
    <ele>93.1</ele>
    <time>2016-01-03T10:36:00Z</time>
   </trkpt>
   <trkpt lat="35.1854700" lon="113.2618330">
    <ele>93.1</ele>
    <time>2016-01-03T10:36:05Z</time>
   </trkpt>
   <trkpt lat="35.1854700" lon="113.2618320">
    <ele>93.1</ele>
    <time>2016-01-03T10:36:05Z</time>
   </trkpt>
   <trkpt lat="35.1855730" lon="113.2618880">
    <ele>93.1</ele>
    <time>2016-01-03T10:44:04Z</time>
   </trkpt>
   <trkpt lat="35.1855510" lon="113.2619880">
    <ele>93.1</ele>
    <time>2016-01-03T10:44:09Z</time>
   </trkpt>
   <trkpt lat="35.1856030" lon="113.2621300">
    <ele>92.3</ele>
    <time>2016-01-03T10:44:14Z</time>
   </trkpt>
   <trkpt lat="35.1857010" lon="113.2622340">
    <ele>92.0</ele>
    <time>2016-01-03T10:44:19Z</time>
   </trkpt>
   <trkpt lat="35.1858020" lon="113.2622740">
    <ele>92.0</ele>
    <time>2016-01-03T10:44:24Z</time>
   </trkpt>
   <trkpt lat="35.1859310" lon="113.2622730">
    <ele>91.9</ele>
    <time>2016-01-03T10:44:29Z</time>
   </trkpt>
   <trkpt lat="35.1860690" lon="113.2622450">
    <ele>92.9</ele>
    <time>2016-01-03T10:44:34Z</time>
   </trkpt>
   <trkpt lat="35.1861850" lon="113.2622320">
    <ele>93.1</ele>
    <time>2016-01-03T10:44:39Z</time>
   </trkpt>
   <trkpt lat="35.1863020" lon="113.2622220">
    <ele>93.0</ele>
    <time>2016-01-03T10:44:44Z</time>
   </trkpt>
   <trkpt lat="35.1864350" lon="113.2622040">
    <ele>93.1</ele>
    <time>2016-01-03T10:44:49Z</time>
   </trkpt>
   <trkpt lat="35.1865360" lon="113.2622080">
    <ele>92.9</ele>
    <time>2016-01-03T10:44:54Z</time>
   </trkpt>
   <trkpt lat="35.1867010" lon="113.2621170">
    <ele>93.3</ele>
    <time>2016-01-03T10:44:59Z</time>
   </trkpt>
   <trkpt lat="35.1868040" lon="113.2620330">
    <ele>94.0</ele>
    <time>2016-01-03T10:45:04Z</time>
   </trkpt>
   <trkpt lat="35.1868420" lon="113.2619020">
    <ele>94.1</ele>
    <time>2016-01-03T10:45:09Z</time>
   </trkpt>
   <trkpt lat="35.1868520" lon="113.2617560">
    <ele>95.0</ele>
    <time>2016-01-03T10:45:14Z</time>
   </trkpt>
   <trkpt lat="35.1868430" lon="113.2616550">
    <ele>95.2</ele>
    <time>2016-01-03T10:45:19Z</time>
   </trkpt>
   <trkpt lat="35.1867840" lon="113.2615170">
    <ele>95.0</ele>
    <time>2016-01-03T10:45:24Z</time>
   </trkpt>
   <trkpt lat="35.1867190" lon="113.2614220">
    <ele>94.8</ele>
    <time>2016-01-03T10:45:29Z</time>
   </trkpt>
   <trkpt lat="35.1866070" lon="113.2613720">
    <ele>93.6</ele>
    <time>2016-01-03T10:45:34Z</time>
   </trkpt>
   <trkpt lat="35.1865040" lon="113.2613490">
    <ele>92.9</ele>
    <time>2016-01-03T10:45:39Z</time>
   </trkpt>
   <trkpt lat="35.1863920" lon="113.2613840">
    <ele>92.1</ele>
    <time>2016-01-03T10:45:44Z</time>
   </trkpt>
   <trkpt lat="35.1862820" lon="113.2613800">
    <ele>92.0</ele>
    <time>2016-01-03T10:45:49Z</time>
   </trkpt>
   <trkpt lat="35.1861880" lon="113.2613960">
    <ele>92.1</ele>
    <time>2016-01-03T10:45:54Z</time>
   </trkpt>
   <trkpt lat="35.1860670" lon="113.2614100">
    <ele>91.8</ele>
    <time>2016-01-03T10:45:59Z</time>
   </trkpt>
   <trkpt lat="35.1859420" lon="113.2614360">
    <ele>92.0</ele>
    <time>2016-01-03T10:46:04Z</time>
   </trkpt>
   <trkpt lat="35.1858300" lon="113.2614820">
    <ele>91.9</ele>
    <time>2016-01-03T10:46:09Z</time>
   </trkpt>
   <trkpt lat="35.1857320" lon="113.2615320">
    <ele>92.6</ele>
    <time>2016-01-03T10:46:14Z</time>
   </trkpt>
   <trkpt lat="35.1856420" lon="113.2616270">
    <ele>93.0</ele>
    <time>2016-01-03T10:46:19Z</time>
   </trkpt>
   <trkpt lat="35.1855620" lon="113.2617470">
    <ele>93.0</ele>
    <time>2016-01-03T10:46:24Z</time>
   </trkpt>
   <trkpt lat="35.1855020" lon="113.2618650">
    <ele>93.0</ele>
    <time>2016-01-03T10:46:29Z</time>
   </trkpt>
   <trkpt lat="35.1855010" lon="113.2619980">
    <ele>93.1</ele>
    <time>2016-01-03T10:46:34Z</time>
   </trkpt>
   <trkpt lat="35.1855530" lon="113.2621150">
    <ele>92.8</ele>
    <time>2016-01-03T10:46:39Z</time>
   </trkpt>
   <trkpt lat="35.1855940" lon="113.2621900">
    <ele>92.2</ele>
    <time>2016-01-03T10:46:44Z</time>
   </trkpt>
   <trkpt lat="35.1856600" lon="113.2622460">
    <ele>92.0</ele>
    <time>2016-01-03T10:46:49Z</time>
   </trkpt>
   <trkpt lat="35.1857430" lon="113.2622900">
    <ele>92.0</ele>
    <time>2016-01-03T10:46:54Z</time>
   </trkpt>
   <trkpt lat="35.1858740" lon="113.2622790">
    <ele>91.9</ele>
    <time>2016-01-03T10:46:59Z</time>
   </trkpt>
   <trkpt lat="35.1859910" lon="113.2622830">
    <ele>92.4</ele>
    <time>2016-01-03T10:47:04Z</time>
   </trkpt>
   <trkpt lat="35.1861230" lon="113.2622590">
    <ele>93.1</ele>
    <time>2016-01-03T10:47:09Z</time>
   </trkpt>
   <trkpt lat="35.1862280" lon="113.2622350">
    <ele>93.0</ele>
    <time>2016-01-03T10:47:14Z</time>
   </trkpt>
   <trkpt lat="35.1863640" lon="113.2622200">
    <ele>93.0</ele>
    <time>2016-01-03T10:47:19Z</time>
   </trkpt>
   <trkpt lat="35.1864910" lon="113.2622140">
    <ele>93.0</ele>
    <time>2016-01-03T10:47:24Z</time>
   </trkpt>
   <trkpt lat="35.1865980" lon="113.2621820">
    <ele>92.8</ele>
    <time>2016-01-03T10:47:29Z</time>
   </trkpt>
   <trkpt lat="35.1867190" lon="113.2621440">
    <ele>93.6</ele>
    <time>2016-01-03T10:47:34Z</time>
   </trkpt>
   <trkpt lat="35.1868240" lon="113.2620820">
    <ele>94.1</ele>
    <time>2016-01-03T10:47:39Z</time>
   </trkpt>
   <trkpt lat="35.1868910" lon="113.2619990">
    <ele>93.9</ele>
    <time>2016-01-03T10:47:44Z</time>
   </trkpt>
   <trkpt lat="35.1869340" lon="113.2618790">
    <ele>94.1</ele>
    <time>2016-01-03T10:47:49Z</time>
   </trkpt>
   <trkpt lat="35.1869330" lon="113.2617520">
    <ele>94.9</ele>
    <time>2016-01-03T10:47:54Z</time>
   </trkpt>
   <trkpt lat="35.1869200" lon="113.2616280">
    <ele>95.1</ele>
    <time>2016-01-03T10:47:59Z</time>
   </trkpt>
   <trkpt lat="35.1868430" lon="113.2615010">
    <ele>95.1</ele>
    <time>2016-01-03T10:48:04Z</time>
   </trkpt>
   <trkpt lat="35.1867890" lon="113.2614240">
    <ele>95.1</ele>
    <time>2016-01-03T10:48:09Z</time>
   </trkpt>
   <trkpt lat="35.1867010" lon="113.2613560">
    <ele>94.3</ele>
    <time>2016-01-03T10:48:14Z</time>
   </trkpt>
   <trkpt lat="35.1865840" lon="113.2613380">
    <ele>93.6</ele>
    <time>2016-01-03T10:48:19Z</time>
   </trkpt>
   <trkpt lat="35.1865150" lon="113.2613530">
    <ele>93.1</ele>
    <time>2016-01-03T10:48:24Z</time>
   </trkpt>
   <trkpt lat="35.1864210" lon="113.2613560">
    <ele>92.5</ele>
    <time>2016-01-03T10:48:29Z</time>
   </trkpt>
   <trkpt lat="35.1862960" lon="113.2613610">
    <ele>92.3</ele>
    <time>2016-01-03T10:48:34Z</time>
   </trkpt>
   <trkpt lat="35.1861870" lon="113.2613880">
    <ele>92.1</ele>
    <time>2016-01-03T10:48:39Z</time>
   </trkpt>
   <trkpt lat="35.1860860" lon="113.2614180">
    <ele>91.8</ele>
    <time>2016-01-03T10:48:44Z</time>
   </trkpt>
   <trkpt lat="35.1859480" lon="113.2614490">
    <ele>92.0</ele>
    <time>2016-01-03T10:48:49Z</time>
   </trkpt>
   <trkpt lat="35.1858670" lon="113.2614620">
    <ele>91.9</ele>
    <time>2016-01-03T10:48:54Z</time>
   </trkpt>
   <trkpt lat="35.1857800" lon="113.2614740">
    <ele>92.1</ele>
    <time>2016-01-03T10:48:59Z</time>
   </trkpt>
   <trkpt lat="35.1856780" lon="113.2615250">
    <ele>92.9</ele>
    <time>2016-01-03T10:49:04Z</time>
   </trkpt>
   <trkpt lat="35.1856170" lon="113.2616100">
    <ele>93.0</ele>
    <time>2016-01-03T10:49:09Z</time>
   </trkpt>
   <trkpt lat="35.1855470" lon="113.2617500">
    <ele>93.0</ele>
    <time>2016-01-03T10:49:14Z</time>
   </trkpt>
   <trkpt lat="35.1855240" lon="113.2618810">
    <ele>93.0</ele>
    <time>2016-01-03T10:49:19Z</time>
   </trkpt>
   <trkpt lat="35.1854620" lon="113.2619750">
    <ele>92.9</ele>
    <time>2016-01-03T10:49:24Z</time>
   </trkpt>
  </trkseg>
 </trk>
</gpx>
