<?xml version="1.0" encoding="UTF-8"?>
<gpx creator="StravaGPX" version="1.1" xmlns="http://www.topografix.com/GPX/1/1" xmlns:xsi="http://www.w3.org/2001/XMLSchema-instance" xsi:schemaLocation="http://www.topografix.com/GPX/1/1 http://www.topografix.com/GPX/1/1/gpx.xsd">
 <metadata>
  <time>2024-07-09T02:37:58Z</time>
 </metadata>
 <trk>
  <name>Ride</name>
  <type>cycling</type>
  <trkseg>
   <trkpt lat="35.2803270" lon="113.9093000">
    <ele>70.6</ele>
    <time>2024-07-09T02:37:58Z</time>
   </trkpt>
   <trkpt lat="35.2803100" lon="113.9092680">
    <ele>70.4</ele>
    <time>2024-07-09T02:38:00Z</time>
   </trkpt>
   <trkpt lat="35.2803040" lon="113.9092660">
    <ele>69.9</ele>
    <time>2024-07-09T02:38:02Z</time>
   </trkpt>
   <trkpt lat="35.2802990" lon="113.9092630">
    <ele>69.9</ele>
    <time>2024-07-09T02:38:04Z</time>
   </trkpt>
   <trkpt lat="35.2802930" lon="113.9092610">
    <ele>69.9</ele>
    <time>2024-07-09T02:38:05Z</time>
   </trkpt>
   <trkpt lat="35.2802880" lon="113.9092590">
    <ele>69.9</ele>
    <time>2024-07-09T02:38:06Z</time>
   </trkpt>
   <trkpt lat="35.2802820" lon="113.9092570">
    <ele>69.9</ele>
    <time>2024-07-09T02:38:07Z</time>
   </trkpt>
   <trkpt lat="35.2802770" lon="113.9092540">
    <ele>69.8</ele>
    <time>2024-07-09T02:38:08Z</time>
   </trkpt>
   <trkpt lat="35.2802710" lon="113.9092520">
    <ele>69.5</ele>
    <time>2024-07-09T02:38:10Z</time>
   </trkpt>
   <trkpt lat="35.2802660" lon="113.9092500">
    <ele>69.5</ele>
    <time>2024-07-09T02:38:10Z</time>
   </trkpt>
   <trkpt lat="35.2802660" lon="113.9092500">
    <ele>69.5</ele>
    <time>2024-07-09T02:38:10Z</time>
   </trkpt>
   <trkpt lat="35.2802660" lon="113.9092500">
    <ele>69.5</ele>
    <time>2024-07-09T02:38:10Z</time>
   </trkpt>
   <trkpt lat="35.2802930" lon="113.9094900">
    <ele>71.5</ele>
    <time>2024-07-09T02:38:35Z</time>
   </trkpt>
   <trkpt lat="35.2802900" lon="113.9095600">
    <ele>72.1</ele>
    <time>2024-07-09T02:38:37Z</time>
   </trkpt>
   <trkpt lat="35.2802930" lon="113.9096300">
    <ele>72.3</ele>
    <time>2024-07-09T02:38:39Z</time>
   </trkpt>
   <trkpt lat="35.2802850" lon="113.9097000">
    <ele>72.4</ele>
    <time>2024-07-09T02:38:41Z</time>
   </trkpt>
   <trkpt lat="35.2802730" lon="113.9097700">
    <ele>71.9</ele>
    <time>2024-07-09T02:38:43Z</time>
   </trkpt>
   <trkpt lat="35.2802700" lon="113.9098400">
    <ele>71.5</ele>
    <time>2024-07-09T02:38:45Z</time>
   </trkpt>
   <trkpt lat="35.2802700" lon="113.9099100">
    <ele>70.6</ele>
    <time>2024-07-09T02:38:47Z</time>
   </trkpt>
   <trkpt lat="35.2802700" lon="113.9099500">
    <ele>70.2</ele>
    <time>2024-07-09T02:38:48Z</time>
   </trkpt>
   <trkpt lat="35.2802700" lon="113.9099900">
    <ele>70.0</ele>
    <time>2024-07-09T02:38:49Z</time>
   </trkpt>
   <trkpt lat="35.2802700" lon="113.9100200">
    <ele>70.0</ele>
    <time>2024-07-09T02:38:50Z</time>
   </trkpt>
   <trkpt lat="35.2802700" lon="113.9100600">
    <ele>69.8</ele>
    <time>2024-07-09T02:38:51Z</time>
   </trkpt>
   <trkpt lat="35.2802700" lon="113.9100950">
    <ele>69.6</ele>
    <time>2024-07-09T02:38:52Z</time>
   </trkpt>
   <trkpt lat="35.2802700" lon="113.9101260">
    <ele>69.5</ele>
    <time>2024-07-09T02:38:53Z</time>
   </trkpt>
   <trkpt lat="35.2802660" lon="113.9101640">
    <ele>69.5</ele>
    <time>2024-07-09T02:38:54Z</time>
   </trkpt>
   <trkpt lat="35.2802660" lon="113.9101940">
    <ele>69.5</ele>
    <time>2024-07-09T02:38:55Z</time>
   </trkpt>
   <trkpt lat="35.2802620" lon="113.9102250">
    <ele>69.5</ele>
    <time>2024-07-09T02:38:56Z</time>
   </trkpt>
   <trkpt lat="35.2802620" lon="113.9102550">
    <ele>69.5</ele>
    <time>2024-07-09T02:38:57Z</time>
   </trkpt>
   <trkpt lat="35.2802620" lon="113.9102860">
    <ele>69.6</ele>
    <time>2024-07-09T02:38:58Z</time>
   </trkpt>
   <trkpt lat="35.2802620" lon="113.9103200">
    <ele>69.6</ele>
    <time>2024-07-09T02:38:59Z</time>
   </trkpt>
   <trkpt lat="35.2802660" lon="113.9103500">
    <ele>69.7</ele>
    <time>2024-07-09T02:39:00Z</time>
   </trkpt>
   <trkpt lat="35.2802660" lon="113.9103800">
    <ele>69.8</ele>
    <time>2024-07-09T02:39:01Z</time>
   </trkpt>
   <trkpt lat="35.2802660" lon="113.9104100">
    <ele>69.8</ele>
    <time>2024-07-09T02:39:02Z</time>
   </trkpt>
   <trkpt lat="35.2802670" lon="113.9104230">
    <ele>69.8</ele>
    <time>2024-07-09T02:39:03Z</time>
   </trkpt>
   <trkpt lat="35.2802670" lon="113.9104270">
    <ele>69.8</ele>
    <time>2024-07-09T02:39:04Z</time>
   </trkpt>
   <trkpt lat="35.2802680" lon="113.9104300">
    <ele>69.8</ele>
    <time>2024-07-09T02:39:05Z</time>
   </trkpt>
   <trkpt lat="35.2802690" lon="113.9104330">
    <ele>69.8</ele>
    <time>2024-07-09T02:39:06Z</time>
   </trkpt>
   <trkpt lat="35.2802690" lon="113.9104370">
    <ele>69.8</ele>
    <time>2024-07-09T02:39:07Z</time>
   </trkpt>
   <trkpt lat="35.2802700" lon="113.9104400">
    <ele>69.8</ele>
    <time>2024-07-09T02:39:07Z</time>
   </trkpt>
   <trkpt lat="35.2802700" lon="113.9104400">
    <ele>69.8</ele>
    <time>2024-07-09T02:39:07Z</time>
   </trkpt>
   <trkpt lat="35.2802700" lon="113.9104400">
    <ele>69.8</ele>
    <time>2024-07-09T02:39:07Z</time>
   </trkpt>
   <trkpt lat="35.2803040" lon="113.9106200">
    <ele>69.2</ele>
    <time>2024-07-09T02:39:19Z</time>
   </trkpt>
   <trkpt lat="35.2803040" lon="113.9106500">
    <ele>69.1</ele>
    <time>2024-07-09T02:39:20Z</time>
   </trkpt>
   <trkpt lat="35.2803040" lon="113.9106750">
    <ele>69.1</ele>
    <time>2024-07-09T02:39:21Z</time>
   </trkpt>
   <trkpt lat="35.2803080" lon="113.9107000">
    <ele>69.1</ele>
    <time>2024-07-09T02:39:22Z</time>
   </trkpt>
   <trkpt lat="35.2803150" lon="113.9107300">
    <ele>69.1</ele>
    <time>2024-07-09T02:39:23Z</time>
   </trkpt>
   <trkpt lat="35.2803200" lon="113.9107600">
    <ele>69.1</ele>
    <time>2024-07-09T02:39:24Z</time>
   </trkpt>
   <trkpt lat="35.2803150" lon="113.9107900">
    <ele>69.1</ele>
    <time>2024-07-09T02:39:25Z</time>
   </trkpt>
   <trkpt lat="35.2803100" lon="113.9108200">
    <ele>69.1</ele>
    <time>2024-07-09T02:39:26Z</time>
   </trkpt>
   <trkpt lat="35.2803080" lon="113.9108500">
    <ele>69.2</ele>
    <time>2024-07-09T02:39:27Z</time>
   </trkpt>
   <trkpt lat="35.2803040" lon="113.9108900">
    <ele>69.3</ele>
    <time>2024-07-09T02:39:28Z</time>
   </trkpt>
   <trkpt lat="35.2803040" lon="113.9109200">
    <ele>69.3</ele>
    <time>2024-07-09T02:39:29Z</time>
   </trkpt>
   <trkpt lat="35.2803000" lon="113.9109600">
    <ele>69.3</ele>
    <time>2024-07-09T02:39:30Z</time>
   </trkpt>
   <trkpt lat="35.2803000" lon="113.9109950">
    <ele>69.3</ele>
    <time>2024-07-09T02:39:31Z</time>
   </trkpt>
   <trkpt lat="35.2802960" lon="113.9110300">
    <ele>69.3</ele>
    <time>2024-07-09T02:39:32Z</time>
   </trkpt>
   <trkpt lat="35.2802850" lon="113.9111000">
    <ele>69.2</ele>
    <time>2024-07-09T02:39:34Z</time>
   </trkpt>
   <trkpt lat="35.2802850" lon="113.9111700">
    <ele>69.2</ele>
    <time>2024-07-09T02:39:36Z</time>
   </trkpt>
   <trkpt lat="35.2802900" lon="113.9112100">
    <ele>69.3</ele>
    <time>2024-07-09T02:39:37Z</time>
   </trkpt>
   <trkpt lat="35.2802930" lon="113.9112400">
    <ele>69.3</ele>
    <time>2024-07-09T02:39:38Z</time>
   </trkpt>
   <trkpt lat="35.2802960" lon="113.9112700">
    <ele>69.3</ele>
    <time>2024-07-09T02:39:39Z</time>
   </trkpt>
   <trkpt lat="35.2803080" lon="113.9113000">
    <ele>69.3</ele>
    <time>2024-07-09T02:39:40Z</time>
   </trkpt>
   <trkpt lat="35.2803300" lon="113.9113200">
    <ele>69.1</ele>
    <time>2024-07-09T02:39:41Z</time>
   </trkpt>
   <trkpt lat="35.2803600" lon="113.9113200">
    <ele>69.0</ele>
    <time>2024-07-09T02:39:42Z</time>
   </trkpt>
   <trkpt lat="35.2803880" lon="113.9113300">
    <ele>69.0</ele>
    <time>2024-07-09T02:39:43Z</time>
   </trkpt>
   <trkpt lat="35.2804100" lon="113.9113300">
    <ele>69.0</ele>
    <time>2024-07-09T02:39:44Z</time>
   </trkpt>
   <trkpt lat="35.2804370" lon="113.9113400">
    <ele>69.0</ele>
    <time>2024-07-09T02:39:45Z</time>
   </trkpt>
   <trkpt lat="35.2804640" lon="113.9113500">
    <ele>69.2</ele>
    <time>2024-07-09T02:39:46Z</time>
   </trkpt>
   <trkpt lat="35.2804900" lon="113.9113540">
    <ele>69.4</ele>
    <time>2024-07-09T02:39:47Z</time>
   </trkpt>
   <trkpt lat="35.2805140" lon="113.9113600">
    <ele>69.3</ele>
    <time>2024-07-09T02:39:48Z</time>
   </trkpt>
   <trkpt lat="35.2805370" lon="113.9113700">
    <ele>69.6</ele>
    <time>2024-07-09T02:39:49Z</time>
   </trkpt>
   <trkpt lat="35.2805560" lon="113.9113900">
    <ele>70.0</ele>
    <time>2024-07-09T02:39:50Z</time>
   </trkpt>
   <trkpt lat="35.2805670" lon="113.9114200">
    <ele>69.9</ele>
    <time>2024-07-09T02:39:51Z</time>
   </trkpt>
   <trkpt lat="35.2805670" lon="113.9114500">
    <ele>69.8</ele>
    <time>2024-07-09T02:39:52Z</time>
   </trkpt>
   <trkpt lat="35.2805670" lon="113.9114800">
    <ele>69.8</ele>
    <time>2024-07-09T02:39:53Z</time>
   </trkpt>
   <trkpt lat="35.2805670" lon="113.9115100">
    <ele>69.8</ele>
    <time>2024-07-09T02:39:54Z</time>
   </trkpt>
   <trkpt lat="35.2805670" lon="113.9115400">
    <ele>69.9</ele>
    <time>2024-07-09T02:39:55Z</time>
   </trkpt>
   <trkpt lat="35.2805700" lon="113.9115700">
    <ele>69.9</ele>
    <time>2024-07-09T02:39:56Z</time>
   </trkpt>
   <trkpt lat="35.2805700" lon="113.9116000">
    <ele>70.0</ele>
    <time>2024-07-09T02:39:57Z</time>
   </trkpt>
   <trkpt lat="35.2805670" lon="113.9116200">
    <ele>70.0</ele>
    <time>2024-07-09T02:39:58Z</time>
   </trkpt>
   <trkpt lat="35.2805670" lon="113.9116440">
    <ele>70.0</ele>
    <time>2024-07-09T02:39:59Z</time>
   </trkpt>
   <trkpt lat="35.2805700" lon="113.9116740">
    <ele>70.1</ele>
    <time>2024-07-09T02:40:00Z</time>
   </trkpt>
   <trkpt lat="35.2805700" lon="113.9117000">
    <ele>70.1</ele>
    <time>2024-07-09T02:40:01Z</time>
   </trkpt>
   <trkpt lat="35.2805750" lon="113.9117300">
    <ele>70.1</ele>
    <time>2024-07-09T02:40:02Z</time>
   </trkpt>
   <trkpt lat="35.2805750" lon="113.9117600">
    <ele>70.1</ele>
    <time>2024-07-09T02:40:03Z</time>
   </trkpt>
   <trkpt lat="35.2805750" lon="113.9118000">
    <ele>70.1</ele>
    <time>2024-07-09T02:40:04Z</time>
   </trkpt>
   <trkpt lat="35.2805800" lon="113.9118300">
    <ele>70.1</ele>
    <time>2024-07-09T02:40:05Z</time>
   </trkpt>
   <trkpt lat="35.2805800" lon="113.9118600">
    <ele>70.1</ele>
    <time>2024-07-09T02:40:06Z</time>
   </trkpt>
   <trkpt lat="35.2805800" lon="113.9118960">
    <ele>70.0</ele>
    <time>2024-07-09T02:40:07Z</time>
   </trkpt>
   <trkpt lat="35.2805800" lon="113.9119300">
    <ele>70.0</ele>
    <time>2024-07-09T02:40:08Z</time>
   </trkpt>
   <trkpt lat="35.2805800" lon="113.9119500">
    <ele>70.0</ele>
    <time>2024-07-09T02:40:09Z</time>
   </trkpt>
   <trkpt lat="35.2805820" lon="113.9119800">
    <ele>70.0</ele>
    <time>2024-07-09T02:40:10Z</time>
   </trkpt>
   <trkpt lat="35.2805800" lon="113.9120000">
    <ele>70.0</ele>
    <time>2024-07-09T02:40:11Z</time>
   </trkpt>
   <trkpt lat="35.2805670" lon="113.9120250">
    <ele>70.1</ele>
    <time>2024-07-09T02:40:12Z</time>
   </trkpt>
   <trkpt lat="35.2805560" lon="113.9120500">
    <ele>70.4</ele>
    <time>2024-07-09T02:40:13Z</time>
   </trkpt>
   <trkpt lat="35.2805440" lon="113.9120700">
    <ele>70.2</ele>
    <time>2024-07-09T02:40:14Z</time>
   </trkpt>
   <trkpt lat="35.2805330" lon="113.9120940">
    <ele>70.4</ele>
    <time>2024-07-09T02:40:15Z</time>
   </trkpt>
   <trkpt lat="35.2805250" lon="113.9121200">
    <ele>70.4</ele>
    <time>2024-07-09T02:40:16Z</time>
   </trkpt>
   <trkpt lat="35.2805200" lon="113.9121400">
    <ele>70.5</ele>
    <time>2024-07-09T02:40:17Z</time>
   </trkpt>
   <trkpt lat="35.2805250" lon="113.9121550">
    <ele>70.5</ele>
    <time>2024-07-09T02:40:18Z</time>
   </trkpt>
   <trkpt lat="35.2805200" lon="113.9121800">
    <ele>70.7</ele>
    <time>2024-07-09T02:40:19Z</time>
   </trkpt>
   <trkpt lat="35.2805140" lon="113.9121900">
    <ele>70.4</ele>
    <time>2024-07-09T02:40:20Z</time>
   </trkpt>
   <trkpt lat="35.2805020" lon="113.9122100">
    <ele>70.4</ele>
    <time>2024-07-09T02:40:21Z</time>
   </trkpt>
   <trkpt lat="35.2804870" lon="113.9122100">
    <ele>70.5</ele>
    <time>2024-07-09T02:40:22Z</time>
   </trkpt>
   <trkpt lat="35.2804640" lon="113.9122000">
    <ele>70.5</ele>
    <time>2024-07-09T02:40:23Z</time>
   </trkpt>
   <trkpt lat="35.2804370" lon="113.9121900">
    <ele>70.5</ele>
    <time>2024-07-09T02:40:24Z</time>
   </trkpt>
   <trkpt lat="35.2804100" lon="113.9121860">
    <ele>70.6</ele>
    <time>2024-07-09T02:40:25Z</time>
   </trkpt>
   <trkpt lat="35.2803840" lon="113.9121800">
    <ele>70.6</ele>
    <time>2024-07-09T02:40:26Z</time>
   </trkpt>
   <trkpt lat="35.2803540" lon="113.9121800">
    <ele>70.6</ele>
    <time>2024-07-09T02:40:27Z</time>
   </trkpt>
   <trkpt lat="35.2803270" lon="113.9121700">
    <ele>70.7</ele>
    <time>2024-07-09T02:40:28Z</time>
   </trkpt>
   <trkpt lat="35.2802960" lon="113.9121700">
    <ele>70.7</ele>
    <time>2024-07-09T02:40:29Z</time>
   </trkpt>
   <trkpt lat="35.2802700" lon="113.9121600">
    <ele>70.7</ele>
    <time>2024-07-09T02:40:30Z</time>
   </trkpt>
   <trkpt lat="35.2802430" lon="113.9121550">
    <ele>70.8</ele>
    <time>2024-07-09T02:40:31Z</time>
   </trkpt>
   <trkpt lat="35.2802120" lon="113.9121550">
    <ele>70.9</ele>
    <time>2024-07-09T02:40:32Z</time>
   </trkpt>
   <trkpt lat="35.2801800" lon="113.9121500">
    <ele>70.9</ele>
    <time>2024-07-09T02:40:33Z</time>
   </trkpt>
   <trkpt lat="35.2801480" lon="113.9121400">
    <ele>71.0</ele>
    <time>2024-07-09T02:40:34Z</time>
   </trkpt>
   <trkpt lat="35.2801170" lon="113.9121300">
    <ele>71.1</ele>
    <time>2024-07-09T02:40:35Z</time>
   </trkpt>
   <trkpt lat="35.2800870" lon="113.9121200">
    <ele>71.1</ele>
    <time>2024-07-09T02:40:36Z</time>
   </trkpt>
   <trkpt lat="35.2800250" lon="113.9121000">
    <ele>71.2</ele>
    <time>2024-07-09T02:40:38Z</time>
   </trkpt>
   <trkpt lat="35.2799950" lon="113.9120940">
    <ele>71.3</ele>
    <time>2024-07-09T02:40:39Z</time>
   </trkpt>
   <trkpt lat="35.2799300" lon="113.9120800">
    <ele>71.4</ele>
    <time>2024-07-09T02:40:41Z</time>
   </trkpt>
   <trkpt lat="35.2798700" lon="113.9120600">
    <ele>71.5</ele>
    <time>2024-07-09T02:40:43Z</time>
   </trkpt>
   <trkpt lat="35.2798350" lon="113.9120560">
    <ele>71.6</ele>
    <time>2024-07-09T02:40:44Z</time>
   </trkpt>
   <trkpt lat="35.2798040" lon="113.9120560">
    <ele>71.6</ele>
    <time>2024-07-09T02:40:45Z</time>
   </trkpt>
   <trkpt lat="35.2797740" lon="113.9120500">
    <ele>71.6</ele>
    <time>2024-07-09T02:40:46Z</time>
   </trkpt>
   <trkpt lat="35.2797400" lon="113.9120500">
    <ele>71.7</ele>
    <time>2024-07-09T02:40:47Z</time>
   </trkpt>
   <trkpt lat="35.2797100" lon="113.9120400">
    <ele>71.7</ele>
    <time>2024-07-09T02:40:48Z</time>
   </trkpt>
   <trkpt lat="35.2796800" lon="113.9120250">
    <ele>71.8</ele>
    <time>2024-07-09T02:40:49Z</time>
   </trkpt>
   <trkpt lat="35.2796480" lon="113.9120200">
    <ele>71.8</ele>
    <time>2024-07-09T02:40:50Z</time>
   </trkpt>
   <trkpt lat="35.2796170" lon="113.9120200">
    <ele>71.8</ele>
    <time>2024-07-09T02:40:51Z</time>
   </trkpt>
   <trkpt lat="35.2795870" lon="113.9120100">
    <ele>71.9</ele>
    <time>2024-07-09T02:40:52Z</time>
   </trkpt>
   <trkpt lat="35.2795560" lon="113.9120000">
    <ele>71.9</ele>
    <time>2024-07-09T02:40:53Z</time>
   </trkpt>
   <trkpt lat="35.2795260" lon="113.9119900">
    <ele>71.9</ele>
    <time>2024-07-09T02:40:54Z</time>
   </trkpt>
   <trkpt lat="35.2795030" lon="113.9119800">
    <ele>71.9</ele>
    <time>2024-07-09T02:40:55Z</time>
   </trkpt>
   <trkpt lat="35.2794840" lon="113.9119700">
    <ele>71.9</ele>
    <time>2024-07-09T02:40:56Z</time>
   </trkpt>
   <trkpt lat="35.2794850" lon="113.9119700">
    <ele>71.9</ele>
    <time>2024-07-09T02:40:57Z</time>
   </trkpt>
   <trkpt lat="35.2794850" lon="113.9119700">
    <ele>71.9</ele>
    <time>2024-07-09T02:40:58Z</time>
   </trkpt>
   <trkpt lat="35.2794860" lon="113.9119700">
    <ele>71.9</ele>
    <time>2024-07-09T02:40:59Z</time>
   </trkpt>
   <trkpt lat="35.2794870" lon="113.9119700">
    <ele>71.9</ele>
    <time>2024-07-09T02:41:00Z</time>
   </trkpt>
   <trkpt lat="35.2794870" lon="113.9119700">
    <ele>71.9</ele>
    <time>2024-07-09T02:41:01Z</time>
   </trkpt>
   <trkpt lat="35.2794880" lon="113.9119700">
    <ele>71.9</ele>
    <time>2024-07-09T02:41:01Z</time>
   </trkpt>
   <trkpt lat="35.2794880" lon="113.9119700">
    <ele>71.9</ele>
    <time>2024-07-09T02:41:01Z</time>
   </trkpt>
   <trkpt lat="35.2793580" lon="113.9119300">
    <ele>72.0</ele>
    <time>2024-07-09T02:41:12Z</time>
   </trkpt>
   <trkpt lat="35.2793300" lon="113.9119300">
    <ele>71.9</ele>
    <time>2024-07-09T02:41:13Z</time>
   </trkpt>
   <trkpt lat="35.2793050" lon="113.9119300">
    <ele>71.9</ele>
    <time>2024-07-09T02:41:14Z</time>
   </trkpt>
   <trkpt lat="35.2792800" lon="113.9119340">
    <ele>71.9</ele>
    <time>2024-07-09T02:41:15Z</time>
   </trkpt>
   <trkpt lat="35.2792550" lon="113.9119340">
    <ele>71.8</ele>
    <time>2024-07-09T02:41:16Z</time>
   </trkpt>
   <trkpt lat="35.2792300" lon="113.9119400">
    <ele>71.8</ele>
    <time>2024-07-09T02:41:17Z</time>
   </trkpt>
   <trkpt lat="35.2791980" lon="113.9119400">
    <ele>71.7</ele>
    <time>2024-07-09T02:41:18Z</time>
   </trkpt>
   <trkpt lat="35.2791700" lon="113.9119400">
    <ele>71.7</ele>
    <time>2024-07-09T02:41:19Z</time>
   </trkpt>
   <trkpt lat="35.2791440" lon="113.9119500">
    <ele>71.6</ele>
    <time>2024-07-09T02:41:20Z</time>
   </trkpt>
   <trkpt lat="35.2791140" lon="113.9119500">
    <ele>71.6</ele>
    <time>2024-07-09T02:41:21Z</time>
   </trkpt>
   <trkpt lat="35.2790870" lon="113.9119600">
    <ele>71.6</ele>
    <time>2024-07-09T02:41:22Z</time>
   </trkpt>
   <trkpt lat="35.2790600" lon="113.9119600">
    <ele>71.5</ele>
    <time>2024-07-09T02:41:23Z</time>
   </trkpt>
   <trkpt lat="35.2790300" lon="113.9119600">
    <ele>71.5</ele>
    <time>2024-07-09T02:41:24Z</time>
   </trkpt>
   <trkpt lat="35.2790070" lon="113.9119600">
    <ele>71.5</ele>
    <time>2024-07-09T02:41:25Z</time>
   </trkpt>
   <trkpt lat="35.2789800" lon="113.9119500">
    <ele>71.5</ele>
    <time>2024-07-09T02:41:26Z</time>
   </trkpt>
   <trkpt lat="35.2789540" lon="113.9119500">
    <ele>71.5</ele>
    <time>2024-07-09T02:41:27Z</time>
   </trkpt>
   <trkpt lat="35.2789270" lon="113.9119400">
    <ele>71.5</ele>
    <time>2024-07-09T02:41:28Z</time>
   </trkpt>
   <trkpt lat="35.2788960" lon="113.9119400">
    <ele>71.5</ele>
    <time>2024-07-09T02:41:29Z</time>
   </trkpt>
   <trkpt lat="35.2788700" lon="113.9119400">
    <ele>71.5</ele>
    <time>2024-07-09T02:41:30Z</time>
   </trkpt>
   <trkpt lat="35.2788400" lon="113.9119400">
    <ele>71.5</ele>
    <time>2024-07-09T02:41:31Z</time>
   </trkpt>
   <trkpt lat="35.2788120" lon="113.9119400">
    <ele>71.5</ele>
    <time>2024-07-09T02:41:32Z</time>
   </trkpt>
   <trkpt lat="35.2787800" lon="113.9119500">
    <ele>71.5</ele>
    <time>2024-07-09T02:41:33Z</time>
   </trkpt>
   <trkpt lat="35.2787500" lon="113.9119500">
    <ele>71.5</ele>
    <time>2024-07-09T02:41:34Z</time>
   </trkpt>
   <trkpt lat="35.2787200" lon="113.9119500">
    <ele>71.6</ele>
    <time>2024-07-09T02:41:35Z</time>
   </trkpt>
   <trkpt lat="35.2786900" lon="113.9119500">
    <ele>71.6</ele>
    <time>2024-07-09T02:41:36Z</time>
   </trkpt>
   <trkpt lat="35.2786600" lon="113.9119500">
    <ele>71.6</ele>
    <time>2024-07-09T02:41:37Z</time>
   </trkpt>
   <trkpt lat="35.2786300" lon="113.9119500">
    <ele>71.6</ele>
    <time>2024-07-09T02:41:38Z</time>
   </trkpt>
   <trkpt lat="35.2785950" lon="113.9119500">
    <ele>71.6</ele>
    <time>2024-07-09T02:41:39Z</time>
   </trkpt>
   <trkpt lat="35.2785640" lon="113.9119500">
    <ele>71.6</ele>
    <time>2024-07-09T02:41:40Z</time>
   </trkpt>
   <trkpt lat="35.2785340" lon="113.9119500">
    <ele>71.6</ele>
    <time>2024-07-09T02:41:41Z</time>
   </trkpt>
   <trkpt lat="35.2785030" lon="113.9119500">
    <ele>71.6</ele>
    <time>2024-07-09T02:41:42Z</time>
   </trkpt>
   <trkpt lat="35.2784700" lon="113.9119500">
    <ele>71.6</ele>
    <time>2024-07-09T02:41:43Z</time>
   </trkpt>
   <trkpt lat="35.2784400" lon="113.9119600">
    <ele>71.6</ele>
    <time>2024-07-09T02:41:44Z</time>
   </trkpt>
   <trkpt lat="35.2784080" lon="113.9119600">
    <ele>71.6</ele>
    <time>2024-07-09T02:41:45Z</time>
   </trkpt>
   <trkpt lat="35.2783780" lon="113.9119600">
    <ele>71.6</ele>
    <time>2024-07-09T02:41:46Z</time>
   </trkpt>
   <trkpt lat="35.2783430" lon="113.9119600">
    <ele>71.6</ele>
    <time>2024-07-09T02:41:47Z</time>
   </trkpt>
   <trkpt lat="35.2783130" lon="113.9119600">
    <ele>71.5</ele>
    <time>2024-07-09T02:41:48Z</time>
   </trkpt>
   <trkpt lat="35.2782820" lon="113.9119600">
    <ele>71.5</ele>
    <time>2024-07-09T02:41:49Z</time>
   </trkpt>
   <trkpt lat="35.2782500" lon="113.9119600">
    <ele>71.5</ele>
    <time>2024-07-09T02:41:50Z</time>
   </trkpt>
   <trkpt lat="35.2782200" lon="113.9119640">
    <ele>71.5</ele>
    <time>2024-07-09T02:41:51Z</time>
   </trkpt>
   <trkpt lat="35.2781870" lon="113.9119640">
    <ele>71.5</ele>
    <time>2024-07-09T02:41:52Z</time>
   </trkpt>
   <trkpt lat="35.2781560" lon="113.9119640">
    <ele>71.5</ele>
    <time>2024-07-09T02:41:53Z</time>
   </trkpt>
   <trkpt lat="35.2781260" lon="113.9119640">
    <ele>71.5</ele>
    <time>2024-07-09T02:41:54Z</time>
   </trkpt>
   <trkpt lat="35.2780950" lon="113.9119640">
    <ele>71.5</ele>
    <time>2024-07-09T02:41:55Z</time>
   </trkpt>
   <trkpt lat="35.2780600" lon="113.9119700">
    <ele>71.5</ele>
    <time>2024-07-09T02:41:56Z</time>
   </trkpt>
   <trkpt lat="35.2780300" lon="113.9119700">
    <ele>71.5</ele>
    <time>2024-07-09T02:41:57Z</time>
   </trkpt>
   <trkpt lat="35.2779960" lon="113.9119700">
    <ele>71.6</ele>
    <time>2024-07-09T02:41:58Z</time>
   </trkpt>
   <trkpt lat="35.2779660" lon="113.9119700">
    <ele>71.6</ele>
    <time>2024-07-09T02:41:59Z</time>
   </trkpt>
   <trkpt lat="35.2779300" lon="113.9119700">
    <ele>71.6</ele>
    <time>2024-07-09T02:42:00Z</time>
   </trkpt>
   <trkpt lat="35.2779000" lon="113.9119700">
    <ele>71.6</ele>
    <time>2024-07-09T02:42:01Z</time>
   </trkpt>
   <trkpt lat="35.2778660" lon="113.9119700">
    <ele>71.5</ele>
    <time>2024-07-09T02:42:02Z</time>
   </trkpt>
   <trkpt lat="35.2778360" lon="113.9119700">
    <ele>71.5</ele>
    <time>2024-07-09T02:42:03Z</time>
   </trkpt>
   <trkpt lat="35.2778050" lon="113.9119700">
    <ele>71.5</ele>
    <time>2024-07-09T02:42:04Z</time>
   </trkpt>
   <trkpt lat="35.2777700" lon="113.9119700">
    <ele>71.4</ele>
    <time>2024-07-09T02:42:05Z</time>
   </trkpt>
   <trkpt lat="35.2777400" lon="113.9119700">
    <ele>71.3</ele>
    <time>2024-07-09T02:42:06Z</time>
   </trkpt>
   <trkpt lat="35.2777060" lon="113.9119700">
    <ele>71.2</ele>
    <time>2024-07-09T02:42:07Z</time>
   </trkpt>
   <trkpt lat="35.2776760" lon="113.9119700">
    <ele>71.1</ele>
    <time>2024-07-09T02:42:08Z</time>
   </trkpt>
   <trkpt lat="35.2776450" lon="113.9119700">
    <ele>71.0</ele>
    <time>2024-07-09T02:42:09Z</time>
   </trkpt>
   <trkpt lat="35.2776100" lon="113.9119700">
    <ele>71.0</ele>
    <time>2024-07-09T02:42:10Z</time>
   </trkpt>
   <trkpt lat="35.2775760" lon="113.9119700">
    <ele>70.9</ele>
    <time>2024-07-09T02:42:11Z</time>
   </trkpt>
   <trkpt lat="35.2775460" lon="113.9119700">
    <ele>70.8</ele>
    <time>2024-07-09T02:42:12Z</time>
   </trkpt>
   <trkpt lat="35.2775100" lon="113.9119700">
    <ele>70.8</ele>
    <time>2024-07-09T02:42:13Z</time>
   </trkpt>
   <trkpt lat="35.2774770" lon="113.9119700">
    <ele>70.7</ele>
    <time>2024-07-09T02:42:14Z</time>
   </trkpt>
   <trkpt lat="35.2774430" lon="113.9119700">
    <ele>70.7</ele>
    <time>2024-07-09T02:42:15Z</time>
   </trkpt>
   <trkpt lat="35.2773780" lon="113.9119640">
    <ele>70.7</ele>
    <time>2024-07-09T02:42:17Z</time>
   </trkpt>
   <trkpt lat="35.2773480" lon="113.9119640">
    <ele>70.7</ele>
    <time>2024-07-09T02:42:18Z</time>
   </trkpt>
   <trkpt lat="35.2773170" lon="113.9119640">
    <ele>70.6</ele>
    <time>2024-07-09T02:42:19Z</time>
   </trkpt>
   <trkpt lat="35.2772870" lon="113.9119640">
    <ele>70.6</ele>
    <time>2024-07-09T02:42:20Z</time>
   </trkpt>
   <trkpt lat="35.2772560" lon="113.9119640">
    <ele>70.6</ele>
    <time>2024-07-09T02:42:21Z</time>
   </trkpt>
   <trkpt lat="35.2772250" lon="113.9119640">
    <ele>70.6</ele>
    <time>2024-07-09T02:42:22Z</time>
   </trkpt>
   <trkpt lat="35.2771900" lon="113.9119640">
    <ele>70.6</ele>
    <time>2024-07-09T02:42:23Z</time>
   </trkpt>
   <trkpt lat="35.2771600" lon="113.9119640">
    <ele>70.6</ele>
    <time>2024-07-09T02:42:24Z</time>
   </trkpt>
   <trkpt lat="35.2771260" lon="113.9119640">
    <ele>70.6</ele>
    <time>2024-07-09T02:42:25Z</time>
   </trkpt>
   <trkpt lat="35.2770960" lon="113.9119640">
    <ele>70.6</ele>
    <time>2024-07-09T02:42:26Z</time>
   </trkpt>
   <trkpt lat="35.2770600" lon="113.9119700">
    <ele>70.6</ele>
    <time>2024-07-09T02:42:27Z</time>
   </trkpt>
   <trkpt lat="35.2770300" lon="113.9119700">
    <ele>70.6</ele>
    <time>2024-07-09T02:42:28Z</time>
   </trkpt>
   <trkpt lat="35.2770000" lon="113.9119700">
    <ele>70.6</ele>
    <time>2024-07-09T02:42:29Z</time>
   </trkpt>
   <trkpt lat="35.2769660" lon="113.9119700">
    <ele>70.6</ele>
    <time>2024-07-09T02:42:30Z</time>
   </trkpt>
   <trkpt lat="35.2769300" lon="113.9119700">
    <ele>70.6</ele>
    <time>2024-07-09T02:42:31Z</time>
   </trkpt>
   <trkpt lat="35.2768940" lon="113.9119640">
    <ele>70.6</ele>
    <time>2024-07-09T02:42:32Z</time>
   </trkpt>
   <trkpt lat="35.2768330" lon="113.9119640">
    <ele>70.6</ele>
    <time>2024-07-09T02:42:34Z</time>
   </trkpt>
   <trkpt lat="35.2768000" lon="113.9119640">
    <ele>70.6</ele>
    <time>2024-07-09T02:42:35Z</time>
   </trkpt>
   <trkpt lat="35.2767680" lon="113.9119640">
    <ele>70.6</ele>
    <time>2024-07-09T02:42:36Z</time>
   </trkpt>
   <trkpt lat="35.2767330" lon="113.9119640">
    <ele>70.7</ele>
    <time>2024-07-09T02:42:37Z</time>
   </trkpt>
   <trkpt lat="35.2767030" lon="113.9119640">
    <ele>70.7</ele>
    <time>2024-07-09T02:42:38Z</time>
   </trkpt>
   <trkpt lat="35.2766700" lon="113.9119640">
    <ele>70.7</ele>
    <time>2024-07-09T02:42:39Z</time>
   </trkpt>
   <trkpt lat="35.2766340" lon="113.9119640">
    <ele>70.8</ele>
    <time>2024-07-09T02:42:40Z</time>
   </trkpt>
   <trkpt lat="35.2766040" lon="113.9119640">
    <ele>70.8</ele>
    <time>2024-07-09T02:42:41Z</time>
   </trkpt>
   <trkpt lat="35.2765350" lon="113.9119640">
    <ele>70.9</ele>
    <time>2024-07-09T02:42:42Z</time>
   </trkpt>
   <trkpt lat="35.2765350" lon="113.9119640">
    <ele>70.9</ele>
    <time>2024-07-09T02:42:42Z</time>
   </trkpt>
   <trkpt lat="35.2764660" lon="113.9119640">
    <ele>71.0</ele>
    <time>2024-07-09T02:42:44Z</time>
   </trkpt>
   <trkpt lat="35.2764320" lon="113.9119640">
    <ele>71.0</ele>
    <time>2024-07-09T02:42:45Z</time>
   </trkpt>
   <trkpt lat="35.2763980" lon="113.9119640">
    <ele>71.1</ele>
    <time>2024-07-09T02:42:46Z</time>
   </trkpt>
   <trkpt lat="35.2763670" lon="113.9119600">
    <ele>71.2</ele>
    <time>2024-07-09T02:42:47Z</time>
   </trkpt>
   <trkpt lat="35.2763330" lon="113.9119600">
    <ele>71.2</ele>
    <time>2024-07-09T02:42:48Z</time>
   </trkpt>
   <trkpt lat="35.2763000" lon="113.9119640">
    <ele>71.3</ele>
    <time>2024-07-09T02:42:49Z</time>
   </trkpt>
   <trkpt lat="35.2762640" lon="113.9119640">
    <ele>71.4</ele>
    <time>2024-07-09T02:42:50Z</time>
   </trkpt>
   <trkpt lat="35.2762340" lon="113.9119640">
    <ele>71.4</ele>
    <time>2024-07-09T02:42:51Z</time>
   </trkpt>
   <trkpt lat="35.2762000" lon="113.9119600">
    <ele>71.5</ele>
    <time>2024-07-09T02:42:52Z</time>
   </trkpt>
   <trkpt lat="35.2761700" lon="113.9119600">
    <ele>71.6</ele>
    <time>2024-07-09T02:42:53Z</time>
   </trkpt>
   <trkpt lat="35.2761400" lon="113.9119600">
    <ele>71.6</ele>
    <time>2024-07-09T02:42:54Z</time>
   </trkpt>
   <trkpt lat="35.2761040" lon="113.9119640">
    <ele>71.7</ele>
    <time>2024-07-09T02:42:55Z</time>
   </trkpt>
   <trkpt lat="35.2760700" lon="113.9119640">
    <ele>71.7</ele>
    <time>2024-07-09T02:42:56Z</time>
   </trkpt>
   <trkpt lat="35.2760400" lon="113.9119640">
    <ele>71.8</ele>
    <time>2024-07-09T02:42:57Z</time>
   </trkpt>
   <trkpt lat="35.2760050" lon="113.9119640">
    <ele>71.8</ele>
    <time>2024-07-09T02:42:58Z</time>
   </trkpt>
   <trkpt lat="35.2759740" lon="113.9119600">
    <ele>71.9</ele>
    <time>2024-07-09T02:42:59Z</time>
   </trkpt>
   <trkpt lat="35.2759400" lon="113.9119500">
    <ele>71.9</ele>
    <time>2024-07-09T02:43:00Z</time>
   </trkpt>
   <trkpt lat="35.2759060" lon="113.9119400">
    <ele>72.0</ele>
    <time>2024-07-09T02:43:01Z</time>
   </trkpt>
   <trkpt lat="35.2758700" lon="113.9119400">
    <ele>72.0</ele>
    <time>2024-07-09T02:43:02Z</time>
   </trkpt>
   <trkpt lat="35.2758370" lon="113.9119400">
    <ele>72.1</ele>
    <time>2024-07-09T02:43:03Z</time>
   </trkpt>
   <trkpt lat="35.2758030" lon="113.9119400">
    <ele>72.2</ele>
    <time>2024-07-09T02:43:04Z</time>
   </trkpt>
   <trkpt lat="35.2757700" lon="113.9119400">
    <ele>72.2</ele>
    <time>2024-07-09T02:43:05Z</time>
   </trkpt>
   <trkpt lat="35.2756960" lon="113.9119400">
    <ele>72.4</ele>
    <time>2024-07-09T02:43:07Z</time>
   </trkpt>
   <trkpt lat="35.2756230" lon="113.9119400">
    <ele>72.5</ele>
    <time>2024-07-09T02:43:09Z</time>
   </trkpt>
   <trkpt lat="35.2755850" lon="113.9119400">
    <ele>72.6</ele>
    <time>2024-07-09T02:43:10Z</time>
   </trkpt>
   <trkpt lat="35.2755100" lon="113.9119500">
    <ele>72.7</ele>
    <time>2024-07-09T02:43:12Z</time>
   </trkpt>
   <trkpt lat="35.2754020" lon="113.9119400">
    <ele>72.8</ele>
    <time>2024-07-09T02:43:15Z</time>
   </trkpt>
   <trkpt lat="35.2753680" lon="113.9119400">
    <ele>72.8</ele>
    <time>2024-07-09T02:43:16Z</time>
   </trkpt>
   <trkpt lat="35.2753330" lon="113.9119400">
    <ele>72.8</ele>
    <time>2024-07-09T02:43:17Z</time>
   </trkpt>
   <trkpt lat="35.2753000" lon="113.9119400">
    <ele>72.8</ele>
    <time>2024-07-09T02:43:18Z</time>
   </trkpt>
   <trkpt lat="35.2752650" lon="113.9119340">
    <ele>72.8</ele>
    <time>2024-07-09T02:43:19Z</time>
   </trkpt>
   <trkpt lat="35.2752300" lon="113.9119340">
    <ele>72.8</ele>
    <time>2024-07-09T02:43:20Z</time>
   </trkpt>
   <trkpt lat="35.2752000" lon="113.9119400">
    <ele>72.8</ele>
    <time>2024-07-09T02:43:21Z</time>
   </trkpt>
   <trkpt lat="35.2751660" lon="113.9119500">
    <ele>72.8</ele>
    <time>2024-07-09T02:43:22Z</time>
   </trkpt>
   <trkpt lat="35.2751300" lon="113.9119500">
    <ele>72.7</ele>
    <time>2024-07-09T02:43:23Z</time>
   </trkpt>
   <trkpt lat="35.2750970" lon="113.9119500">
    <ele>72.5</ele>
    <time>2024-07-09T02:43:24Z</time>
   </trkpt>
   <trkpt lat="35.2750630" lon="113.9119400">
    <ele>72.3</ele>
    <time>2024-07-09T02:43:25Z</time>
   </trkpt>
   <trkpt lat="35.2750300" lon="113.9119400">
    <ele>72.2</ele>
    <time>2024-07-09T02:43:26Z</time>
   </trkpt>
   <trkpt lat="35.2749940" lon="113.9119400">
    <ele>72.3</ele>
    <time>2024-07-09T02:43:27Z</time>
   </trkpt>
   <trkpt lat="35.2749600" lon="113.9119400">
    <ele>72.3</ele>
    <time>2024-07-09T02:43:28Z</time>
   </trkpt>
   <trkpt lat="35.2749200" lon="113.9119400">
    <ele>72.4</ele>
    <time>2024-07-09T02:43:29Z</time>
   </trkpt>
   <trkpt lat="35.2748870" lon="113.9119340">
    <ele>72.4</ele>
    <time>2024-07-09T02:43:30Z</time>
   </trkpt>
   <trkpt lat="35.2748530" lon="113.9119340">
    <ele>72.5</ele>
    <time>2024-07-09T02:43:31Z</time>
   </trkpt>
   <trkpt lat="35.2748200" lon="113.9119400">
    <ele>72.5</ele>
    <time>2024-07-09T02:43:32Z</time>
   </trkpt>
   <trkpt lat="35.2747800" lon="113.9119400">
    <ele>72.6</ele>
    <time>2024-07-09T02:43:33Z</time>
   </trkpt>
   <trkpt lat="35.2747460" lon="113.9119500">
    <ele>72.6</ele>
    <time>2024-07-09T02:43:34Z</time>
   </trkpt>
   <trkpt lat="35.2747100" lon="113.9119500">
    <ele>72.7</ele>
    <time>2024-07-09T02:43:35Z</time>
   </trkpt>
   <trkpt lat="35.2746770" lon="113.9119400">
    <ele>72.8</ele>
    <time>2024-07-09T02:43:36Z</time>
   </trkpt>
   <trkpt lat="35.2746430" lon="113.9119400">
    <ele>72.8</ele>
    <time>2024-07-09T02:43:37Z</time>
   </trkpt>
   <trkpt lat="35.2746050" lon="113.9119500">
    <ele>72.9</ele>
    <time>2024-07-09T02:43:38Z</time>
   </trkpt>
   <trkpt lat="35.2745700" lon="113.9119500">
    <ele>73.0</ele>
    <time>2024-07-09T02:43:39Z</time>
   </trkpt>
   <trkpt lat="35.2745320" lon="113.9119500">
    <ele>73.1</ele>
    <time>2024-07-09T02:43:40Z</time>
   </trkpt>
   <trkpt lat="35.2744980" lon="113.9119500">
    <ele>73.1</ele>
    <time>2024-07-09T02:43:41Z</time>
   </trkpt>
   <trkpt lat="35.2744600" lon="113.9119500">
    <ele>73.1</ele>
    <time>2024-07-09T02:43:42Z</time>
   </trkpt>
   <trkpt lat="35.2744260" lon="113.9119500">
    <ele>73.2</ele>
    <time>2024-07-09T02:43:43Z</time>
   </trkpt>
   <trkpt lat="35.2743870" lon="113.9119500">
    <ele>73.2</ele>
    <time>2024-07-09T02:43:44Z</time>
   </trkpt>
   <trkpt lat="35.2743530" lon="113.9119500">
    <ele>73.2</ele>
    <time>2024-07-09T02:43:45Z</time>
   </trkpt>
   <trkpt lat="35.2743150" lon="113.9119600">
    <ele>73.2</ele>
    <time>2024-07-09T02:43:46Z</time>
   </trkpt>
   <trkpt lat="35.2742770" lon="113.9119640">
    <ele>73.2</ele>
    <time>2024-07-09T02:43:47Z</time>
   </trkpt>
   <trkpt lat="35.2742420" lon="113.9119640">
    <ele>73.2</ele>
    <time>2024-07-09T02:43:48Z</time>
   </trkpt>
   <trkpt lat="35.2742080" lon="113.9119640">
    <ele>73.2</ele>
    <time>2024-07-09T02:43:49Z</time>
   </trkpt>
   <trkpt lat="35.2741700" lon="113.9119700">
    <ele>73.3</ele>
    <time>2024-07-09T02:43:50Z</time>
   </trkpt>
   <trkpt lat="35.2741360" lon="113.9119700">
    <ele>73.3</ele>
    <time>2024-07-09T02:43:51Z</time>
   </trkpt>
   <trkpt lat="35.2740970" lon="113.9119700">
    <ele>73.4</ele>
    <time>2024-07-09T02:43:52Z</time>
   </trkpt>
   <trkpt lat="35.2740630" lon="113.9119700">
    <ele>73.4</ele>
    <time>2024-07-09T02:43:53Z</time>
   </trkpt>
   <trkpt lat="35.2740250" lon="113.9119700">
    <ele>73.5</ele>
    <time>2024-07-09T02:43:54Z</time>
   </trkpt>
   <trkpt lat="35.2739900" lon="113.9119700">
    <ele>73.5</ele>
    <time>2024-07-09T02:43:55Z</time>
   </trkpt>
   <trkpt lat="35.2739520" lon="113.9119700">
    <ele>73.6</ele>
    <time>2024-07-09T02:43:56Z</time>
   </trkpt>
   <trkpt lat="35.2739140" lon="113.9119700">
    <ele>73.6</ele>
    <time>2024-07-09T02:43:57Z</time>
   </trkpt>
   <trkpt lat="35.2738800" lon="113.9119640">
    <ele>73.6</ele>
    <time>2024-07-09T02:43:58Z</time>
   </trkpt>
   <trkpt lat="35.2738400" lon="113.9119700">
    <ele>73.7</ele>
    <time>2024-07-09T02:43:59Z</time>
   </trkpt>
   <trkpt lat="35.2738080" lon="113.9119700">
    <ele>73.7</ele>
    <time>2024-07-09T02:44:00Z</time>
   </trkpt>
   <trkpt lat="35.2737700" lon="113.9119700">
    <ele>73.7</ele>
    <time>2024-07-09T02:44:01Z</time>
   </trkpt>
   <trkpt lat="35.2737350" lon="113.9119640">
    <ele>73.7</ele>
    <time>2024-07-09T02:44:02Z</time>
   </trkpt>
   <trkpt lat="35.2736970" lon="113.9119640">
    <ele>73.7</ele>
    <time>2024-07-09T02:44:03Z</time>
   </trkpt>
   <trkpt lat="35.2736630" lon="113.9119640">
    <ele>73.7</ele>
    <time>2024-07-09T02:44:04Z</time>
   </trkpt>
   <trkpt lat="35.2736240" lon="113.9119600">
    <ele>73.6</ele>
    <time>2024-07-09T02:44:05Z</time>
   </trkpt>
   <trkpt lat="35.2735900" lon="113.9119640">
    <ele>73.6</ele>
    <time>2024-07-09T02:44:06Z</time>
   </trkpt>
   <trkpt lat="35.2735520" lon="113.9119640">
    <ele>73.6</ele>
    <time>2024-07-09T02:44:07Z</time>
   </trkpt>
   <trkpt lat="35.2735180" lon="113.9119640">
    <ele>73.6</ele>
    <time>2024-07-09T02:44:08Z</time>
   </trkpt>
   <trkpt lat="35.2734800" lon="113.9119600">
    <ele>73.6</ele>
    <time>2024-07-09T02:44:09Z</time>
   </trkpt>
   <trkpt lat="35.2734450" lon="113.9119640">
    <ele>73.6</ele>
    <time>2024-07-09T02:44:10Z</time>
   </trkpt>
   <trkpt lat="35.2734070" lon="113.9119640">
    <ele>73.6</ele>
    <time>2024-07-09T02:44:11Z</time>
   </trkpt>
   <trkpt lat="35.2733540" lon="113.9119640">
    <ele>73.6</ele>
    <time>2024-07-09T02:44:13Z</time>
   </trkpt>
   <trkpt lat="35.2733350" lon="113.9119640">
    <ele>73.6</ele>
    <time>2024-07-09T02:44:13Z</time>
   </trkpt>
   <trkpt lat="35.2732960" lon="113.9119640">
    <ele>73.6</ele>
    <time>2024-07-09T02:44:14Z</time>
   </trkpt>
   <trkpt lat="35.2732200" lon="113.9119640">
    <ele>73.5</ele>
    <time>2024-07-09T02:44:17Z</time>
   </trkpt>
   <trkpt lat="35.2731480" lon="113.9119640">
    <ele>73.5</ele>
    <time>2024-07-09T02:44:19Z</time>
   </trkpt>
   <trkpt lat="35.2731100" lon="113.9119640">
    <ele>73.5</ele>
    <time>2024-07-09T02:44:20Z</time>
   </trkpt>
   <trkpt lat="35.2730700" lon="113.9119640">
    <ele>73.5</ele>
    <time>2024-07-09T02:44:21Z</time>
   </trkpt>
   <trkpt lat="35.2730370" lon="113.9119640">
    <ele>73.4</ele>
    <time>2024-07-09T02:44:22Z</time>
   </trkpt>
   <trkpt lat="35.2730000" lon="113.9119700">
    <ele>73.4</ele>
    <time>2024-07-09T02:44:23Z</time>
   </trkpt>
   <trkpt lat="35.2729600" lon="113.9119640">
    <ele>73.4</ele>
    <time>2024-07-09T02:44:24Z</time>
   </trkpt>
   <trkpt lat="35.2729230" lon="113.9119640">
    <ele>73.3</ele>
    <time>2024-07-09T02:44:25Z</time>
   </trkpt>
   <trkpt lat="35.2728900" lon="113.9119640">
    <ele>73.3</ele>
    <time>2024-07-09T02:44:26Z</time>
   </trkpt>
   <trkpt lat="35.2728500" lon="113.9119700">
    <ele>73.3</ele>
    <time>2024-07-09T02:44:27Z</time>
   </trkpt>
   <trkpt lat="35.2728160" lon="113.9119700">
    <ele>73.3</ele>
    <time>2024-07-09T02:44:28Z</time>
   </trkpt>
   <trkpt lat="35.2727800" lon="113.9119700">
    <ele>73.2</ele>
    <time>2024-07-09T02:44:29Z</time>
   </trkpt>
   <trkpt lat="35.2727470" lon="113.9119640">
    <ele>73.2</ele>
    <time>2024-07-09T02:44:30Z</time>
   </trkpt>
   <trkpt lat="35.2727130" lon="113.9119640">
    <ele>73.1</ele>
    <time>2024-07-09T02:44:31Z</time>
   </trkpt>
   <trkpt lat="35.2726750" lon="113.9119600">
    <ele>73.1</ele>
    <time>2024-07-09T02:44:32Z</time>
   </trkpt>
   <trkpt lat="35.2726400" lon="113.9119640">
    <ele>73.0</ele>
    <time>2024-07-09T02:44:33Z</time>
   </trkpt>
   <trkpt lat="35.2726020" lon="113.9119640">
    <ele>73.0</ele>
    <time>2024-07-09T02:44:34Z</time>
   </trkpt>
   <trkpt lat="35.2725680" lon="113.9119640">
    <ele>73.0</ele>
    <time>2024-07-09T02:44:35Z</time>
   </trkpt>
   <trkpt lat="35.2725300" lon="113.9119640">
    <ele>73.0</ele>
    <time>2024-07-09T02:44:36Z</time>
   </trkpt>
   <trkpt lat="35.2724950" lon="113.9119640">
    <ele>73.0</ele>
    <time>2024-07-09T02:44:37Z</time>
   </trkpt>
   <trkpt lat="35.2724570" lon="113.9119640">
    <ele>73.0</ele>
    <time>2024-07-09T02:44:38Z</time>
   </trkpt>
   <trkpt lat="35.2724230" lon="113.9119640">
    <ele>73.1</ele>
    <time>2024-07-09T02:44:39Z</time>
   </trkpt>
   <trkpt lat="35.2723850" lon="113.9119640">
    <ele>73.1</ele>
    <time>2024-07-09T02:44:40Z</time>
   </trkpt>
   <trkpt lat="35.2723460" lon="113.9119640">
    <ele>73.1</ele>
    <time>2024-07-09T02:44:41Z</time>
   </trkpt>
   <trkpt lat="35.2723100" lon="113.9119640">
    <ele>73.2</ele>
    <time>2024-07-09T02:44:42Z</time>
   </trkpt>
   <trkpt lat="35.2722320" lon="113.9119640">
    <ele>73.2</ele>
    <time>2024-07-09T02:44:44Z</time>
   </trkpt>
   <trkpt lat="35.2721520" lon="113.9119640">
    <ele>73.3</ele>
    <time>2024-07-09T02:44:46Z</time>
   </trkpt>
   <trkpt lat="35.2720700" lon="113.9119640">
    <ele>73.5</ele>
    <time>2024-07-09T02:44:48Z</time>
   </trkpt>
   <trkpt lat="35.2719900" lon="113.9119640">
    <ele>73.6</ele>
    <time>2024-07-09T02:44:50Z</time>
   </trkpt>
   <trkpt lat="35.2719080" lon="113.9119640">
    <ele>73.6</ele>
    <time>2024-07-09T02:44:52Z</time>
   </trkpt>
   <trkpt lat="35.2718200" lon="113.9119500">
    <ele>73.6</ele>
    <time>2024-07-09T02:44:54Z</time>
   </trkpt>
   <trkpt lat="35.2717360" lon="113.9119600">
    <ele>73.6</ele>
    <time>2024-07-09T02:44:56Z</time>
   </trkpt>
   <trkpt lat="35.2716500" lon="113.9119500">
    <ele>73.6</ele>
    <time>2024-07-09T02:44:58Z</time>
   </trkpt>
   <trkpt lat="35.2715640" lon="113.9119600">
    <ele>73.5</ele>
    <time>2024-07-09T02:45:00Z</time>
   </trkpt>
   <trkpt lat="35.2715260" lon="113.9119600">
    <ele>73.5</ele>
    <time>2024-07-09T02:45:01Z</time>
   </trkpt>
   <trkpt lat="35.2714900" lon="113.9119600">
    <ele>73.5</ele>
    <time>2024-07-09T02:45:02Z</time>
   </trkpt>
   <trkpt lat="35.2714460" lon="113.9119600">
    <ele>73.5</ele>
    <time>2024-07-09T02:45:03Z</time>
   </trkpt>
   <trkpt lat="35.2714080" lon="113.9119500">
    <ele>73.5</ele>
    <time>2024-07-09T02:45:04Z</time>
   </trkpt>
   <trkpt lat="35.2713700" lon="113.9119500">
    <ele>73.6</ele>
    <time>2024-07-09T02:45:05Z</time>
   </trkpt>
   <trkpt lat="35.2713300" lon="113.9119600">
    <ele>73.6</ele>
    <time>2024-07-09T02:45:06Z</time>
   </trkpt>
   <trkpt lat="35.2712940" lon="113.9119600">
    <ele>73.6</ele>
    <time>2024-07-09T02:45:07Z</time>
   </trkpt>
   <trkpt lat="35.2712550" lon="113.9119600">
    <ele>73.6</ele>
    <time>2024-07-09T02:45:08Z</time>
   </trkpt>
   <trkpt lat="35.2712200" lon="113.9119600">
    <ele>73.6</ele>
    <time>2024-07-09T02:45:09Z</time>
   </trkpt>
   <trkpt lat="35.2711870" lon="113.9119500">
    <ele>73.6</ele>
    <time>2024-07-09T02:45:10Z</time>
   </trkpt>
   <trkpt lat="35.2711520" lon="113.9119500">
    <ele>73.7</ele>
    <time>2024-07-09T02:45:11Z</time>
   </trkpt>
   <trkpt lat="35.2711200" lon="113.9119500">
    <ele>73.8</ele>
    <time>2024-07-09T02:45:12Z</time>
   </trkpt>
   <trkpt lat="35.2710840" lon="113.9119400">
    <ele>73.9</ele>
    <time>2024-07-09T02:45:13Z</time>
   </trkpt>
   <trkpt lat="35.2710460" lon="113.9119400">
    <ele>73.8</ele>
    <time>2024-07-09T02:45:14Z</time>
   </trkpt>
   <trkpt lat="35.2710100" lon="113.9119400">
    <ele>73.7</ele>
    <time>2024-07-09T02:45:15Z</time>
   </trkpt>
   <trkpt lat="35.2709730" lon="113.9119500">
    <ele>73.5</ele>
    <time>2024-07-09T02:45:16Z</time>
   </trkpt>
   <trkpt lat="35.2709400" lon="113.9119600">
    <ele>73.4</ele>
    <time>2024-07-09T02:45:17Z</time>
   </trkpt>
   <trkpt lat="35.2709050" lon="113.9119600">
    <ele>73.2</ele>
    <time>2024-07-09T02:45:18Z</time>
   </trkpt>
   <trkpt lat="35.2708700" lon="113.9119600">
    <ele>73.0</ele>
    <time>2024-07-09T02:45:19Z</time>
   </trkpt>
   <trkpt lat="35.2708360" lon="113.9119600">
    <ele>72.9</ele>
    <time>2024-07-09T02:45:20Z</time>
   </trkpt>
   <trkpt lat="35.2708000" lon="113.9119600">
    <ele>72.8</ele>
    <time>2024-07-09T02:45:21Z</time>
   </trkpt>
   <trkpt lat="35.2707670" lon="113.9119600">
    <ele>72.6</ele>
    <time>2024-07-09T02:45:22Z</time>
   </trkpt>
   <trkpt lat="35.2707300" lon="113.9119600">
    <ele>72.5</ele>
    <time>2024-07-09T02:45:23Z</time>
   </trkpt>
   <trkpt lat="35.2706950" lon="113.9119600">
    <ele>72.5</ele>
    <time>2024-07-09T02:45:24Z</time>
   </trkpt>
   <trkpt lat="35.2706600" lon="113.9119600">
    <ele>72.4</ele>
    <time>2024-07-09T02:45:25Z</time>
   </trkpt>
   <trkpt lat="35.2706220" lon="113.9119600">
    <ele>72.3</ele>
    <time>2024-07-09T02:45:26Z</time>
   </trkpt>
   <trkpt lat="35.2705880" lon="113.9119600">
    <ele>72.2</ele>
    <time>2024-07-09T02:45:27Z</time>
   </trkpt>
   <trkpt lat="35.2705540" lon="113.9119600">
    <ele>72.1</ele>
    <time>2024-07-09T02:45:28Z</time>
   </trkpt>
   <trkpt lat="35.2705150" lon="113.9119600">
    <ele>72.1</ele>
    <time>2024-07-09T02:45:29Z</time>
   </trkpt>
   <trkpt lat="35.2704800" lon="113.9119600">
    <ele>72.0</ele>
    <time>2024-07-09T02:45:30Z</time>
   </trkpt>
   <trkpt lat="35.2704430" lon="113.9119600">
    <ele>72.0</ele>
    <time>2024-07-09T02:45:31Z</time>
   </trkpt>
   <trkpt lat="35.2704100" lon="113.9119600">
    <ele>71.9</ele>
    <time>2024-07-09T02:45:32Z</time>
   </trkpt>
   <trkpt lat="35.2703700" lon="113.9119600">
    <ele>71.9</ele>
    <time>2024-07-09T02:45:33Z</time>
   </trkpt>
   <trkpt lat="35.2703360" lon="113.9119600">
    <ele>71.8</ele>
    <time>2024-07-09T02:45:34Z</time>
   </trkpt>
   <trkpt lat="35.2702980" lon="113.9119640">
    <ele>71.8</ele>
    <time>2024-07-09T02:45:35Z</time>
   </trkpt>
   <trkpt lat="35.2702600" lon="113.9119600">
    <ele>71.7</ele>
    <time>2024-07-09T02:45:36Z</time>
   </trkpt>
   <trkpt lat="35.2702260" lon="113.9119600">
    <ele>71.6</ele>
    <time>2024-07-09T02:45:37Z</time>
   </trkpt>
   <trkpt lat="35.2701870" lon="113.9119600">
    <ele>71.5</ele>
    <time>2024-07-09T02:45:38Z</time>
   </trkpt>
   <trkpt lat="35.2701500" lon="113.9119600">
    <ele>71.4</ele>
    <time>2024-07-09T02:45:39Z</time>
   </trkpt>
   <trkpt lat="35.2701100" lon="113.9119640">
    <ele>71.3</ele>
    <time>2024-07-09T02:45:40Z</time>
   </trkpt>
   <trkpt lat="35.2700770" lon="113.9119600">
    <ele>71.2</ele>
    <time>2024-07-09T02:45:41Z</time>
   </trkpt>
   <trkpt lat="35.2700400" lon="113.9119600">
    <ele>71.1</ele>
    <time>2024-07-09T02:45:42Z</time>
   </trkpt>
   <trkpt lat="35.2700000" lon="113.9119600">
    <ele>71.0</ele>
    <time>2024-07-09T02:45:43Z</time>
   </trkpt>
   <trkpt lat="35.2699620" lon="113.9119600">
    <ele>70.9</ele>
    <time>2024-07-09T02:45:44Z</time>
   </trkpt>
   <trkpt lat="35.2699240" lon="113.9119600">
    <ele>70.9</ele>
    <time>2024-07-09T02:45:45Z</time>
   </trkpt>
   <trkpt lat="35.2698900" lon="113.9119600">
    <ele>70.8</ele>
    <time>2024-07-09T02:45:46Z</time>
   </trkpt>
   <trkpt lat="35.2698500" lon="113.9119600">
    <ele>70.7</ele>
    <time>2024-07-09T02:45:47Z</time>
   </trkpt>
   <trkpt lat="35.2698140" lon="113.9119600">
    <ele>70.7</ele>
    <time>2024-07-09T02:45:48Z</time>
   </trkpt>
   <trkpt lat="35.2697750" lon="113.9119600">
    <ele>70.6</ele>
    <time>2024-07-09T02:45:49Z</time>
   </trkpt>
   <trkpt lat="35.2697370" lon="113.9119600">
    <ele>70.6</ele>
    <time>2024-07-09T02:45:50Z</time>
   </trkpt>
   <trkpt lat="35.2697030" lon="113.9119500">
    <ele>70.5</ele>
    <time>2024-07-09T02:45:51Z</time>
   </trkpt>
   <trkpt lat="35.2696650" lon="113.9119400">
    <ele>70.5</ele>
    <time>2024-07-09T02:45:52Z</time>
   </trkpt>
   <trkpt lat="35.2696270" lon="113.9119400">
    <ele>70.5</ele>
    <time>2024-07-09T02:45:53Z</time>
   </trkpt>
   <trkpt lat="35.2695920" lon="113.9119400">
    <ele>70.5</ele>
    <time>2024-07-09T02:45:54Z</time>
   </trkpt>
   <trkpt lat="35.2695540" lon="113.9119400">
    <ele>70.4</ele>
    <time>2024-07-09T02:45:55Z</time>
   </trkpt>
   <trkpt lat="35.2695160" lon="113.9119400">
    <ele>70.4</ele>
    <time>2024-07-09T02:45:56Z</time>
   </trkpt>
   <trkpt lat="35.2694800" lon="113.9119400">
    <ele>70.4</ele>
    <time>2024-07-09T02:45:57Z</time>
   </trkpt>
   <trkpt lat="35.2694440" lon="113.9119400">
    <ele>70.5</ele>
    <time>2024-07-09T02:45:58Z</time>
   </trkpt>
   <trkpt lat="35.2694100" lon="113.9119500">
    <ele>70.5</ele>
    <time>2024-07-09T02:45:59Z</time>
   </trkpt>
   <trkpt lat="35.2693750" lon="113.9119500">
    <ele>70.6</ele>
    <time>2024-07-09T02:46:00Z</time>
   </trkpt>
   <trkpt lat="35.2693400" lon="113.9119500">
    <ele>70.6</ele>
    <time>2024-07-09T02:46:01Z</time>
   </trkpt>
   <trkpt lat="35.2693100" lon="113.9119600">
    <ele>70.7</ele>
    <time>2024-07-09T02:46:02Z</time>
   </trkpt>
   <trkpt lat="35.2692800" lon="113.9119500">
    <ele>70.8</ele>
    <time>2024-07-09T02:46:03Z</time>
   </trkpt>
   <trkpt lat="35.2692530" lon="113.9119600">
    <ele>70.8</ele>
    <time>2024-07-09T02:46:04Z</time>
   </trkpt>
   <trkpt lat="35.2692220" lon="113.9119600">
    <ele>70.9</ele>
    <time>2024-07-09T02:46:05Z</time>
   </trkpt>
   <trkpt lat="35.2691960" lon="113.9119600">
    <ele>70.9</ele>
    <time>2024-07-09T02:46:06Z</time>
   </trkpt>
   <trkpt lat="35.2691700" lon="113.9119500">
    <ele>70.9</ele>
    <time>2024-07-09T02:46:07Z</time>
   </trkpt>
   <trkpt lat="35.2691460" lon="113.9119340">
    <ele>70.9</ele>
    <time>2024-07-09T02:46:08Z</time>
   </trkpt>
   <trkpt lat="35.2691270" lon="113.9119200">
    <ele>71.0</ele>
    <time>2024-07-09T02:46:09Z</time>
   </trkpt>
   <trkpt lat="35.2691100" lon="113.9118960">
    <ele>71.0</ele>
    <time>2024-07-09T02:46:10Z</time>
   </trkpt>
   <trkpt lat="35.2691040" lon="113.9118700">
    <ele>71.0</ele>
    <time>2024-07-09T02:46:11Z</time>
   </trkpt>
   <trkpt lat="35.2690960" lon="113.9118400">
    <ele>70.9</ele>
    <time>2024-07-09T02:46:12Z</time>
   </trkpt>
   <trkpt lat="35.2690900" lon="113.9118100">
    <ele>70.9</ele>
    <time>2024-07-09T02:46:13Z</time>
   </trkpt>
   <trkpt lat="35.2690770" lon="113.9117900">
    <ele>70.9</ele>
    <time>2024-07-09T02:46:14Z</time>
   </trkpt>
   <trkpt lat="35.2690700" lon="113.9117600">
    <ele>70.9</ele>
    <time>2024-07-09T02:46:15Z</time>
   </trkpt>
   <trkpt lat="35.2690600" lon="113.9117300">
    <ele>70.9</ele>
    <time>2024-07-09T02:46:16Z</time>
   </trkpt>
   <trkpt lat="35.2690500" lon="113.9116900">
    <ele>70.9</ele>
    <time>2024-07-09T02:46:17Z</time>
   </trkpt>
   <trkpt lat="35.2690540" lon="113.9116600">
    <ele>70.8</ele>
    <time>2024-07-09T02:46:18Z</time>
   </trkpt>
   <trkpt lat="35.2690500" lon="113.9116200">
    <ele>70.8</ele>
    <time>2024-07-09T02:46:19Z</time>
   </trkpt>
   <trkpt lat="35.2690500" lon="113.9115800">
    <ele>70.8</ele>
    <time>2024-07-09T02:46:20Z</time>
   </trkpt>
   <trkpt lat="35.2690500" lon="113.9115500">
    <ele>70.8</ele>
    <time>2024-07-09T02:46:21Z</time>
   </trkpt>
   <trkpt lat="35.2690500" lon="113.9115140">
    <ele>70.8</ele>
    <time>2024-07-09T02:46:22Z</time>
   </trkpt>
   <trkpt lat="35.2690500" lon="113.9114760">
    <ele>70.8</ele>
    <time>2024-07-09T02:46:23Z</time>
   </trkpt>
   <trkpt lat="35.2690540" lon="113.9114400">
    <ele>70.7</ele>
    <time>2024-07-09T02:46:24Z</time>
   </trkpt>
   <trkpt lat="35.2690540" lon="113.9114100">
    <ele>70.7</ele>
    <time>2024-07-09T02:46:25Z</time>
   </trkpt>
   <trkpt lat="35.2690540" lon="113.9113700">
    <ele>70.7</ele>
    <time>2024-07-09T02:46:26Z</time>
   </trkpt>
   <trkpt lat="35.2690600" lon="113.9113300">
    <ele>70.7</ele>
    <time>2024-07-09T02:46:27Z</time>
   </trkpt>
   <trkpt lat="35.2690540" lon="113.9112900">
    <ele>70.6</ele>
    <time>2024-07-09T02:46:28Z</time>
   </trkpt>
   <trkpt lat="35.2690540" lon="113.9112600">
    <ele>70.6</ele>
    <time>2024-07-09T02:46:29Z</time>
   </trkpt>
   <trkpt lat="35.2690540" lon="113.9112240">
    <ele>70.6</ele>
    <time>2024-07-09T02:46:30Z</time>
   </trkpt>
   <trkpt lat="35.2690540" lon="113.9111900">
    <ele>70.6</ele>
    <time>2024-07-09T02:46:31Z</time>
   </trkpt>
   <trkpt lat="35.2690540" lon="113.9111500">
    <ele>70.6</ele>
    <time>2024-07-09T02:46:32Z</time>
   </trkpt>
   <trkpt lat="35.2690540" lon="113.9111100">
    <ele>70.7</ele>
    <time>2024-07-09T02:46:33Z</time>
   </trkpt>
   <trkpt lat="35.2690540" lon="113.9110700">
    <ele>70.7</ele>
    <time>2024-07-09T02:46:34Z</time>
   </trkpt>
   <trkpt lat="35.2690500" lon="113.9110300">
    <ele>70.7</ele>
    <time>2024-07-09T02:46:35Z</time>
   </trkpt>
   <trkpt lat="35.2690500" lon="113.9109950">
    <ele>70.7</ele>
    <time>2024-07-09T02:46:36Z</time>
   </trkpt>
   <trkpt lat="35.2690500" lon="113.9109600">
    <ele>70.7</ele>
    <time>2024-07-09T02:46:37Z</time>
   </trkpt>
   <trkpt lat="35.2690540" lon="113.9109200">
    <ele>70.8</ele>
    <time>2024-07-09T02:46:38Z</time>
   </trkpt>
   <trkpt lat="35.2690540" lon="113.9108800">
    <ele>70.8</ele>
    <time>2024-07-09T02:46:39Z</time>
   </trkpt>
   <trkpt lat="35.2690540" lon="113.9108400">
    <ele>70.8</ele>
    <time>2024-07-09T02:46:40Z</time>
   </trkpt>
   <trkpt lat="35.2690500" lon="113.9108050">
    <ele>70.8</ele>
    <time>2024-07-09T02:46:41Z</time>
   </trkpt>
   <trkpt lat="35.2690540" lon="113.9107700">
    <ele>70.9</ele>
    <time>2024-07-09T02:46:42Z</time>
   </trkpt>
   <trkpt lat="35.2690540" lon="113.9107300">
    <ele>70.9</ele>
    <time>2024-07-09T02:46:43Z</time>
   </trkpt>
   <trkpt lat="35.2690540" lon="113.9106900">
    <ele>70.9</ele>
    <time>2024-07-09T02:46:44Z</time>
   </trkpt>
   <trkpt lat="35.2690540" lon="113.9106500">
    <ele>70.9</ele>
    <time>2024-07-09T02:46:45Z</time>
   </trkpt>
   <trkpt lat="35.2690500" lon="113.9106140">
    <ele>70.9</ele>
    <time>2024-07-09T02:46:46Z</time>
   </trkpt>
   <trkpt lat="35.2690500" lon="113.9105760">
    <ele>70.9</ele>
    <time>2024-07-09T02:46:47Z</time>
   </trkpt>
   <trkpt lat="35.2690500" lon="113.9105400">
    <ele>71.0</ele>
    <time>2024-07-09T02:46:48Z</time>
   </trkpt>
   <trkpt lat="35.2690500" lon="113.9105000">
    <ele>71.0</ele>
    <time>2024-07-09T02:46:49Z</time>
   </trkpt>
   <trkpt lat="35.2690500" lon="113.9104500">
    <ele>71.0</ele>
    <time>2024-07-09T02:46:50Z</time>
   </trkpt>
   <trkpt lat="35.2690470" lon="113.9104160">
    <ele>71.0</ele>
    <time>2024-07-09T02:46:51Z</time>
   </trkpt>
   <trkpt lat="35.2690430" lon="113.9103800">
    <ele>71.0</ele>
    <time>2024-07-09T02:46:52Z</time>
   </trkpt>
   <trkpt lat="35.2690350" lon="113.9103400">
    <ele>70.9</ele>
    <time>2024-07-09T02:46:53Z</time>
   </trkpt>
   <trkpt lat="35.2690300" lon="113.9103000">
    <ele>70.9</ele>
    <time>2024-07-09T02:46:54Z</time>
   </trkpt>
   <trkpt lat="35.2690350" lon="113.9102600">
    <ele>70.9</ele>
    <time>2024-07-09T02:46:55Z</time>
   </trkpt>
   <trkpt lat="35.2690400" lon="113.9102250">
    <ele>70.8</ele>
    <time>2024-07-09T02:46:56Z</time>
   </trkpt>
   <trkpt lat="35.2690400" lon="113.9101900">
    <ele>70.8</ele>
    <time>2024-07-09T02:46:57Z</time>
   </trkpt>
   <trkpt lat="35.2690400" lon="113.9101500">
    <ele>70.7</ele>
    <time>2024-07-09T02:46:58Z</time>
   </trkpt>
   <trkpt lat="35.2690400" lon="113.9101200">
    <ele>70.7</ele>
    <time>2024-07-09T02:46:59Z</time>
   </trkpt>
   <trkpt lat="35.2690400" lon="113.9100900">
    <ele>70.7</ele>
    <time>2024-07-09T02:47:00Z</time>
   </trkpt>
   <trkpt lat="35.2690400" lon="113.9100600">
    <ele>70.6</ele>
    <time>2024-07-09T02:47:01Z</time>
   </trkpt>
   <trkpt lat="35.2690400" lon="113.9100340">
    <ele>70.6</ele>
    <time>2024-07-09T02:47:02Z</time>
   </trkpt>
   <trkpt lat="35.2690400" lon="113.9100100">
    <ele>70.6</ele>
    <time>2024-07-09T02:47:03Z</time>
   </trkpt>
   <trkpt lat="35.2690400" lon="113.9099900">
    <ele>70.6</ele>
    <time>2024-07-09T02:47:04Z</time>
   </trkpt>
   <trkpt lat="35.2690350" lon="113.9099660">
    <ele>70.6</ele>
    <time>2024-07-09T02:47:05Z</time>
   </trkpt>
   <trkpt lat="35.2690250" lon="113.9099470">
    <ele>70.5</ele>
    <time>2024-07-09T02:47:06Z</time>
   </trkpt>
   <trkpt lat="35.2690220" lon="113.9099450">
    <ele>70.5</ele>
    <time>2024-07-09T02:47:07Z</time>
   </trkpt>
   <trkpt lat="35.2690190" lon="113.9099420">
    <ele>70.5</ele>
    <time>2024-07-09T02:47:08Z</time>
   </trkpt>
   <trkpt lat="35.2690160" lon="113.9099400">
    <ele>70.5</ele>
    <time>2024-07-09T02:47:09Z</time>
   </trkpt>
   <trkpt lat="35.2690130" lon="113.9099370">
    <ele>70.5</ele>
    <time>2024-07-09T02:47:10Z</time>
   </trkpt>
   <trkpt lat="35.2690100" lon="113.9099350">
    <ele>70.5</ele>
    <time>2024-07-09T02:47:10Z</time>
   </trkpt>
   <trkpt lat="35.2690100" lon="113.9099350">
    <ele>70.5</ele>
    <time>2024-07-09T02:47:10Z</time>
   </trkpt>
   <trkpt lat="35.2688330" lon="113.9098500">
    <ele>70.4</ele>
    <time>2024-07-09T02:47:22Z</time>
   </trkpt>
   <trkpt lat="35.2688100" lon="113.9098500">
    <ele>70.4</ele>
    <time>2024-07-09T02:47:23Z</time>
   </trkpt>
   <trkpt lat="35.2687950" lon="113.9098400">
    <ele>70.4</ele>
    <time>2024-07-09T02:47:24Z</time>
   </trkpt>
   <trkpt lat="35.2687870" lon="113.9098200">
    <ele>70.4</ele>
    <time>2024-07-09T02:47:25Z</time>
   </trkpt>
   <trkpt lat="35.2687840" lon="113.9098050">
    <ele>70.4</ele>
    <time>2024-07-09T02:47:26Z</time>
   </trkpt>
   <trkpt lat="35.2687870" lon="113.9097800">
    <ele>70.4</ele>
    <time>2024-07-09T02:47:27Z</time>
   </trkpt>
   <trkpt lat="35.2687870" lon="113.9097500">
    <ele>70.4</ele>
    <time>2024-07-09T02:47:28Z</time>
   </trkpt>
   <trkpt lat="35.2687870" lon="113.9097300">
    <ele>70.4</ele>
    <time>2024-07-09T02:47:29Z</time>
   </trkpt>
   <trkpt lat="35.2687870" lon="113.9097060">
    <ele>70.3</ele>
    <time>2024-07-09T02:47:30Z</time>
   </trkpt>
   <trkpt lat="35.2687870" lon="113.9096760">
    <ele>70.3</ele>
    <time>2024-07-09T02:47:31Z</time>
   </trkpt>
   <trkpt lat="35.2687900" lon="113.9096500">
    <ele>70.3</ele>
    <time>2024-07-09T02:47:32Z</time>
   </trkpt>
   <trkpt lat="35.2687900" lon="113.9096200">
    <ele>70.3</ele>
    <time>2024-07-09T02:47:33Z</time>
   </trkpt>
   <trkpt lat="35.2687870" lon="113.9095900">
    <ele>70.3</ele>
    <time>2024-07-09T02:47:34Z</time>
   </trkpt>
   <trkpt lat="35.2687870" lon="113.9095700">
    <ele>70.2</ele>
    <time>2024-07-09T02:47:35Z</time>
   </trkpt>
   <trkpt lat="35.2687870" lon="113.9095400">
    <ele>70.2</ele>
    <time>2024-07-09T02:47:36Z</time>
   </trkpt>
   <trkpt lat="35.2687870" lon="113.9095100">
    <ele>70.2</ele>
    <time>2024-07-09T02:47:37Z</time>
   </trkpt>
   <trkpt lat="35.2687870" lon="113.9094800">
    <ele>70.1</ele>
    <time>2024-07-09T02:47:38Z</time>
   </trkpt>
   <trkpt lat="35.2687870" lon="113.9094500">
    <ele>70.1</ele>
    <time>2024-07-09T02:47:39Z</time>
   </trkpt>
   <trkpt lat="35.2687840" lon="113.9094200">
    <ele>70.1</ele>
    <time>2024-07-09T02:47:40Z</time>
   </trkpt>
   <trkpt lat="35.2687840" lon="113.9093900">
    <ele>70.0</ele>
    <time>2024-07-09T02:47:41Z</time>
   </trkpt>
   <trkpt lat="35.2687870" lon="113.9093600">
    <ele>70.0</ele>
    <time>2024-07-09T02:47:42Z</time>
   </trkpt>
   <trkpt lat="35.2687800" lon="113.9093400">
    <ele>70.0</ele>
    <time>2024-07-09T02:47:43Z</time>
   </trkpt>
   <trkpt lat="35.2687800" lon="113.9093100">
    <ele>69.9</ele>
    <time>2024-07-09T02:47:44Z</time>
   </trkpt>
   <trkpt lat="35.2687800" lon="113.9092900">
    <ele>69.9</ele>
    <time>2024-07-09T02:47:45Z</time>
   </trkpt>
   <trkpt lat="35.2687760" lon="113.9092600">
    <ele>69.9</ele>
    <time>2024-07-09T02:47:46Z</time>
   </trkpt>
   <trkpt lat="35.2687760" lon="113.9092300">
    <ele>69.8</ele>
    <time>2024-07-09T02:47:47Z</time>
   </trkpt>
   <trkpt lat="35.2687760" lon="113.9092000">
    <ele>69.8</ele>
    <time>2024-07-09T02:47:48Z</time>
   </trkpt>
   <trkpt lat="35.2687840" lon="113.9091800">
    <ele>69.8</ele>
    <time>2024-07-09T02:47:49Z</time>
   </trkpt>
   <trkpt lat="35.2687890" lon="113.9091510">
    <ele>69.8</ele>
    <time>2024-07-09T02:47:50Z</time>
   </trkpt>
   <trkpt lat="35.2687910" lon="113.9091430">
    <ele>69.8</ele>
    <time>2024-07-09T02:47:51Z</time>
   </trkpt>
   <trkpt lat="35.2687930" lon="113.9091340">
    <ele>69.7</ele>
    <time>2024-07-09T02:47:52Z</time>
   </trkpt>
   <trkpt lat="35.2687940" lon="113.9091260">
    <ele>69.7</ele>
    <time>2024-07-09T02:47:53Z</time>
   </trkpt>
   <trkpt lat="35.2687960" lon="113.9091170">
    <ele>69.7</ele>
    <time>2024-07-09T02:47:54Z</time>
   </trkpt>
   <trkpt lat="35.2687980" lon="113.9091090">
    <ele>69.7</ele>
    <time>2024-07-09T02:47:55Z</time>
   </trkpt>
   <trkpt lat="35.2688000" lon="113.9091000">
    <ele>69.7</ele>
    <time>2024-07-09T02:47:55Z</time>
   </trkpt>
   <trkpt lat="35.2688000" lon="113.9091000">
    <ele>69.7</ele>
    <time>2024-07-09T02:47:55Z</time>
   </trkpt>
  </trkseg>
 </trk>
</gpx>
