<?xml version="1.0" encoding="UTF-8"?>
<gpx creator="StravaGPX" version="1.1" xmlns="http://www.topografix.com/GPX/1/1" xmlns:xsi="http://www.w3.org/2001/XMLSchema-instance" xsi:schemaLocation="http://www.topografix.com/GPX/1/1 http://www.topografix.com/GPX/1/1/gpx.xsd">
 <metadata>
  <time>2024-07-09T10:38:48Z</time>
 </metadata>
 <trk>
  <name>Ride</name>
  <type>cycling</type>
  <trkseg>
   <trkpt lat="35.2803080" lon="113.9085700">
    <ele>69.8</ele>
    <time>2024-07-09T10:38:48Z</time>
   </trkpt>
   <trkpt lat="35.2803080" lon="113.9085700">
    <ele>69.8</ele>
    <time>2024-07-09T10:38:48Z</time>
   </trkpt>
   <trkpt lat="35.2803200" lon="113.9085900">
    <ele>69.9</ele>
    <time>2024-07-09T10:38:50Z</time>
   </trkpt>
   <trkpt lat="35.2803270" lon="113.9086300">
    <ele>70.0</ele>
    <time>2024-07-09T10:38:52Z</time>
   </trkpt>
   <trkpt lat="35.2803300" lon="113.9087000">
    <ele>70.0</ele>
    <time>2024-07-09T10:38:54Z</time>
   </trkpt>
   <trkpt lat="35.2803300" lon="113.9087600">
    <ele>70.0</ele>
    <time>2024-07-09T10:38:56Z</time>
   </trkpt>
   <trkpt lat="35.2803300" lon="113.9088300">
    <ele>70.0</ele>
    <time>2024-07-09T10:38:58Z</time>
   </trkpt>
   <trkpt lat="35.2803270" lon="113.9088600">
    <ele>70.0</ele>
    <time>2024-07-09T10:38:59Z</time>
   </trkpt>
   <trkpt lat="35.2803300" lon="113.9089300">
    <ele>70.0</ele>
    <time>2024-07-09T10:39:01Z</time>
   </trkpt>
   <trkpt lat="35.2803300" lon="113.9090300">
    <ele>70.0</ele>
    <time>2024-07-09T10:39:04Z</time>
   </trkpt>
   <trkpt lat="35.2803300" lon="113.9090650">
    <ele>70.0</ele>
    <time>2024-07-09T10:39:05Z</time>
   </trkpt>
   <trkpt lat="35.2803270" lon="113.9091700">
    <ele>69.9</ele>
    <time>2024-07-09T10:39:08Z</time>
   </trkpt>
   <trkpt lat="35.2803270" lon="113.9091700">
    <ele>69.9</ele>
    <time>2024-07-09T10:39:08Z</time>
   </trkpt>
   <trkpt lat="35.2803230" lon="113.9092100">
    <ele>69.9</ele>
    <time>2024-07-09T10:39:09Z</time>
   </trkpt>
   <trkpt lat="35.2803100" lon="113.9092800">
    <ele>70.1</ele>
    <time>2024-07-09T10:39:11Z</time>
   </trkpt>
   <trkpt lat="35.2803100" lon="113.9093200">
    <ele>70.3</ele>
    <time>2024-07-09T10:39:12Z</time>
   </trkpt>
   <trkpt lat="35.2803080" lon="113.9093860">
    <ele>70.6</ele>
    <time>2024-07-09T10:39:14Z</time>
   </trkpt>
   <trkpt lat="35.2803080" lon="113.9094600">
    <ele>70.9</ele>
    <time>2024-07-09T10:39:16Z</time>
   </trkpt>
   <trkpt lat="35.2803080" lon="113.9095400">
    <ele>71.6</ele>
    <time>2024-07-09T10:39:18Z</time>
   </trkpt>
   <trkpt lat="35.2803100" lon="113.9096200">
    <ele>72.0</ele>
    <time>2024-07-09T10:39:20Z</time>
   </trkpt>
   <trkpt lat="35.2802960" lon="113.9097000">
    <ele>72.2</ele>
    <time>2024-07-09T10:39:22Z</time>
   </trkpt>
   <trkpt lat="35.2802930" lon="113.9097400">
    <ele>72.1</ele>
    <time>2024-07-09T10:39:23Z</time>
   </trkpt>
   <trkpt lat="35.2802900" lon="113.9097750">
    <ele>71.7</ele>
    <time>2024-07-09T10:39:24Z</time>
   </trkpt>
   <trkpt lat="35.2802900" lon="113.9098100">
    <ele>71.7</ele>
    <time>2024-07-09T10:39:25Z</time>
   </trkpt>
   <trkpt lat="35.2802900" lon="113.9098600">
    <ele>70.7</ele>
    <time>2024-07-09T10:39:26Z</time>
   </trkpt>
   <trkpt lat="35.2802850" lon="113.9099000">
    <ele>70.2</ele>
    <time>2024-07-09T10:39:27Z</time>
   </trkpt>
   <trkpt lat="35.2802850" lon="113.9099350">
    <ele>70.2</ele>
    <time>2024-07-09T10:39:28Z</time>
   </trkpt>
   <trkpt lat="35.2802850" lon="113.9100200">
    <ele>69.5</ele>
    <time>2024-07-09T10:39:30Z</time>
   </trkpt>
   <trkpt lat="35.2802800" lon="113.9100950">
    <ele>69.1</ele>
    <time>2024-07-09T10:39:32Z</time>
   </trkpt>
   <trkpt lat="35.2802770" lon="113.9101300">
    <ele>69.1</ele>
    <time>2024-07-09T10:39:33Z</time>
   </trkpt>
   <trkpt lat="35.2802730" lon="113.9101700">
    <ele>69.2</ele>
    <time>2024-07-09T10:39:34Z</time>
   </trkpt>
   <trkpt lat="35.2802730" lon="113.9102100">
    <ele>69.2</ele>
    <time>2024-07-09T10:39:35Z</time>
   </trkpt>
   <trkpt lat="35.2802770" lon="113.9102500">
    <ele>69.0</ele>
    <time>2024-07-09T10:39:36Z</time>
   </trkpt>
   <trkpt lat="35.2802770" lon="113.9102860">
    <ele>69.1</ele>
    <time>2024-07-09T10:39:37Z</time>
   </trkpt>
   <trkpt lat="35.2802730" lon="113.9103240">
    <ele>69.4</ele>
    <time>2024-07-09T10:39:38Z</time>
   </trkpt>
   <trkpt lat="35.2802700" lon="113.9103600">
    <ele>69.5</ele>
    <time>2024-07-09T10:39:39Z</time>
   </trkpt>
   <trkpt lat="35.2802660" lon="113.9104000">
    <ele>69.5</ele>
    <time>2024-07-09T10:39:40Z</time>
   </trkpt>
   <trkpt lat="35.2802620" lon="113.9104400">
    <ele>69.6</ele>
    <time>2024-07-09T10:39:41Z</time>
   </trkpt>
   <trkpt lat="35.2802660" lon="113.9104800">
    <ele>69.5</ele>
    <time>2024-07-09T10:39:42Z</time>
   </trkpt>
   <trkpt lat="35.2802700" lon="113.9105150">
    <ele>69.4</ele>
    <time>2024-07-09T10:39:43Z</time>
   </trkpt>
   <trkpt lat="35.2802730" lon="113.9105500">
    <ele>69.2</ele>
    <time>2024-07-09T10:39:44Z</time>
   </trkpt>
   <trkpt lat="35.2802770" lon="113.9105900">
    <ele>69.0</ele>
    <time>2024-07-09T10:39:45Z</time>
   </trkpt>
   <trkpt lat="35.2802800" lon="113.9106300">
    <ele>68.9</ele>
    <time>2024-07-09T10:39:46Z</time>
   </trkpt>
   <trkpt lat="35.2802850" lon="113.9106700">
    <ele>68.9</ele>
    <time>2024-07-09T10:39:47Z</time>
   </trkpt>
   <trkpt lat="35.2802850" lon="113.9106700">
    <ele>68.9</ele>
    <time>2024-07-09T10:39:47Z</time>
   </trkpt>
   <trkpt lat="35.2802960" lon="113.9107360">
    <ele>68.9</ele>
    <time>2024-07-09T10:39:49Z</time>
   </trkpt>
   <trkpt lat="35.2802960" lon="113.9107360">
    <ele>68.9</ele>
    <time>2024-07-09T10:39:49Z</time>
   </trkpt>
   <trkpt lat="35.2802960" lon="113.9108050">
    <ele>69.0</ele>
    <time>2024-07-09T10:39:51Z</time>
   </trkpt>
   <trkpt lat="35.2802930" lon="113.9108400">
    <ele>69.0</ele>
    <time>2024-07-09T10:39:52Z</time>
   </trkpt>
   <trkpt lat="35.2802850" lon="113.9108800">
    <ele>69.0</ele>
    <time>2024-07-09T10:39:53Z</time>
   </trkpt>
   <trkpt lat="35.2802770" lon="113.9109100">
    <ele>69.0</ele>
    <time>2024-07-09T10:39:54Z</time>
   </trkpt>
   <trkpt lat="35.2802700" lon="113.9109500">
    <ele>69.3</ele>
    <time>2024-07-09T10:39:55Z</time>
   </trkpt>
   <trkpt lat="35.2802660" lon="113.9109900">
    <ele>69.4</ele>
    <time>2024-07-09T10:39:56Z</time>
   </trkpt>
   <trkpt lat="35.2802600" lon="113.9110260">
    <ele>69.3</ele>
    <time>2024-07-09T10:39:57Z</time>
   </trkpt>
   <trkpt lat="35.2802600" lon="113.9110640">
    <ele>69.3</ele>
    <time>2024-07-09T10:39:58Z</time>
   </trkpt>
   <trkpt lat="35.2802540" lon="113.9111000">
    <ele>69.2</ele>
    <time>2024-07-09T10:39:59Z</time>
   </trkpt>
   <trkpt lat="35.2802540" lon="113.9111400">
    <ele>69.2</ele>
    <time>2024-07-09T10:40:00Z</time>
   </trkpt>
   <trkpt lat="35.2802540" lon="113.9111700">
    <ele>69.2</ele>
    <time>2024-07-09T10:40:01Z</time>
   </trkpt>
   <trkpt lat="35.2802540" lon="113.9112100">
    <ele>69.2</ele>
    <time>2024-07-09T10:40:02Z</time>
   </trkpt>
   <trkpt lat="35.2802620" lon="113.9112500">
    <ele>69.2</ele>
    <time>2024-07-09T10:40:03Z</time>
   </trkpt>
   <trkpt lat="35.2802660" lon="113.9112800">
    <ele>69.3</ele>
    <time>2024-07-09T10:40:04Z</time>
   </trkpt>
   <trkpt lat="35.2802660" lon="113.9113160">
    <ele>69.2</ele>
    <time>2024-07-09T10:40:05Z</time>
   </trkpt>
   <trkpt lat="35.2802700" lon="113.9113540">
    <ele>69.2</ele>
    <time>2024-07-09T10:40:06Z</time>
   </trkpt>
   <trkpt lat="35.2802730" lon="113.9113850">
    <ele>69.2</ele>
    <time>2024-07-09T10:40:07Z</time>
   </trkpt>
   <trkpt lat="35.2802900" lon="113.9114100">
    <ele>68.9</ele>
    <time>2024-07-09T10:40:08Z</time>
   </trkpt>
   <trkpt lat="35.2803040" lon="113.9114300">
    <ele>68.9</ele>
    <time>2024-07-09T10:40:09Z</time>
   </trkpt>
   <trkpt lat="35.2803200" lon="113.9114500">
    <ele>68.8</ele>
    <time>2024-07-09T10:40:10Z</time>
   </trkpt>
   <trkpt lat="35.2803400" lon="113.9114600">
    <ele>68.8</ele>
    <time>2024-07-09T10:40:11Z</time>
   </trkpt>
   <trkpt lat="35.2803600" lon="113.9114700">
    <ele>68.7</ele>
    <time>2024-07-09T10:40:12Z</time>
   </trkpt>
   <trkpt lat="35.2803800" lon="113.9114760">
    <ele>68.7</ele>
    <time>2024-07-09T10:40:13Z</time>
   </trkpt>
   <trkpt lat="35.2804070" lon="113.9114760">
    <ele>68.7</ele>
    <time>2024-07-09T10:40:14Z</time>
   </trkpt>
   <trkpt lat="35.2804300" lon="113.9114800">
    <ele>68.8</ele>
    <time>2024-07-09T10:40:15Z</time>
   </trkpt>
   <trkpt lat="35.2804530" lon="113.9114800">
    <ele>68.9</ele>
    <time>2024-07-09T10:40:16Z</time>
   </trkpt>
   <trkpt lat="35.2804700" lon="113.9114800">
    <ele>68.9</ele>
    <time>2024-07-09T10:40:17Z</time>
   </trkpt>
   <trkpt lat="35.2804950" lon="113.9114900">
    <ele>69.1</ele>
    <time>2024-07-09T10:40:18Z</time>
   </trkpt>
   <trkpt lat="35.2805140" lon="113.9115000">
    <ele>69.1</ele>
    <time>2024-07-09T10:40:19Z</time>
   </trkpt>
   <trkpt lat="35.2805330" lon="113.9115100">
    <ele>69.3</ele>
    <time>2024-07-09T10:40:20Z</time>
   </trkpt>
   <trkpt lat="35.2805500" lon="113.9115200">
    <ele>69.3</ele>
    <time>2024-07-09T10:40:21Z</time>
   </trkpt>
   <trkpt lat="35.2805630" lon="113.9115450">
    <ele>69.6</ele>
    <time>2024-07-09T10:40:22Z</time>
   </trkpt>
   <trkpt lat="35.2805700" lon="113.9115700">
    <ele>69.6</ele>
    <time>2024-07-09T10:40:23Z</time>
   </trkpt>
   <trkpt lat="35.2805700" lon="113.9116000">
    <ele>69.7</ele>
    <time>2024-07-09T10:40:24Z</time>
   </trkpt>
   <trkpt lat="35.2805700" lon="113.9116300">
    <ele>69.8</ele>
    <time>2024-07-09T10:40:25Z</time>
   </trkpt>
   <trkpt lat="35.2805700" lon="113.9116600">
    <ele>69.9</ele>
    <time>2024-07-09T10:40:26Z</time>
   </trkpt>
   <trkpt lat="35.2805700" lon="113.9116900">
    <ele>69.9</ele>
    <time>2024-07-09T10:40:27Z</time>
   </trkpt>
   <trkpt lat="35.2805670" lon="113.9117200">
    <ele>69.9</ele>
    <time>2024-07-09T10:40:28Z</time>
   </trkpt>
   <trkpt lat="35.2805670" lon="113.9117500">
    <ele>69.9</ele>
    <time>2024-07-09T10:40:29Z</time>
   </trkpt>
   <trkpt lat="35.2805670" lon="113.9117900">
    <ele>69.9</ele>
    <time>2024-07-09T10:40:30Z</time>
   </trkpt>
   <trkpt lat="35.2805700" lon="113.9118300">
    <ele>69.8</ele>
    <time>2024-07-09T10:40:31Z</time>
   </trkpt>
   <trkpt lat="35.2805750" lon="113.9118600">
    <ele>69.8</ele>
    <time>2024-07-09T10:40:32Z</time>
   </trkpt>
   <trkpt lat="35.2805800" lon="113.9118960">
    <ele>69.8</ele>
    <time>2024-07-09T10:40:33Z</time>
   </trkpt>
   <trkpt lat="35.2805820" lon="113.9119300">
    <ele>69.7</ele>
    <time>2024-07-09T10:40:34Z</time>
   </trkpt>
   <trkpt lat="35.2805820" lon="113.9119600">
    <ele>69.8</ele>
    <time>2024-07-09T10:40:35Z</time>
   </trkpt>
   <trkpt lat="35.2805800" lon="113.9119900">
    <ele>69.8</ele>
    <time>2024-07-09T10:40:36Z</time>
   </trkpt>
   <trkpt lat="35.2805750" lon="113.9120200">
    <ele>69.9</ele>
    <time>2024-07-09T10:40:37Z</time>
   </trkpt>
   <trkpt lat="35.2805700" lon="113.9120400">
    <ele>69.9</ele>
    <time>2024-07-09T10:40:38Z</time>
   </trkpt>
   <trkpt lat="35.2805670" lon="113.9120600">
    <ele>70.1</ele>
    <time>2024-07-09T10:40:39Z</time>
   </trkpt>
   <trkpt lat="35.2805600" lon="113.9120900">
    <ele>70.4</ele>
    <time>2024-07-09T10:40:40Z</time>
   </trkpt>
   <trkpt lat="35.2805520" lon="113.9121100">
    <ele>70.1</ele>
    <time>2024-07-09T10:40:41Z</time>
   </trkpt>
   <trkpt lat="35.2805440" lon="113.9121300">
    <ele>70.3</ele>
    <time>2024-07-09T10:40:42Z</time>
   </trkpt>
   <trkpt lat="35.2805370" lon="113.9121500">
    <ele>70.3</ele>
    <time>2024-07-09T10:40:43Z</time>
   </trkpt>
   <trkpt lat="35.2805300" lon="113.9121600">
    <ele>70.3</ele>
    <time>2024-07-09T10:40:44Z</time>
   </trkpt>
   <trkpt lat="35.2805180" lon="113.9121860">
    <ele>70.2</ele>
    <time>2024-07-09T10:40:45Z</time>
   </trkpt>
   <trkpt lat="35.2805140" lon="113.9122000">
    <ele>70.2</ele>
    <time>2024-07-09T10:40:46Z</time>
   </trkpt>
   <trkpt lat="35.2805020" lon="113.9122300">
    <ele>70.4</ele>
    <time>2024-07-09T10:40:47Z</time>
   </trkpt>
   <trkpt lat="35.2804870" lon="113.9122300">
    <ele>70.5</ele>
    <time>2024-07-09T10:40:48Z</time>
   </trkpt>
   <trkpt lat="35.2804600" lon="113.9122200">
    <ele>70.5</ele>
    <time>2024-07-09T10:40:49Z</time>
   </trkpt>
   <trkpt lat="35.2804340" lon="113.9122000">
    <ele>70.5</ele>
    <time>2024-07-09T10:40:50Z</time>
   </trkpt>
   <trkpt lat="35.2804070" lon="113.9121860">
    <ele>70.6</ele>
    <time>2024-07-09T10:40:51Z</time>
   </trkpt>
   <trkpt lat="35.2803800" lon="113.9121800">
    <ele>70.6</ele>
    <time>2024-07-09T10:40:52Z</time>
   </trkpt>
   <trkpt lat="35.2803540" lon="113.9121700">
    <ele>70.6</ele>
    <time>2024-07-09T10:40:53Z</time>
   </trkpt>
   <trkpt lat="35.2803270" lon="113.9121600">
    <ele>70.7</ele>
    <time>2024-07-09T10:40:54Z</time>
   </trkpt>
   <trkpt lat="35.2803040" lon="113.9121550">
    <ele>70.7</ele>
    <time>2024-07-09T10:40:55Z</time>
   </trkpt>
   <trkpt lat="35.2802730" lon="113.9121550">
    <ele>70.7</ele>
    <time>2024-07-09T10:40:56Z</time>
   </trkpt>
   <trkpt lat="35.2802470" lon="113.9121500">
    <ele>70.8</ele>
    <time>2024-07-09T10:40:57Z</time>
   </trkpt>
   <trkpt lat="35.2802200" lon="113.9121400">
    <ele>70.8</ele>
    <time>2024-07-09T10:40:58Z</time>
   </trkpt>
   <trkpt lat="35.2801900" lon="113.9121300">
    <ele>70.9</ele>
    <time>2024-07-09T10:40:59Z</time>
   </trkpt>
   <trkpt lat="35.2801630" lon="113.9121250">
    <ele>71.0</ele>
    <time>2024-07-09T10:41:00Z</time>
   </trkpt>
   <trkpt lat="35.2801320" lon="113.9121200">
    <ele>71.0</ele>
    <time>2024-07-09T10:41:01Z</time>
   </trkpt>
   <trkpt lat="35.2801060" lon="113.9121000">
    <ele>71.1</ele>
    <time>2024-07-09T10:41:02Z</time>
   </trkpt>
   <trkpt lat="35.2800750" lon="113.9120900">
    <ele>71.2</ele>
    <time>2024-07-09T10:41:03Z</time>
   </trkpt>
   <trkpt lat="35.2800500" lon="113.9120800">
    <ele>71.2</ele>
    <time>2024-07-09T10:41:04Z</time>
   </trkpt>
   <trkpt lat="35.2800180" lon="113.9120700">
    <ele>71.3</ele>
    <time>2024-07-09T10:41:05Z</time>
   </trkpt>
   <trkpt lat="35.2799870" lon="113.9120600">
    <ele>71.4</ele>
    <time>2024-07-09T10:41:06Z</time>
   </trkpt>
   <trkpt lat="35.2799570" lon="113.9120500">
    <ele>71.4</ele>
    <time>2024-07-09T10:41:07Z</time>
   </trkpt>
   <trkpt lat="35.2799300" lon="113.9120500">
    <ele>71.5</ele>
    <time>2024-07-09T10:41:08Z</time>
   </trkpt>
   <trkpt lat="35.2799000" lon="113.9120400">
    <ele>71.5</ele>
    <time>2024-07-09T10:41:09Z</time>
   </trkpt>
   <trkpt lat="35.2798730" lon="113.9120400">
    <ele>71.5</ele>
    <time>2024-07-09T10:41:10Z</time>
   </trkpt>
   <trkpt lat="35.2798420" lon="113.9120300">
    <ele>71.6</ele>
    <time>2024-07-09T10:41:11Z</time>
   </trkpt>
   <trkpt lat="35.2798160" lon="113.9120200">
    <ele>71.6</ele>
    <time>2024-07-09T10:41:12Z</time>
   </trkpt>
   <trkpt lat="35.2797850" lon="113.9120200">
    <ele>71.6</ele>
    <time>2024-07-09T10:41:13Z</time>
   </trkpt>
   <trkpt lat="35.2797600" lon="113.9120100">
    <ele>71.7</ele>
    <time>2024-07-09T10:41:14Z</time>
   </trkpt>
   <trkpt lat="35.2797280" lon="113.9120100">
    <ele>71.7</ele>
    <time>2024-07-09T10:41:15Z</time>
   </trkpt>
   <trkpt lat="35.2796970" lon="113.9120000">
    <ele>71.8</ele>
    <time>2024-07-09T10:41:16Z</time>
   </trkpt>
   <trkpt lat="35.2796670" lon="113.9119950">
    <ele>71.8</ele>
    <time>2024-07-09T10:41:17Z</time>
   </trkpt>
   <trkpt lat="35.2796330" lon="113.9119900">
    <ele>71.8</ele>
    <time>2024-07-09T10:41:18Z</time>
   </trkpt>
   <trkpt lat="35.2796020" lon="113.9119800">
    <ele>71.9</ele>
    <time>2024-07-09T10:41:19Z</time>
   </trkpt>
   <trkpt lat="35.2795680" lon="113.9119700">
    <ele>71.9</ele>
    <time>2024-07-09T10:41:20Z</time>
   </trkpt>
   <trkpt lat="35.2795370" lon="113.9119640">
    <ele>71.9</ele>
    <time>2024-07-09T10:41:21Z</time>
   </trkpt>
   <trkpt lat="35.2795070" lon="113.9119600">
    <ele>71.9</ele>
    <time>2024-07-09T10:41:22Z</time>
   </trkpt>
   <trkpt lat="35.2794760" lon="113.9119600">
    <ele>71.9</ele>
    <time>2024-07-09T10:41:23Z</time>
   </trkpt>
   <trkpt lat="35.2794460" lon="113.9119500">
    <ele>72.0</ele>
    <time>2024-07-09T10:41:24Z</time>
   </trkpt>
   <trkpt lat="35.2794230" lon="113.9119400">
    <ele>72.0</ele>
    <time>2024-07-09T10:41:25Z</time>
   </trkpt>
   <trkpt lat="35.2793960" lon="113.9119340">
    <ele>72.0</ele>
    <time>2024-07-09T10:41:26Z</time>
   </trkpt>
   <trkpt lat="35.2793730" lon="113.9119340">
    <ele>72.0</ele>
    <time>2024-07-09T10:41:27Z</time>
   </trkpt>
   <trkpt lat="35.2793460" lon="113.9119340">
    <ele>72.0</ele>
    <time>2024-07-09T10:41:28Z</time>
   </trkpt>
   <trkpt lat="35.2793160" lon="113.9119300">
    <ele>71.9</ele>
    <time>2024-07-09T10:41:29Z</time>
   </trkpt>
   <trkpt lat="35.2792900" lon="113.9119300">
    <ele>71.9</ele>
    <time>2024-07-09T10:41:30Z</time>
   </trkpt>
   <trkpt lat="35.2792630" lon="113.9119300">
    <ele>71.8</ele>
    <time>2024-07-09T10:41:31Z</time>
   </trkpt>
   <trkpt lat="35.2792320" lon="113.9119300">
    <ele>71.8</ele>
    <time>2024-07-09T10:41:32Z</time>
   </trkpt>
   <trkpt lat="35.2792000" lon="113.9119200">
    <ele>71.7</ele>
    <time>2024-07-09T10:41:33Z</time>
   </trkpt>
   <trkpt lat="35.2791700" lon="113.9119300">
    <ele>71.7</ele>
    <time>2024-07-09T10:41:34Z</time>
   </trkpt>
   <trkpt lat="35.2791400" lon="113.9119300">
    <ele>71.6</ele>
    <time>2024-07-09T10:41:35Z</time>
   </trkpt>
   <trkpt lat="35.2791060" lon="113.9119340">
    <ele>71.6</ele>
    <time>2024-07-09T10:41:36Z</time>
   </trkpt>
   <trkpt lat="35.2790760" lon="113.9119340">
    <ele>71.6</ele>
    <time>2024-07-09T10:41:37Z</time>
   </trkpt>
   <trkpt lat="35.2790400" lon="113.9119340">
    <ele>71.5</ele>
    <time>2024-07-09T10:41:38Z</time>
   </trkpt>
   <trkpt lat="35.2789760" lon="113.9119300">
    <ele>71.5</ele>
    <time>2024-07-09T10:41:40Z</time>
   </trkpt>
   <trkpt lat="35.2789100" lon="113.9119300">
    <ele>71.5</ele>
    <time>2024-07-09T10:41:42Z</time>
   </trkpt>
   <trkpt lat="35.2788800" lon="113.9119300">
    <ele>71.5</ele>
    <time>2024-07-09T10:41:43Z</time>
   </trkpt>
   <trkpt lat="35.2788500" lon="113.9119300">
    <ele>71.5</ele>
    <time>2024-07-09T10:41:44Z</time>
   </trkpt>
   <trkpt lat="35.2788200" lon="113.9119340">
    <ele>71.5</ele>
    <time>2024-07-09T10:41:45Z</time>
   </trkpt>
   <trkpt lat="35.2787900" lon="113.9119340">
    <ele>71.5</ele>
    <time>2024-07-09T10:41:46Z</time>
   </trkpt>
   <trkpt lat="35.2787600" lon="113.9119300">
    <ele>71.5</ele>
    <time>2024-07-09T10:41:47Z</time>
   </trkpt>
   <trkpt lat="35.2787300" lon="113.9119300">
    <ele>71.6</ele>
    <time>2024-07-09T10:41:48Z</time>
   </trkpt>
   <trkpt lat="35.2786980" lon="113.9119340">
    <ele>71.6</ele>
    <time>2024-07-09T10:41:49Z</time>
   </trkpt>
   <trkpt lat="35.2786700" lon="113.9119340">
    <ele>71.6</ele>
    <time>2024-07-09T10:41:50Z</time>
   </trkpt>
   <trkpt lat="35.2786450" lon="113.9119340">
    <ele>71.6</ele>
    <time>2024-07-09T10:41:51Z</time>
   </trkpt>
   <trkpt lat="35.2786180" lon="113.9119340">
    <ele>71.6</ele>
    <time>2024-07-09T10:41:52Z</time>
   </trkpt>
   <trkpt lat="35.2785900" lon="113.9119400">
    <ele>71.6</ele>
    <time>2024-07-09T10:41:53Z</time>
   </trkpt>
   <trkpt lat="35.2785640" lon="113.9119400">
    <ele>71.6</ele>
    <time>2024-07-09T10:41:54Z</time>
   </trkpt>
   <trkpt lat="35.2785380" lon="113.9119340">
    <ele>71.6</ele>
    <time>2024-07-09T10:41:55Z</time>
   </trkpt>
   <trkpt lat="35.2785100" lon="113.9119340">
    <ele>71.6</ele>
    <time>2024-07-09T10:41:56Z</time>
   </trkpt>
   <trkpt lat="35.2784840" lon="113.9119340">
    <ele>71.6</ele>
    <time>2024-07-09T10:41:57Z</time>
   </trkpt>
   <trkpt lat="35.2784580" lon="113.9119340">
    <ele>71.6</ele>
    <time>2024-07-09T10:41:58Z</time>
   </trkpt>
   <trkpt lat="35.2784270" lon="113.9119340">
    <ele>71.6</ele>
    <time>2024-07-09T10:41:59Z</time>
   </trkpt>
   <trkpt lat="35.2783930" lon="113.9119340">
    <ele>71.6</ele>
    <time>2024-07-09T10:42:00Z</time>
   </trkpt>
   <trkpt lat="35.2783660" lon="113.9119340">
    <ele>71.6</ele>
    <time>2024-07-09T10:42:01Z</time>
   </trkpt>
   <trkpt lat="35.2783360" lon="113.9119300">
    <ele>71.6</ele>
    <time>2024-07-09T10:42:02Z</time>
   </trkpt>
   <trkpt lat="35.2783100" lon="113.9119340">
    <ele>71.5</ele>
    <time>2024-07-09T10:42:03Z</time>
   </trkpt>
   <trkpt lat="35.2782800" lon="113.9119340">
    <ele>71.5</ele>
    <time>2024-07-09T10:42:04Z</time>
   </trkpt>
   <trkpt lat="35.2782480" lon="113.9119400">
    <ele>71.5</ele>
    <time>2024-07-09T10:42:05Z</time>
   </trkpt>
   <trkpt lat="35.2782200" lon="113.9119400">
    <ele>71.5</ele>
    <time>2024-07-09T10:42:06Z</time>
   </trkpt>
   <trkpt lat="35.2781940" lon="113.9119500">
    <ele>71.5</ele>
    <time>2024-07-09T10:42:07Z</time>
   </trkpt>
   <trkpt lat="35.2781640" lon="113.9119600">
    <ele>71.5</ele>
    <time>2024-07-09T10:42:08Z</time>
   </trkpt>
   <trkpt lat="35.2781330" lon="113.9119600">
    <ele>71.5</ele>
    <time>2024-07-09T10:42:09Z</time>
   </trkpt>
   <trkpt lat="35.2781030" lon="113.9119600">
    <ele>71.5</ele>
    <time>2024-07-09T10:42:10Z</time>
   </trkpt>
   <trkpt lat="35.2780720" lon="113.9119600">
    <ele>71.5</ele>
    <time>2024-07-09T10:42:11Z</time>
   </trkpt>
   <trkpt lat="35.2780380" lon="113.9119600">
    <ele>71.5</ele>
    <time>2024-07-09T10:42:12Z</time>
   </trkpt>
   <trkpt lat="35.2780080" lon="113.9119600">
    <ele>71.6</ele>
    <time>2024-07-09T10:42:13Z</time>
   </trkpt>
   <trkpt lat="35.2779770" lon="113.9119600">
    <ele>71.6</ele>
    <time>2024-07-09T10:42:14Z</time>
   </trkpt>
   <trkpt lat="35.2779460" lon="113.9119640">
    <ele>71.6</ele>
    <time>2024-07-09T10:42:15Z</time>
   </trkpt>
   <trkpt lat="35.2779160" lon="113.9119640">
    <ele>71.6</ele>
    <time>2024-07-09T10:42:16Z</time>
   </trkpt>
   <trkpt lat="35.2778850" lon="113.9119640">
    <ele>71.6</ele>
    <time>2024-07-09T10:42:17Z</time>
   </trkpt>
   <trkpt lat="35.2778550" lon="113.9119640">
    <ele>71.5</ele>
    <time>2024-07-09T10:42:18Z</time>
   </trkpt>
   <trkpt lat="35.2778240" lon="113.9119640">
    <ele>71.5</ele>
    <time>2024-07-09T10:42:19Z</time>
   </trkpt>
   <trkpt lat="35.2777940" lon="113.9119640">
    <ele>71.4</ele>
    <time>2024-07-09T10:42:20Z</time>
   </trkpt>
   <trkpt lat="35.2777630" lon="113.9119640">
    <ele>71.4</ele>
    <time>2024-07-09T10:42:21Z</time>
   </trkpt>
   <trkpt lat="35.2777300" lon="113.9119640">
    <ele>71.3</ele>
    <time>2024-07-09T10:42:22Z</time>
   </trkpt>
   <trkpt lat="35.2777000" lon="113.9119640">
    <ele>71.2</ele>
    <time>2024-07-09T10:42:23Z</time>
   </trkpt>
   <trkpt lat="35.2776680" lon="113.9119640">
    <ele>71.1</ele>
    <time>2024-07-09T10:42:24Z</time>
   </trkpt>
   <trkpt lat="35.2776400" lon="113.9119700">
    <ele>71.0</ele>
    <time>2024-07-09T10:42:25Z</time>
   </trkpt>
   <trkpt lat="35.2776100" lon="113.9119640">
    <ele>71.0</ele>
    <time>2024-07-09T10:42:26Z</time>
   </trkpt>
   <trkpt lat="35.2775800" lon="113.9119640">
    <ele>70.9</ele>
    <time>2024-07-09T10:42:27Z</time>
   </trkpt>
   <trkpt lat="35.2775460" lon="113.9119640">
    <ele>70.8</ele>
    <time>2024-07-09T10:42:28Z</time>
   </trkpt>
   <trkpt lat="35.2775150" lon="113.9119640">
    <ele>70.8</ele>
    <time>2024-07-09T10:42:29Z</time>
   </trkpt>
   <trkpt lat="35.2774850" lon="113.9119640">
    <ele>70.8</ele>
    <time>2024-07-09T10:42:30Z</time>
   </trkpt>
   <trkpt lat="35.2774540" lon="113.9119640">
    <ele>70.7</ele>
    <time>2024-07-09T10:42:31Z</time>
   </trkpt>
   <trkpt lat="35.2774240" lon="113.9119700">
    <ele>70.7</ele>
    <time>2024-07-09T10:42:32Z</time>
   </trkpt>
   <trkpt lat="35.2773930" lon="113.9119700">
    <ele>70.7</ele>
    <time>2024-07-09T10:42:33Z</time>
   </trkpt>
   <trkpt lat="35.2773630" lon="113.9119640">
    <ele>70.7</ele>
    <time>2024-07-09T10:42:34Z</time>
   </trkpt>
   <trkpt lat="35.2773320" lon="113.9119640">
    <ele>70.7</ele>
    <time>2024-07-09T10:42:35Z</time>
   </trkpt>
   <trkpt lat="35.2773000" lon="113.9119640">
    <ele>70.6</ele>
    <time>2024-07-09T10:42:36Z</time>
   </trkpt>
   <trkpt lat="35.2772670" lon="113.9119640">
    <ele>70.6</ele>
    <time>2024-07-09T10:42:37Z</time>
   </trkpt>
   <trkpt lat="35.2772330" lon="113.9119640">
    <ele>70.6</ele>
    <time>2024-07-09T10:42:38Z</time>
   </trkpt>
   <trkpt lat="35.2772030" lon="113.9119640">
    <ele>70.6</ele>
    <time>2024-07-09T10:42:39Z</time>
   </trkpt>
   <trkpt lat="35.2771720" lon="113.9119640">
    <ele>70.6</ele>
    <time>2024-07-09T10:42:40Z</time>
   </trkpt>
   <trkpt lat="35.2771380" lon="113.9119640">
    <ele>70.6</ele>
    <time>2024-07-09T10:42:41Z</time>
   </trkpt>
   <trkpt lat="35.2771070" lon="113.9119640">
    <ele>70.6</ele>
    <time>2024-07-09T10:42:42Z</time>
   </trkpt>
   <trkpt lat="35.2770730" lon="113.9119640">
    <ele>70.6</ele>
    <time>2024-07-09T10:42:43Z</time>
   </trkpt>
   <trkpt lat="35.2770420" lon="113.9119640">
    <ele>70.6</ele>
    <time>2024-07-09T10:42:44Z</time>
   </trkpt>
   <trkpt lat="35.2770100" lon="113.9119640">
    <ele>70.6</ele>
    <time>2024-07-09T10:42:45Z</time>
   </trkpt>
   <trkpt lat="35.2769780" lon="113.9119640">
    <ele>70.6</ele>
    <time>2024-07-09T10:42:46Z</time>
   </trkpt>
   <trkpt lat="35.2769470" lon="113.9119700">
    <ele>70.6</ele>
    <time>2024-07-09T10:42:47Z</time>
   </trkpt>
   <trkpt lat="35.2769170" lon="113.9119700">
    <ele>70.6</ele>
    <time>2024-07-09T10:42:48Z</time>
   </trkpt>
   <trkpt lat="35.2768860" lon="113.9119640">
    <ele>70.6</ele>
    <time>2024-07-09T10:42:49Z</time>
   </trkpt>
   <trkpt lat="35.2768500" lon="113.9119600">
    <ele>70.6</ele>
    <time>2024-07-09T10:42:50Z</time>
   </trkpt>
   <trkpt lat="35.2768200" lon="113.9119600">
    <ele>70.6</ele>
    <time>2024-07-09T10:42:51Z</time>
   </trkpt>
   <trkpt lat="35.2767900" lon="113.9119600">
    <ele>70.6</ele>
    <time>2024-07-09T10:42:52Z</time>
   </trkpt>
   <trkpt lat="35.2767600" lon="113.9119600">
    <ele>70.6</ele>
    <time>2024-07-09T10:42:53Z</time>
   </trkpt>
   <trkpt lat="35.2767300" lon="113.9119600">
    <ele>70.7</ele>
    <time>2024-07-09T10:42:54Z</time>
   </trkpt>
   <trkpt lat="35.2767000" lon="113.9119600">
    <ele>70.7</ele>
    <time>2024-07-09T10:42:55Z</time>
   </trkpt>
   <trkpt lat="35.2766700" lon="113.9119600">
    <ele>70.7</ele>
    <time>2024-07-09T10:42:56Z</time>
   </trkpt>
   <trkpt lat="35.2766400" lon="113.9119600">
    <ele>70.8</ele>
    <time>2024-07-09T10:42:57Z</time>
   </trkpt>
   <trkpt lat="35.2766100" lon="113.9119600">
    <ele>70.8</ele>
    <time>2024-07-09T10:42:58Z</time>
   </trkpt>
   <trkpt lat="35.2765800" lon="113.9119600">
    <ele>70.8</ele>
    <time>2024-07-09T10:42:59Z</time>
   </trkpt>
   <trkpt lat="35.2765500" lon="113.9119600">
    <ele>70.8</ele>
    <time>2024-07-09T10:43:00Z</time>
   </trkpt>
   <trkpt lat="35.2765200" lon="113.9119600">
    <ele>70.9</ele>
    <time>2024-07-09T10:43:01Z</time>
   </trkpt>
   <trkpt lat="35.2764900" lon="113.9119600">
    <ele>70.9</ele>
    <time>2024-07-09T10:43:02Z</time>
   </trkpt>
   <trkpt lat="35.2764550" lon="113.9119600">
    <ele>71.0</ele>
    <time>2024-07-09T10:43:03Z</time>
   </trkpt>
   <trkpt lat="35.2764240" lon="113.9119600">
    <ele>71.1</ele>
    <time>2024-07-09T10:43:04Z</time>
   </trkpt>
   <trkpt lat="35.2763940" lon="113.9119600">
    <ele>71.1</ele>
    <time>2024-07-09T10:43:05Z</time>
   </trkpt>
   <trkpt lat="35.2763630" lon="113.9119600">
    <ele>71.2</ele>
    <time>2024-07-09T10:43:06Z</time>
   </trkpt>
   <trkpt lat="35.2763330" lon="113.9119640">
    <ele>71.2</ele>
    <time>2024-07-09T10:43:07Z</time>
   </trkpt>
   <trkpt lat="35.2763020" lon="113.9119640">
    <ele>71.3</ele>
    <time>2024-07-09T10:43:08Z</time>
   </trkpt>
   <trkpt lat="35.2762700" lon="113.9119600">
    <ele>71.4</ele>
    <time>2024-07-09T10:43:09Z</time>
   </trkpt>
   <trkpt lat="35.2762400" lon="113.9119600">
    <ele>71.4</ele>
    <time>2024-07-09T10:43:10Z</time>
   </trkpt>
   <trkpt lat="35.2762100" lon="113.9119600">
    <ele>71.5</ele>
    <time>2024-07-09T10:43:11Z</time>
   </trkpt>
   <trkpt lat="35.2761730" lon="113.9119600">
    <ele>71.6</ele>
    <time>2024-07-09T10:43:12Z</time>
   </trkpt>
   <trkpt lat="35.2761420" lon="113.9119600">
    <ele>71.6</ele>
    <time>2024-07-09T10:43:13Z</time>
   </trkpt>
   <trkpt lat="35.2761080" lon="113.9119640">
    <ele>71.7</ele>
    <time>2024-07-09T10:43:14Z</time>
   </trkpt>
   <trkpt lat="35.2760540" lon="113.9119640">
    <ele>71.7</ele>
    <time>2024-07-09T10:43:16Z</time>
   </trkpt>
   <trkpt lat="35.2760240" lon="113.9119640">
    <ele>71.8</ele>
    <time>2024-07-09T10:43:17Z</time>
   </trkpt>
   <trkpt lat="35.2759970" lon="113.9119640">
    <ele>71.8</ele>
    <time>2024-07-09T10:43:18Z</time>
   </trkpt>
   <trkpt lat="35.2759670" lon="113.9119600">
    <ele>71.9</ele>
    <time>2024-07-09T10:43:19Z</time>
   </trkpt>
   <trkpt lat="35.2759400" lon="113.9119500">
    <ele>71.9</ele>
    <time>2024-07-09T10:43:20Z</time>
   </trkpt>
   <trkpt lat="35.2759100" lon="113.9119340">
    <ele>72.0</ele>
    <time>2024-07-09T10:43:21Z</time>
   </trkpt>
   <trkpt lat="35.2758800" lon="113.9119340">
    <ele>72.0</ele>
    <time>2024-07-09T10:43:22Z</time>
   </trkpt>
   <trkpt lat="35.2758500" lon="113.9119340">
    <ele>72.1</ele>
    <time>2024-07-09T10:43:23Z</time>
   </trkpt>
   <trkpt lat="35.2758200" lon="113.9119340">
    <ele>72.1</ele>
    <time>2024-07-09T10:43:24Z</time>
   </trkpt>
   <trkpt lat="35.2757900" lon="113.9119340">
    <ele>72.2</ele>
    <time>2024-07-09T10:43:25Z</time>
   </trkpt>
   <trkpt lat="35.2757600" lon="113.9119340">
    <ele>72.3</ele>
    <time>2024-07-09T10:43:26Z</time>
   </trkpt>
   <trkpt lat="35.2757340" lon="113.9119300">
    <ele>72.3</ele>
    <time>2024-07-09T10:43:27Z</time>
   </trkpt>
   <trkpt lat="35.2757030" lon="113.9119340">
    <ele>72.4</ele>
    <time>2024-07-09T10:43:28Z</time>
   </trkpt>
   <trkpt lat="35.2756730" lon="113.9119340">
    <ele>72.4</ele>
    <time>2024-07-09T10:43:29Z</time>
   </trkpt>
   <trkpt lat="35.2756460" lon="113.9119340">
    <ele>72.5</ele>
    <time>2024-07-09T10:43:30Z</time>
   </trkpt>
   <trkpt lat="35.2756160" lon="113.9119340">
    <ele>72.5</ele>
    <time>2024-07-09T10:43:31Z</time>
   </trkpt>
   <trkpt lat="35.2755850" lon="113.9119340">
    <ele>72.6</ele>
    <time>2024-07-09T10:43:32Z</time>
   </trkpt>
   <trkpt lat="35.2755600" lon="113.9119340">
    <ele>72.6</ele>
    <time>2024-07-09T10:43:33Z</time>
   </trkpt>
   <trkpt lat="35.2755300" lon="113.9119340">
    <ele>72.7</ele>
    <time>2024-07-09T10:43:34Z</time>
   </trkpt>
   <trkpt lat="35.2755100" lon="113.9119340">
    <ele>72.7</ele>
    <time>2024-07-09T10:43:35Z</time>
   </trkpt>
   <trkpt lat="35.2754860" lon="113.9119340">
    <ele>72.7</ele>
    <time>2024-07-09T10:43:36Z</time>
   </trkpt>
   <trkpt lat="35.2754600" lon="113.9119340">
    <ele>72.8</ele>
    <time>2024-07-09T10:43:37Z</time>
   </trkpt>
   <trkpt lat="35.2754360" lon="113.9119340">
    <ele>72.8</ele>
    <time>2024-07-09T10:43:38Z</time>
   </trkpt>
   <trkpt lat="35.2754140" lon="113.9119340">
    <ele>72.8</ele>
    <time>2024-07-09T10:43:39Z</time>
   </trkpt>
   <trkpt lat="35.2753900" lon="113.9119300">
    <ele>72.8</ele>
    <time>2024-07-09T10:43:40Z</time>
   </trkpt>
   <trkpt lat="35.2753700" lon="113.9119300">
    <ele>72.8</ele>
    <time>2024-07-09T10:43:41Z</time>
   </trkpt>
   <trkpt lat="35.2753540" lon="113.9119290">
    <ele>72.8</ele>
    <time>2024-07-09T10:43:42Z</time>
   </trkpt>
   <trkpt lat="35.2753530" lon="113.9119270">
    <ele>72.8</ele>
    <time>2024-07-09T10:43:43Z</time>
   </trkpt>
   <trkpt lat="35.2753510" lon="113.9119260">
    <ele>72.8</ele>
    <time>2024-07-09T10:43:44Z</time>
   </trkpt>
   <trkpt lat="35.2753500" lon="113.9119240">
    <ele>72.8</ele>
    <time>2024-07-09T10:43:45Z</time>
   </trkpt>
   <trkpt lat="35.2753480" lon="113.9119230">
    <ele>72.8</ele>
    <time>2024-07-09T10:43:46Z</time>
   </trkpt>
   <trkpt lat="35.2753470" lon="113.9119210">
    <ele>72.8</ele>
    <time>2024-07-09T10:43:47Z</time>
   </trkpt>
   <trkpt lat="35.2753450" lon="113.9119200">
    <ele>72.8</ele>
    <time>2024-07-09T10:43:47Z</time>
   </trkpt>
   <trkpt lat="35.2752040" lon="113.9119100">
    <ele>72.8</ele>
    <time>2024-07-09T10:44:01Z</time>
   </trkpt>
   <trkpt lat="35.2751730" lon="113.9119100">
    <ele>72.8</ele>
    <time>2024-07-09T10:44:02Z</time>
   </trkpt>
   <trkpt lat="35.2751460" lon="113.9119200">
    <ele>72.8</ele>
    <time>2024-07-09T10:44:03Z</time>
   </trkpt>
   <trkpt lat="35.2751120" lon="113.9119200">
    <ele>72.6</ele>
    <time>2024-07-09T10:44:04Z</time>
   </trkpt>
   <trkpt lat="35.2750850" lon="113.9119200">
    <ele>72.4</ele>
    <time>2024-07-09T10:44:05Z</time>
   </trkpt>
   <trkpt lat="35.2750550" lon="113.9119200">
    <ele>72.2</ele>
    <time>2024-07-09T10:44:06Z</time>
   </trkpt>
   <trkpt lat="35.2750240" lon="113.9119200">
    <ele>72.2</ele>
    <time>2024-07-09T10:44:07Z</time>
   </trkpt>
   <trkpt lat="35.2749980" lon="113.9119100">
    <ele>72.3</ele>
    <time>2024-07-09T10:44:08Z</time>
   </trkpt>
   <trkpt lat="35.2749700" lon="113.9119100">
    <ele>72.3</ele>
    <time>2024-07-09T10:44:09Z</time>
   </trkpt>
   <trkpt lat="35.2749400" lon="113.9119200">
    <ele>72.4</ele>
    <time>2024-07-09T10:44:10Z</time>
   </trkpt>
   <trkpt lat="35.2749140" lon="113.9119300">
    <ele>72.4</ele>
    <time>2024-07-09T10:44:11Z</time>
   </trkpt>
   <trkpt lat="35.2748830" lon="113.9119300">
    <ele>72.4</ele>
    <time>2024-07-09T10:44:12Z</time>
   </trkpt>
   <trkpt lat="35.2748530" lon="113.9119300">
    <ele>72.5</ele>
    <time>2024-07-09T10:44:13Z</time>
   </trkpt>
   <trkpt lat="35.2748200" lon="113.9119300">
    <ele>72.5</ele>
    <time>2024-07-09T10:44:14Z</time>
   </trkpt>
   <trkpt lat="35.2747840" lon="113.9119340">
    <ele>72.6</ele>
    <time>2024-07-09T10:44:15Z</time>
   </trkpt>
   <trkpt lat="35.2747540" lon="113.9119340">
    <ele>72.6</ele>
    <time>2024-07-09T10:44:16Z</time>
   </trkpt>
   <trkpt lat="35.2747200" lon="113.9119340">
    <ele>72.7</ele>
    <time>2024-07-09T10:44:17Z</time>
   </trkpt>
   <trkpt lat="35.2746800" lon="113.9119340">
    <ele>72.7</ele>
    <time>2024-07-09T10:44:18Z</time>
   </trkpt>
   <trkpt lat="35.2746120" lon="113.9119340">
    <ele>72.9</ele>
    <time>2024-07-09T10:44:20Z</time>
   </trkpt>
   <trkpt lat="35.2745400" lon="113.9119340">
    <ele>73.0</ele>
    <time>2024-07-09T10:44:22Z</time>
   </trkpt>
   <trkpt lat="35.2744670" lon="113.9119340">
    <ele>73.1</ele>
    <time>2024-07-09T10:44:24Z</time>
   </trkpt>
   <trkpt lat="35.2744000" lon="113.9119400">
    <ele>73.2</ele>
    <time>2024-07-09T10:44:26Z</time>
   </trkpt>
   <trkpt lat="35.2743700" lon="113.9119400">
    <ele>73.2</ele>
    <time>2024-07-09T10:44:27Z</time>
   </trkpt>
   <trkpt lat="35.2743380" lon="113.9119400">
    <ele>73.2</ele>
    <time>2024-07-09T10:44:28Z</time>
   </trkpt>
   <trkpt lat="35.2743070" lon="113.9119500">
    <ele>73.2</ele>
    <time>2024-07-09T10:44:29Z</time>
   </trkpt>
   <trkpt lat="35.2742770" lon="113.9119500">
    <ele>73.2</ele>
    <time>2024-07-09T10:44:30Z</time>
   </trkpt>
   <trkpt lat="35.2742460" lon="113.9119600">
    <ele>73.2</ele>
    <time>2024-07-09T10:44:31Z</time>
   </trkpt>
   <trkpt lat="35.2742200" lon="113.9119640">
    <ele>73.2</ele>
    <time>2024-07-09T10:44:32Z</time>
   </trkpt>
   <trkpt lat="35.2741900" lon="113.9119640">
    <ele>73.3</ele>
    <time>2024-07-09T10:44:33Z</time>
   </trkpt>
   <trkpt lat="35.2741600" lon="113.9119640">
    <ele>73.3</ele>
    <time>2024-07-09T10:44:34Z</time>
   </trkpt>
   <trkpt lat="35.2741280" lon="113.9119600">
    <ele>73.3</ele>
    <time>2024-07-09T10:44:35Z</time>
   </trkpt>
   <trkpt lat="35.2740970" lon="113.9119600">
    <ele>73.4</ele>
    <time>2024-07-09T10:44:36Z</time>
   </trkpt>
   <trkpt lat="35.2740700" lon="113.9119600">
    <ele>73.4</ele>
    <time>2024-07-09T10:44:37Z</time>
   </trkpt>
   <trkpt lat="35.2740400" lon="113.9119600">
    <ele>73.5</ele>
    <time>2024-07-09T10:44:38Z</time>
   </trkpt>
   <trkpt lat="35.2740100" lon="113.9119600">
    <ele>73.5</ele>
    <time>2024-07-09T10:44:39Z</time>
   </trkpt>
   <trkpt lat="35.2739800" lon="113.9119600">
    <ele>73.6</ele>
    <time>2024-07-09T10:44:40Z</time>
   </trkpt>
   <trkpt lat="35.2739520" lon="113.9119600">
    <ele>73.6</ele>
    <time>2024-07-09T10:44:41Z</time>
   </trkpt>
   <trkpt lat="35.2739220" lon="113.9119600">
    <ele>73.6</ele>
    <time>2024-07-09T10:44:42Z</time>
   </trkpt>
   <trkpt lat="35.2738900" lon="113.9119600">
    <ele>73.6</ele>
    <time>2024-07-09T10:44:43Z</time>
   </trkpt>
   <trkpt lat="35.2738570" lon="113.9119600">
    <ele>73.7</ele>
    <time>2024-07-09T10:44:44Z</time>
   </trkpt>
   <trkpt lat="35.2738300" lon="113.9119600">
    <ele>73.7</ele>
    <time>2024-07-09T10:44:45Z</time>
   </trkpt>
   <trkpt lat="35.2737960" lon="113.9119600">
    <ele>73.7</ele>
    <time>2024-07-09T10:44:46Z</time>
   </trkpt>
   <trkpt lat="35.2737660" lon="113.9119640">
    <ele>73.7</ele>
    <time>2024-07-09T10:44:47Z</time>
   </trkpt>
   <trkpt lat="35.2737400" lon="113.9119700">
    <ele>73.7</ele>
    <time>2024-07-09T10:44:48Z</time>
   </trkpt>
   <trkpt lat="35.2737100" lon="113.9119800">
    <ele>73.7</ele>
    <time>2024-07-09T10:44:49Z</time>
   </trkpt>
   <trkpt lat="35.2736780" lon="113.9119800">
    <ele>73.7</ele>
    <time>2024-07-09T10:44:50Z</time>
   </trkpt>
   <trkpt lat="35.2736470" lon="113.9119800">
    <ele>73.6</ele>
    <time>2024-07-09T10:44:51Z</time>
   </trkpt>
   <trkpt lat="35.2736200" lon="113.9119700">
    <ele>73.6</ele>
    <time>2024-07-09T10:44:52Z</time>
   </trkpt>
   <trkpt lat="35.2735900" lon="113.9119640">
    <ele>73.6</ele>
    <time>2024-07-09T10:44:53Z</time>
   </trkpt>
   <trkpt lat="35.2735600" lon="113.9119600">
    <ele>73.6</ele>
    <time>2024-07-09T10:44:54Z</time>
   </trkpt>
   <trkpt lat="35.2735300" lon="113.9119600">
    <ele>73.6</ele>
    <time>2024-07-09T10:44:55Z</time>
   </trkpt>
   <trkpt lat="35.2734950" lon="113.9119600">
    <ele>73.6</ele>
    <time>2024-07-09T10:44:56Z</time>
   </trkpt>
   <trkpt lat="35.2734600" lon="113.9119640">
    <ele>73.6</ele>
    <time>2024-07-09T10:44:57Z</time>
   </trkpt>
   <trkpt lat="35.2734300" lon="113.9119640">
    <ele>73.6</ele>
    <time>2024-07-09T10:44:58Z</time>
   </trkpt>
   <trkpt lat="35.2734000" lon="113.9119640">
    <ele>73.6</ele>
    <time>2024-07-09T10:44:59Z</time>
   </trkpt>
   <trkpt lat="35.2733650" lon="113.9119640">
    <ele>73.6</ele>
    <time>2024-07-09T10:45:00Z</time>
   </trkpt>
   <trkpt lat="35.2733300" lon="113.9119640">
    <ele>73.6</ele>
    <time>2024-07-09T10:45:01Z</time>
   </trkpt>
   <trkpt lat="35.2733000" lon="113.9119640">
    <ele>73.6</ele>
    <time>2024-07-09T10:45:02Z</time>
   </trkpt>
   <trkpt lat="35.2732700" lon="113.9119640">
    <ele>73.5</ele>
    <time>2024-07-09T10:45:03Z</time>
   </trkpt>
   <trkpt lat="35.2732430" lon="113.9119640">
    <ele>73.5</ele>
    <time>2024-07-09T10:45:04Z</time>
   </trkpt>
   <trkpt lat="35.2732100" lon="113.9119600">
    <ele>73.5</ele>
    <time>2024-07-09T10:45:05Z</time>
   </trkpt>
   <trkpt lat="35.2731700" lon="113.9119600">
    <ele>73.5</ele>
    <time>2024-07-09T10:45:06Z</time>
   </trkpt>
   <trkpt lat="35.2731360" lon="113.9119600">
    <ele>73.5</ele>
    <time>2024-07-09T10:45:07Z</time>
   </trkpt>
   <trkpt lat="35.2731000" lon="113.9119600">
    <ele>73.5</ele>
    <time>2024-07-09T10:45:08Z</time>
   </trkpt>
   <trkpt lat="35.2730670" lon="113.9119600">
    <ele>73.5</ele>
    <time>2024-07-09T10:45:09Z</time>
   </trkpt>
   <trkpt lat="35.2730330" lon="113.9119600">
    <ele>73.4</ele>
    <time>2024-07-09T10:45:10Z</time>
   </trkpt>
   <trkpt lat="35.2730030" lon="113.9119600">
    <ele>73.4</ele>
    <time>2024-07-09T10:45:11Z</time>
   </trkpt>
   <trkpt lat="35.2729700" lon="113.9119600">
    <ele>73.4</ele>
    <time>2024-07-09T10:45:12Z</time>
   </trkpt>
   <trkpt lat="35.2729340" lon="113.9119600">
    <ele>73.4</ele>
    <time>2024-07-09T10:45:13Z</time>
   </trkpt>
   <trkpt lat="35.2729000" lon="113.9119600">
    <ele>73.3</ele>
    <time>2024-07-09T10:45:14Z</time>
   </trkpt>
   <trkpt lat="35.2728650" lon="113.9119600">
    <ele>73.3</ele>
    <time>2024-07-09T10:45:15Z</time>
   </trkpt>
   <trkpt lat="35.2728300" lon="113.9119640">
    <ele>73.3</ele>
    <time>2024-07-09T10:45:16Z</time>
   </trkpt>
   <trkpt lat="35.2727970" lon="113.9119640">
    <ele>73.2</ele>
    <time>2024-07-09T10:45:17Z</time>
   </trkpt>
   <trkpt lat="35.2727620" lon="113.9119640">
    <ele>73.2</ele>
    <time>2024-07-09T10:45:18Z</time>
   </trkpt>
   <trkpt lat="35.2727280" lon="113.9119640">
    <ele>73.2</ele>
    <time>2024-07-09T10:45:19Z</time>
   </trkpt>
   <trkpt lat="35.2726940" lon="113.9119640">
    <ele>73.1</ele>
    <time>2024-07-09T10:45:20Z</time>
   </trkpt>
   <trkpt lat="35.2726600" lon="113.9119640">
    <ele>73.1</ele>
    <time>2024-07-09T10:45:21Z</time>
   </trkpt>
   <trkpt lat="35.2726250" lon="113.9119640">
    <ele>73.0</ele>
    <time>2024-07-09T10:45:22Z</time>
   </trkpt>
   <trkpt lat="35.2725870" lon="113.9119640">
    <ele>73.0</ele>
    <time>2024-07-09T10:45:23Z</time>
   </trkpt>
   <trkpt lat="35.2725560" lon="113.9119640">
    <ele>73.0</ele>
    <time>2024-07-09T10:45:24Z</time>
   </trkpt>
   <trkpt lat="35.2725220" lon="113.9119640">
    <ele>73.0</ele>
    <time>2024-07-09T10:45:25Z</time>
   </trkpt>
   <trkpt lat="35.2724880" lon="113.9119640">
    <ele>73.0</ele>
    <time>2024-07-09T10:45:26Z</time>
   </trkpt>
   <trkpt lat="35.2724530" lon="113.9119640">
    <ele>73.0</ele>
    <time>2024-07-09T10:45:27Z</time>
   </trkpt>
   <trkpt lat="35.2724200" lon="113.9119600">
    <ele>73.1</ele>
    <time>2024-07-09T10:45:28Z</time>
   </trkpt>
   <trkpt lat="35.2723850" lon="113.9119640">
    <ele>73.1</ele>
    <time>2024-07-09T10:45:29Z</time>
   </trkpt>
   <trkpt lat="35.2723460" lon="113.9119600">
    <ele>73.1</ele>
    <time>2024-07-09T10:45:30Z</time>
   </trkpt>
   <trkpt lat="35.2723120" lon="113.9119600">
    <ele>73.2</ele>
    <time>2024-07-09T10:45:31Z</time>
   </trkpt>
   <trkpt lat="35.2722780" lon="113.9119600">
    <ele>73.2</ele>
    <time>2024-07-09T10:45:32Z</time>
   </trkpt>
   <trkpt lat="35.2722430" lon="113.9119600">
    <ele>73.2</ele>
    <time>2024-07-09T10:45:33Z</time>
   </trkpt>
   <trkpt lat="35.2722100" lon="113.9119600">
    <ele>73.3</ele>
    <time>2024-07-09T10:45:34Z</time>
   </trkpt>
   <trkpt lat="35.2721750" lon="113.9119500">
    <ele>73.3</ele>
    <time>2024-07-09T10:45:35Z</time>
   </trkpt>
   <trkpt lat="35.2721400" lon="113.9119600">
    <ele>73.4</ele>
    <time>2024-07-09T10:45:36Z</time>
   </trkpt>
   <trkpt lat="35.2721060" lon="113.9119600">
    <ele>73.4</ele>
    <time>2024-07-09T10:45:37Z</time>
   </trkpt>
   <trkpt lat="35.2720700" lon="113.9119600">
    <ele>73.5</ele>
    <time>2024-07-09T10:45:38Z</time>
   </trkpt>
   <trkpt lat="35.2720340" lon="113.9119600">
    <ele>73.5</ele>
    <time>2024-07-09T10:45:39Z</time>
   </trkpt>
   <trkpt lat="35.2720000" lon="113.9119600">
    <ele>73.6</ele>
    <time>2024-07-09T10:45:40Z</time>
   </trkpt>
   <trkpt lat="35.2719650" lon="113.9119600">
    <ele>73.6</ele>
    <time>2024-07-09T10:45:41Z</time>
   </trkpt>
   <trkpt lat="35.2719270" lon="113.9119600">
    <ele>73.6</ele>
    <time>2024-07-09T10:45:42Z</time>
   </trkpt>
   <trkpt lat="35.2718900" lon="113.9119600">
    <ele>73.6</ele>
    <time>2024-07-09T10:45:43Z</time>
   </trkpt>
   <trkpt lat="35.2718100" lon="113.9119600">
    <ele>73.6</ele>
    <time>2024-07-09T10:45:45Z</time>
   </trkpt>
   <trkpt lat="35.2717250" lon="113.9119600">
    <ele>73.6</ele>
    <time>2024-07-09T10:45:47Z</time>
   </trkpt>
   <trkpt lat="35.2716330" lon="113.9119600">
    <ele>73.6</ele>
    <time>2024-07-09T10:45:49Z</time>
   </trkpt>
   <trkpt lat="35.2715400" lon="113.9119600">
    <ele>73.5</ele>
    <time>2024-07-09T10:45:51Z</time>
   </trkpt>
   <trkpt lat="35.2714500" lon="113.9119600">
    <ele>73.5</ele>
    <time>2024-07-09T10:45:53Z</time>
   </trkpt>
   <trkpt lat="35.2713660" lon="113.9119640">
    <ele>73.6</ele>
    <time>2024-07-09T10:45:55Z</time>
   </trkpt>
   <trkpt lat="35.2713240" lon="113.9119600">
    <ele>73.6</ele>
    <time>2024-07-09T10:45:56Z</time>
   </trkpt>
   <trkpt lat="35.2712820" lon="113.9119600">
    <ele>73.6</ele>
    <time>2024-07-09T10:45:57Z</time>
   </trkpt>
   <trkpt lat="35.2712400" lon="113.9119600">
    <ele>73.6</ele>
    <time>2024-07-09T10:45:58Z</time>
   </trkpt>
   <trkpt lat="35.2712000" lon="113.9119500">
    <ele>73.6</ele>
    <time>2024-07-09T10:45:59Z</time>
   </trkpt>
   <trkpt lat="35.2711600" lon="113.9119500">
    <ele>73.7</ele>
    <time>2024-07-09T10:46:00Z</time>
   </trkpt>
   <trkpt lat="35.2711220" lon="113.9119500">
    <ele>73.8</ele>
    <time>2024-07-09T10:46:01Z</time>
   </trkpt>
   <trkpt lat="35.2710800" lon="113.9119500">
    <ele>73.9</ele>
    <time>2024-07-09T10:46:02Z</time>
   </trkpt>
   <trkpt lat="35.2710400" lon="113.9119500">
    <ele>73.8</ele>
    <time>2024-07-09T10:46:03Z</time>
   </trkpt>
   <trkpt lat="35.2710040" lon="113.9119600">
    <ele>73.7</ele>
    <time>2024-07-09T10:46:04Z</time>
   </trkpt>
   <trkpt lat="35.2709700" lon="113.9119700">
    <ele>73.5</ele>
    <time>2024-07-09T10:46:05Z</time>
   </trkpt>
   <trkpt lat="35.2709350" lon="113.9119800">
    <ele>73.4</ele>
    <time>2024-07-09T10:46:06Z</time>
   </trkpt>
   <trkpt lat="35.2708930" lon="113.9119800">
    <ele>73.2</ele>
    <time>2024-07-09T10:46:07Z</time>
   </trkpt>
   <trkpt lat="35.2708550" lon="113.9119700">
    <ele>73.0</ele>
    <time>2024-07-09T10:46:08Z</time>
   </trkpt>
   <trkpt lat="35.2708130" lon="113.9119700">
    <ele>72.9</ele>
    <time>2024-07-09T10:46:09Z</time>
   </trkpt>
   <trkpt lat="35.2707750" lon="113.9119640">
    <ele>72.7</ele>
    <time>2024-07-09T10:46:10Z</time>
   </trkpt>
   <trkpt lat="35.2707370" lon="113.9119640">
    <ele>72.6</ele>
    <time>2024-07-09T10:46:11Z</time>
   </trkpt>
   <trkpt lat="35.2707000" lon="113.9119640">
    <ele>72.5</ele>
    <time>2024-07-09T10:46:12Z</time>
   </trkpt>
   <trkpt lat="35.2706400" lon="113.9119640">
    <ele>72.4</ele>
    <time>2024-07-09T10:46:13Z</time>
   </trkpt>
   <trkpt lat="35.2706200" lon="113.9119640">
    <ele>72.3</ele>
    <time>2024-07-09T10:46:14Z</time>
   </trkpt>
   <trkpt lat="35.2705840" lon="113.9119640">
    <ele>72.3</ele>
    <time>2024-07-09T10:46:15Z</time>
   </trkpt>
   <trkpt lat="35.2705500" lon="113.9119600">
    <ele>72.2</ele>
    <time>2024-07-09T10:46:16Z</time>
   </trkpt>
   <trkpt lat="35.2705150" lon="113.9119500">
    <ele>72.1</ele>
    <time>2024-07-09T10:46:17Z</time>
   </trkpt>
   <trkpt lat="35.2704700" lon="113.9119600">
    <ele>72.1</ele>
    <time>2024-07-09T10:46:18Z</time>
   </trkpt>
   <trkpt lat="35.2704350" lon="113.9119600">
    <ele>72.0</ele>
    <time>2024-07-09T10:46:19Z</time>
   </trkpt>
   <trkpt lat="35.2703930" lon="113.9119600">
    <ele>72.0</ele>
    <time>2024-07-09T10:46:20Z</time>
   </trkpt>
   <trkpt lat="35.2703500" lon="113.9119600">
    <ele>71.9</ele>
    <time>2024-07-09T10:46:21Z</time>
   </trkpt>
   <trkpt lat="35.2703130" lon="113.9119600">
    <ele>71.9</ele>
    <time>2024-07-09T10:46:22Z</time>
   </trkpt>
   <trkpt lat="35.2702700" lon="113.9119600">
    <ele>71.8</ele>
    <time>2024-07-09T10:46:23Z</time>
   </trkpt>
   <trkpt lat="35.2702300" lon="113.9119600">
    <ele>71.7</ele>
    <time>2024-07-09T10:46:24Z</time>
   </trkpt>
   <trkpt lat="35.2701870" lon="113.9119600">
    <ele>71.6</ele>
    <time>2024-07-09T10:46:25Z</time>
   </trkpt>
   <trkpt lat="35.2701450" lon="113.9119600">
    <ele>71.5</ele>
    <time>2024-07-09T10:46:26Z</time>
   </trkpt>
   <trkpt lat="35.2701070" lon="113.9119500">
    <ele>71.4</ele>
    <time>2024-07-09T10:46:27Z</time>
   </trkpt>
   <trkpt lat="35.2700650" lon="113.9119500">
    <ele>71.3</ele>
    <time>2024-07-09T10:46:28Z</time>
   </trkpt>
   <trkpt lat="35.2700230" lon="113.9119600">
    <ele>71.2</ele>
    <time>2024-07-09T10:46:29Z</time>
   </trkpt>
   <trkpt lat="35.2699800" lon="113.9119600">
    <ele>71.1</ele>
    <time>2024-07-09T10:46:30Z</time>
   </trkpt>
   <trkpt lat="35.2699400" lon="113.9119600">
    <ele>71.0</ele>
    <time>2024-07-09T10:46:31Z</time>
   </trkpt>
   <trkpt lat="35.2699000" lon="113.9119600">
    <ele>70.9</ele>
    <time>2024-07-09T10:46:32Z</time>
   </trkpt>
   <trkpt lat="35.2698600" lon="113.9119600">
    <ele>70.9</ele>
    <time>2024-07-09T10:46:33Z</time>
   </trkpt>
   <trkpt lat="35.2698170" lon="113.9119600">
    <ele>70.8</ele>
    <time>2024-07-09T10:46:34Z</time>
   </trkpt>
   <trkpt lat="35.2697750" lon="113.9119600">
    <ele>70.7</ele>
    <time>2024-07-09T10:46:35Z</time>
   </trkpt>
   <trkpt lat="35.2697330" lon="113.9119500">
    <ele>70.7</ele>
    <time>2024-07-09T10:46:36Z</time>
   </trkpt>
   <trkpt lat="35.2696950" lon="113.9119400">
    <ele>70.6</ele>
    <time>2024-07-09T10:46:37Z</time>
   </trkpt>
   <trkpt lat="35.2696530" lon="113.9119340">
    <ele>70.6</ele>
    <time>2024-07-09T10:46:38Z</time>
   </trkpt>
   <trkpt lat="35.2696100" lon="113.9119300">
    <ele>70.5</ele>
    <time>2024-07-09T10:46:39Z</time>
   </trkpt>
   <trkpt lat="35.2695730" lon="113.9119300">
    <ele>70.5</ele>
    <time>2024-07-09T10:46:40Z</time>
   </trkpt>
   <trkpt lat="35.2695350" lon="113.9119300">
    <ele>70.5</ele>
    <time>2024-07-09T10:46:41Z</time>
   </trkpt>
   <trkpt lat="35.2695000" lon="113.9119340">
    <ele>70.5</ele>
    <time>2024-07-09T10:46:42Z</time>
   </trkpt>
   <trkpt lat="35.2694630" lon="113.9119340">
    <ele>70.4</ele>
    <time>2024-07-09T10:46:43Z</time>
   </trkpt>
   <trkpt lat="35.2694320" lon="113.9119340">
    <ele>70.4</ele>
    <time>2024-07-09T10:46:44Z</time>
   </trkpt>
   <trkpt lat="35.2694000" lon="113.9119340">
    <ele>70.4</ele>
    <time>2024-07-09T10:46:45Z</time>
   </trkpt>
   <trkpt lat="35.2693700" lon="113.9119340">
    <ele>70.5</ele>
    <time>2024-07-09T10:46:46Z</time>
   </trkpt>
   <trkpt lat="35.2693440" lon="113.9119300">
    <ele>70.5</ele>
    <time>2024-07-09T10:46:47Z</time>
   </trkpt>
   <trkpt lat="35.2693180" lon="113.9119300">
    <ele>70.5</ele>
    <time>2024-07-09T10:46:48Z</time>
   </trkpt>
   <trkpt lat="35.2693000" lon="113.9119300">
    <ele>70.5</ele>
    <time>2024-07-09T10:46:49Z</time>
   </trkpt>
   <trkpt lat="35.2692750" lon="113.9119300">
    <ele>70.6</ele>
    <time>2024-07-09T10:46:50Z</time>
   </trkpt>
   <trkpt lat="35.2692660" lon="113.9119300">
    <ele>70.6</ele>
    <time>2024-07-09T10:46:51Z</time>
   </trkpt>
   <trkpt lat="35.2692580" lon="113.9119300">
    <ele>70.6</ele>
    <time>2024-07-09T10:46:52Z</time>
   </trkpt>
   <trkpt lat="35.2692490" lon="113.9119300">
    <ele>70.6</ele>
    <time>2024-07-09T10:46:53Z</time>
   </trkpt>
   <trkpt lat="35.2692410" lon="113.9119300">
    <ele>70.6</ele>
    <time>2024-07-09T10:46:54Z</time>
   </trkpt>
   <trkpt lat="35.2692320" lon="113.9119300">
    <ele>70.6</ele>
    <time>2024-07-09T10:46:55Z</time>
   </trkpt>
   <trkpt lat="35.2692240" lon="113.9119300">
    <ele>70.6</ele>
    <time>2024-07-09T10:46:56Z</time>
   </trkpt>
   <trkpt lat="35.2692150" lon="113.9119300">
    <ele>70.7</ele>
    <time>2024-07-09T10:46:57Z</time>
   </trkpt>
   <trkpt lat="35.2692070" lon="113.9119300">
    <ele>70.7</ele>
    <time>2024-07-09T10:46:57Z</time>
   </trkpt>
   <trkpt lat="35.2690500" lon="113.9117300">
    <ele>70.8</ele>
    <time>2024-07-09T10:47:14Z</time>
   </trkpt>
   <trkpt lat="35.2690500" lon="113.9117000">
    <ele>70.8</ele>
    <time>2024-07-09T10:47:15Z</time>
   </trkpt>
   <trkpt lat="35.2690470" lon="113.9116740">
    <ele>70.8</ele>
    <time>2024-07-09T10:47:16Z</time>
   </trkpt>
   <trkpt lat="35.2690470" lon="113.9116440">
    <ele>70.8</ele>
    <time>2024-07-09T10:47:17Z</time>
   </trkpt>
   <trkpt lat="35.2690400" lon="113.9116060">
    <ele>70.8</ele>
    <time>2024-07-09T10:47:18Z</time>
   </trkpt>
   <trkpt lat="35.2690300" lon="113.9115750">
    <ele>70.8</ele>
    <time>2024-07-09T10:47:19Z</time>
   </trkpt>
   <trkpt lat="35.2690280" lon="113.9115450">
    <ele>70.8</ele>
    <time>2024-07-09T10:47:20Z</time>
   </trkpt>
   <trkpt lat="35.2690280" lon="113.9115100">
    <ele>70.8</ele>
    <time>2024-07-09T10:47:21Z</time>
   </trkpt>
   <trkpt lat="35.2690280" lon="113.9114700">
    <ele>70.7</ele>
    <time>2024-07-09T10:47:22Z</time>
   </trkpt>
   <trkpt lat="35.2690280" lon="113.9114300">
    <ele>70.7</ele>
    <time>2024-07-09T10:47:23Z</time>
   </trkpt>
   <trkpt lat="35.2690300" lon="113.9113900">
    <ele>70.7</ele>
    <time>2024-07-09T10:47:24Z</time>
   </trkpt>
   <trkpt lat="35.2690280" lon="113.9113540">
    <ele>70.7</ele>
    <time>2024-07-09T10:47:25Z</time>
   </trkpt>
   <trkpt lat="35.2690300" lon="113.9113160">
    <ele>70.7</ele>
    <time>2024-07-09T10:47:26Z</time>
   </trkpt>
   <trkpt lat="35.2690300" lon="113.9112800">
    <ele>70.6</ele>
    <time>2024-07-09T10:47:27Z</time>
   </trkpt>
   <trkpt lat="35.2690300" lon="113.9112400">
    <ele>70.6</ele>
    <time>2024-07-09T10:47:28Z</time>
   </trkpt>
   <trkpt lat="35.2690280" lon="113.9112000">
    <ele>70.6</ele>
    <time>2024-07-09T10:47:29Z</time>
   </trkpt>
   <trkpt lat="35.2690280" lon="113.9111600">
    <ele>70.6</ele>
    <time>2024-07-09T10:47:30Z</time>
   </trkpt>
   <trkpt lat="35.2690280" lon="113.9111250">
    <ele>70.6</ele>
    <time>2024-07-09T10:47:31Z</time>
   </trkpt>
   <trkpt lat="35.2690280" lon="113.9110900">
    <ele>70.6</ele>
    <time>2024-07-09T10:47:32Z</time>
   </trkpt>
   <trkpt lat="35.2690300" lon="113.9110500">
    <ele>70.7</ele>
    <time>2024-07-09T10:47:33Z</time>
   </trkpt>
   <trkpt lat="35.2690300" lon="113.9110100">
    <ele>70.7</ele>
    <time>2024-07-09T10:47:34Z</time>
   </trkpt>
   <trkpt lat="35.2690300" lon="113.9109700">
    <ele>70.7</ele>
    <time>2024-07-09T10:47:35Z</time>
   </trkpt>
   <trkpt lat="35.2690300" lon="113.9109400">
    <ele>70.7</ele>
    <time>2024-07-09T10:47:36Z</time>
   </trkpt>
   <trkpt lat="35.2690280" lon="113.9109040">
    <ele>70.7</ele>
    <time>2024-07-09T10:47:37Z</time>
   </trkpt>
   <trkpt lat="35.2690280" lon="113.9108660">
    <ele>70.7</ele>
    <time>2024-07-09T10:47:38Z</time>
   </trkpt>
   <trkpt lat="35.2690240" lon="113.9108300">
    <ele>70.8</ele>
    <time>2024-07-09T10:47:39Z</time>
   </trkpt>
   <trkpt lat="35.2690240" lon="113.9107900">
    <ele>70.8</ele>
    <time>2024-07-09T10:47:40Z</time>
   </trkpt>
   <trkpt lat="35.2690280" lon="113.9107500">
    <ele>70.8</ele>
    <time>2024-07-09T10:47:41Z</time>
   </trkpt>
   <trkpt lat="35.2690300" lon="113.9107100">
    <ele>70.8</ele>
    <time>2024-07-09T10:47:42Z</time>
   </trkpt>
   <trkpt lat="35.2690300" lon="113.9106800">
    <ele>70.8</ele>
    <time>2024-07-09T10:47:43Z</time>
   </trkpt>
   <trkpt lat="35.2690280" lon="113.9106500">
    <ele>70.9</ele>
    <time>2024-07-09T10:47:44Z</time>
   </trkpt>
   <trkpt lat="35.2690280" lon="113.9106140">
    <ele>70.9</ele>
    <time>2024-07-09T10:47:45Z</time>
   </trkpt>
   <trkpt lat="35.2690280" lon="113.9105800">
    <ele>70.9</ele>
    <time>2024-07-09T10:47:46Z</time>
   </trkpt>
   <trkpt lat="35.2690280" lon="113.9105450">
    <ele>70.9</ele>
    <time>2024-07-09T10:47:47Z</time>
   </trkpt>
   <trkpt lat="35.2690280" lon="113.9105150">
    <ele>70.9</ele>
    <time>2024-07-09T10:47:48Z</time>
   </trkpt>
   <trkpt lat="35.2690280" lon="113.9104800">
    <ele>70.9</ele>
    <time>2024-07-09T10:47:49Z</time>
   </trkpt>
   <trkpt lat="35.2690280" lon="113.9104460">
    <ele>70.9</ele>
    <time>2024-07-09T10:47:50Z</time>
   </trkpt>
   <trkpt lat="35.2690280" lon="113.9104160">
    <ele>70.9</ele>
    <time>2024-07-09T10:47:51Z</time>
   </trkpt>
   <trkpt lat="35.2690240" lon="113.9103850">
    <ele>71.0</ele>
    <time>2024-07-09T10:47:52Z</time>
   </trkpt>
   <trkpt lat="35.2690240" lon="113.9103500">
    <ele>71.0</ele>
    <time>2024-07-09T10:47:53Z</time>
   </trkpt>
   <trkpt lat="35.2690240" lon="113.9103200">
    <ele>71.0</ele>
    <time>2024-07-09T10:47:54Z</time>
   </trkpt>
   <trkpt lat="35.2690200" lon="113.9102800">
    <ele>71.0</ele>
    <time>2024-07-09T10:47:55Z</time>
   </trkpt>
   <trkpt lat="35.2690240" lon="113.9102400">
    <ele>71.0</ele>
    <time>2024-07-09T10:47:56Z</time>
   </trkpt>
   <trkpt lat="35.2690240" lon="113.9102000">
    <ele>71.0</ele>
    <time>2024-07-09T10:47:57Z</time>
   </trkpt>
   <trkpt lat="35.2690240" lon="113.9101640">
    <ele>70.9</ele>
    <time>2024-07-09T10:47:58Z</time>
   </trkpt>
   <trkpt lat="35.2690200" lon="113.9101260">
    <ele>70.9</ele>
    <time>2024-07-09T10:47:59Z</time>
   </trkpt>
   <trkpt lat="35.2690240" lon="113.9100900">
    <ele>70.9</ele>
    <time>2024-07-09T10:48:00Z</time>
   </trkpt>
   <trkpt lat="35.2690240" lon="113.9100600">
    <ele>70.9</ele>
    <time>2024-07-09T10:48:01Z</time>
   </trkpt>
   <trkpt lat="35.2690240" lon="113.9100300">
    <ele>70.9</ele>
    <time>2024-07-09T10:48:02Z</time>
   </trkpt>
   <trkpt lat="35.2690240" lon="113.9099960">
    <ele>70.8</ele>
    <time>2024-07-09T10:48:03Z</time>
   </trkpt>
   <trkpt lat="35.2690240" lon="113.9099700">
    <ele>70.8</ele>
    <time>2024-07-09T10:48:04Z</time>
   </trkpt>
   <trkpt lat="35.2690200" lon="113.9099600">
    <ele>70.8</ele>
    <time>2024-07-09T10:48:05Z</time>
   </trkpt>
   <trkpt lat="35.2690120" lon="113.9099400">
    <ele>70.8</ele>
    <time>2024-07-09T10:48:06Z</time>
   </trkpt>
   <trkpt lat="35.2690090" lon="113.9099350">
    <ele>70.8</ele>
    <time>2024-07-09T10:48:07Z</time>
   </trkpt>
   <trkpt lat="35.2690080" lon="113.9099350">
    <ele>70.8</ele>
    <time>2024-07-09T10:48:08Z</time>
   </trkpt>
   <trkpt lat="35.2690070" lon="113.9099350">
    <ele>70.8</ele>
    <time>2024-07-09T10:48:09Z</time>
   </trkpt>
   <trkpt lat="35.2690060" lon="113.9099350">
    <ele>70.8</ele>
    <time>2024-07-09T10:48:10Z</time>
   </trkpt>
   <trkpt lat="35.2690050" lon="113.9099350">
    <ele>70.8</ele>
    <time>2024-07-09T10:48:10Z</time>
   </trkpt>
   <trkpt lat="35.2688200" lon="113.9099200">
    <ele>70.6</ele>
    <time>2024-07-09T10:48:42Z</time>
   </trkpt>
   <trkpt lat="35.2688100" lon="113.9099350">
    <ele>70.6</ele>
    <time>2024-07-09T10:48:43Z</time>
   </trkpt>
   <trkpt lat="35.2688000" lon="113.9099500">
    <ele>70.5</ele>
    <time>2024-07-09T10:48:44Z</time>
   </trkpt>
   <trkpt lat="35.2687870" lon="113.9099660">
    <ele>70.5</ele>
    <time>2024-07-09T10:48:45Z</time>
   </trkpt>
   <trkpt lat="35.2687840" lon="113.9099890">
    <ele>70.5</ele>
    <time>2024-07-09T10:48:46Z</time>
   </trkpt>
   <trkpt lat="35.2687840" lon="113.9099980">
    <ele>70.5</ele>
    <time>2024-07-09T10:48:47Z</time>
   </trkpt>
   <trkpt lat="35.2687840" lon="113.9100070">
    <ele>70.5</ele>
    <time>2024-07-09T10:48:48Z</time>
   </trkpt>
   <trkpt lat="35.2687840" lon="113.9100160">
    <ele>70.5</ele>
    <time>2024-07-09T10:48:49Z</time>
   </trkpt>
   <trkpt lat="35.2687840" lon="113.9100250">
    <ele>70.5</ele>
    <time>2024-07-09T10:48:50Z</time>
   </trkpt>
   <trkpt lat="35.2687840" lon="113.9100340">
    <ele>70.5</ele>
    <time>2024-07-09T10:48:50Z</time>
   </trkpt>
   <trkpt lat="35.2687840" lon="113.9100340">
    <ele>70.5</ele>
    <time>2024-07-09T10:48:50Z</time>
   </trkpt>
  </trkseg>
 </trk>
</gpx>
