<?xml version="1.0" encoding="UTF-8"?>
<gpx creator="StravaGPX" version="1.1" xmlns="http://www.topografix.com/GPX/1/1" xmlns:xsi="http://www.w3.org/2001/XMLSchema-instance" xsi:schemaLocation="http://www.topografix.com/GPX/1/1 http://www.topografix.com/GPX/1/1/gpx.xsd">
 <metadata>
  <time>2024-07-05T02:08:52Z</time>
 </metadata>
 <trk>
  <name>Ride</name>
  <type>cycling</type>
  <trkseg>
   <trkpt lat="35.2803200" lon="113.9092300">
    <ele>70.3</ele>
    <time>2024-07-05T02:08:52Z</time>
   </trkpt>
   <trkpt lat="35.2803160" lon="113.9092260">
    <ele>70.3</ele>
    <time>2024-07-05T02:08:53Z</time>
   </trkpt>
   <trkpt lat="35.2803110" lon="113.9092260">
    <ele>70.3</ele>
    <time>2024-07-05T02:08:54Z</time>
   </trkpt>
   <trkpt lat="35.2803070" lon="113.9092270">
    <ele>69.9</ele>
    <time>2024-07-05T02:08:55Z</time>
   </trkpt>
   <trkpt lat="35.2803030" lon="113.9092270">
    <ele>69.9</ele>
    <time>2024-07-05T02:08:56Z</time>
   </trkpt>
   <trkpt lat="35.2802990" lon="113.9092280">
    <ele>69.9</ele>
    <time>2024-07-05T02:08:58Z</time>
   </trkpt>
   <trkpt lat="35.2802940" lon="113.9092280">
    <ele>69.9</ele>
    <time>2024-07-05T02:09:00Z</time>
   </trkpt>
   <trkpt lat="35.2802900" lon="113.9092290">
    <ele>69.9</ele>
    <time>2024-07-05T02:09:01Z</time>
   </trkpt>
   <trkpt lat="35.2802860" lon="113.9092290">
    <ele>69.9</ele>
    <time>2024-07-05T02:09:02Z</time>
   </trkpt>
   <trkpt lat="35.2802810" lon="113.9092300">
    <ele>69.9</ele>
    <time>2024-07-05T02:09:04Z</time>
   </trkpt>
   <trkpt lat="35.2802770" lon="113.9092300">
    <ele>69.9</ele>
    <time>2024-07-05T02:09:04Z</time>
   </trkpt>
   <trkpt lat="35.2802770" lon="113.9092300">
    <ele>69.9</ele>
    <time>2024-07-05T02:09:04Z</time>
   </trkpt>
   <trkpt lat="35.2802470" lon="113.9093400">
    <ele>70.2</ele>
    <time>2024-07-05T02:09:21Z</time>
   </trkpt>
   <trkpt lat="35.2802470" lon="113.9093900">
    <ele>70.6</ele>
    <time>2024-07-05T02:09:23Z</time>
   </trkpt>
   <trkpt lat="35.2802500" lon="113.9094540">
    <ele>71.0</ele>
    <time>2024-07-05T02:09:25Z</time>
   </trkpt>
   <trkpt lat="35.2802540" lon="113.9095200">
    <ele>71.9</ele>
    <time>2024-07-05T02:09:27Z</time>
   </trkpt>
   <trkpt lat="35.2802540" lon="113.9095600">
    <ele>72.2</ele>
    <time>2024-07-05T02:09:28Z</time>
   </trkpt>
   <trkpt lat="35.2802540" lon="113.9096000">
    <ele>72.5</ele>
    <time>2024-07-05T02:09:29Z</time>
   </trkpt>
   <trkpt lat="35.2802540" lon="113.9096000">
    <ele>72.5</ele>
    <time>2024-07-05T02:09:29Z</time>
   </trkpt>
   <trkpt lat="35.2802620" lon="113.9096600">
    <ele>72.6</ele>
    <time>2024-07-05T02:09:31Z</time>
   </trkpt>
   <trkpt lat="35.2802500" lon="113.9096900">
    <ele>72.5</ele>
    <time>2024-07-05T02:09:32Z</time>
   </trkpt>
   <trkpt lat="35.2802470" lon="113.9097300">
    <ele>72.3</ele>
    <time>2024-07-05T02:09:33Z</time>
   </trkpt>
   <trkpt lat="35.2802430" lon="113.9097700">
    <ele>72.0</ele>
    <time>2024-07-05T02:09:34Z</time>
   </trkpt>
   <trkpt lat="35.2802430" lon="113.9097700">
    <ele>72.0</ele>
    <time>2024-07-05T02:09:34Z</time>
   </trkpt>
   <trkpt lat="35.2802470" lon="113.9098400">
    <ele>71.6</ele>
    <time>2024-07-05T02:09:36Z</time>
   </trkpt>
   <trkpt lat="35.2802430" lon="113.9098800">
    <ele>71.1</ele>
    <time>2024-07-05T02:09:37Z</time>
   </trkpt>
   <trkpt lat="35.2802430" lon="113.9099300">
    <ele>70.7</ele>
    <time>2024-07-05T02:09:38Z</time>
   </trkpt>
   <trkpt lat="35.2802430" lon="113.9099660">
    <ele>70.3</ele>
    <time>2024-07-05T02:09:39Z</time>
   </trkpt>
   <trkpt lat="35.2802430" lon="113.9099660">
    <ele>70.3</ele>
    <time>2024-07-05T02:09:39Z</time>
   </trkpt>
   <trkpt lat="35.2802400" lon="113.9100500">
    <ele>69.8</ele>
    <time>2024-07-05T02:09:41Z</time>
   </trkpt>
   <trkpt lat="35.2802400" lon="113.9100500">
    <ele>69.8</ele>
    <time>2024-07-05T02:09:41Z</time>
   </trkpt>
   <trkpt lat="35.2802430" lon="113.9101300">
    <ele>69.6</ele>
    <time>2024-07-05T02:09:43Z</time>
   </trkpt>
   <trkpt lat="35.2802430" lon="113.9101800">
    <ele>69.6</ele>
    <time>2024-07-05T02:09:44Z</time>
   </trkpt>
   <trkpt lat="35.2802470" lon="113.9102200">
    <ele>69.5</ele>
    <time>2024-07-05T02:09:45Z</time>
   </trkpt>
   <trkpt lat="35.2802470" lon="113.9102200">
    <ele>69.5</ele>
    <time>2024-07-05T02:09:45Z</time>
   </trkpt>
   <trkpt lat="35.2802470" lon="113.9103000">
    <ele>69.7</ele>
    <time>2024-07-05T02:09:47Z</time>
   </trkpt>
   <trkpt lat="35.2802470" lon="113.9103000">
    <ele>69.7</ele>
    <time>2024-07-05T02:09:47Z</time>
   </trkpt>
   <trkpt lat="35.2802470" lon="113.9103500">
    <ele>69.8</ele>
    <time>2024-07-05T02:09:48Z</time>
   </trkpt>
   <trkpt lat="35.2802430" lon="113.9104300">
    <ele>69.9</ele>
    <time>2024-07-05T02:09:50Z</time>
   </trkpt>
   <trkpt lat="35.2802430" lon="113.9104300">
    <ele>69.9</ele>
    <time>2024-07-05T02:09:50Z</time>
   </trkpt>
   <trkpt lat="35.2802500" lon="113.9105200">
    <ele>69.7</ele>
    <time>2024-07-05T02:09:52Z</time>
   </trkpt>
   <trkpt lat="35.2802620" lon="113.9106100">
    <ele>69.3</ele>
    <time>2024-07-05T02:09:54Z</time>
   </trkpt>
   <trkpt lat="35.2802700" lon="113.9106500">
    <ele>69.2</ele>
    <time>2024-07-05T02:09:55Z</time>
   </trkpt>
   <trkpt lat="35.2802730" lon="113.9106900">
    <ele>69.1</ele>
    <time>2024-07-05T02:09:56Z</time>
   </trkpt>
   <trkpt lat="35.2802730" lon="113.9107800">
    <ele>69.2</ele>
    <time>2024-07-05T02:09:58Z</time>
   </trkpt>
   <trkpt lat="35.2802730" lon="113.9108660">
    <ele>69.4</ele>
    <time>2024-07-05T02:10:00Z</time>
   </trkpt>
   <trkpt lat="35.2802730" lon="113.9109100">
    <ele>69.5</ele>
    <time>2024-07-05T02:10:01Z</time>
   </trkpt>
   <trkpt lat="35.2802730" lon="113.9110000">
    <ele>69.7</ele>
    <time>2024-07-05T02:10:03Z</time>
   </trkpt>
   <trkpt lat="35.2802600" lon="113.9110950">
    <ele>69.6</ele>
    <time>2024-07-05T02:10:05Z</time>
   </trkpt>
   <trkpt lat="35.2802540" lon="113.9111900">
    <ele>69.5</ele>
    <time>2024-07-05T02:10:07Z</time>
   </trkpt>
   <trkpt lat="35.2802540" lon="113.9112700">
    <ele>69.6</ele>
    <time>2024-07-05T02:10:09Z</time>
   </trkpt>
   <trkpt lat="35.2802540" lon="113.9112700">
    <ele>69.6</ele>
    <time>2024-07-05T02:10:09Z</time>
   </trkpt>
   <trkpt lat="35.2802660" lon="113.9113500">
    <ele>69.5</ele>
    <time>2024-07-05T02:10:11Z</time>
   </trkpt>
   <trkpt lat="35.2802850" lon="113.9113850">
    <ele>69.3</ele>
    <time>2024-07-05T02:10:12Z</time>
   </trkpt>
   <trkpt lat="35.2803150" lon="113.9114150">
    <ele>69.1</ele>
    <time>2024-07-05T02:10:13Z</time>
   </trkpt>
   <trkpt lat="35.2803500" lon="113.9114460">
    <ele>69.0</ele>
    <time>2024-07-05T02:10:14Z</time>
   </trkpt>
   <trkpt lat="35.2803730" lon="113.9114500">
    <ele>69.0</ele>
    <time>2024-07-05T02:10:15Z</time>
   </trkpt>
   <trkpt lat="35.2803960" lon="113.9114700">
    <ele>69.0</ele>
    <time>2024-07-05T02:10:16Z</time>
   </trkpt>
   <trkpt lat="35.2803960" lon="113.9114700">
    <ele>69.0</ele>
    <time>2024-07-05T02:10:16Z</time>
   </trkpt>
   <trkpt lat="35.2804200" lon="113.9114760">
    <ele>69.1</ele>
    <time>2024-07-05T02:10:17Z</time>
   </trkpt>
   <trkpt lat="35.2804200" lon="113.9114760">
    <ele>69.1</ele>
    <time>2024-07-05T02:10:17Z</time>
   </trkpt>
   <trkpt lat="35.2804700" lon="113.9115000">
    <ele>69.3</ele>
    <time>2024-07-05T02:10:19Z</time>
   </trkpt>
   <trkpt lat="35.2804900" lon="113.9115100">
    <ele>69.4</ele>
    <time>2024-07-05T02:10:20Z</time>
   </trkpt>
   <trkpt lat="35.2805140" lon="113.9115140">
    <ele>69.4</ele>
    <time>2024-07-05T02:10:21Z</time>
   </trkpt>
   <trkpt lat="35.2805440" lon="113.9115600">
    <ele>69.8</ele>
    <time>2024-07-05T02:10:23Z</time>
   </trkpt>
   <trkpt lat="35.2805440" lon="113.9115600">
    <ele>69.8</ele>
    <time>2024-07-05T02:10:23Z</time>
   </trkpt>
   <trkpt lat="35.2805600" lon="113.9115800">
    <ele>70.0</ele>
    <time>2024-07-05T02:10:24Z</time>
   </trkpt>
   <trkpt lat="35.2805670" lon="113.9116060">
    <ele>70.0</ele>
    <time>2024-07-05T02:10:25Z</time>
   </trkpt>
   <trkpt lat="35.2805670" lon="113.9116400">
    <ele>70.1</ele>
    <time>2024-07-05T02:10:26Z</time>
   </trkpt>
   <trkpt lat="35.2805700" lon="113.9116900">
    <ele>70.2</ele>
    <time>2024-07-05T02:10:28Z</time>
   </trkpt>
   <trkpt lat="35.2805700" lon="113.9116900">
    <ele>70.2</ele>
    <time>2024-07-05T02:10:28Z</time>
   </trkpt>
   <trkpt lat="35.2805700" lon="113.9117200">
    <ele>70.2</ele>
    <time>2024-07-05T02:10:29Z</time>
   </trkpt>
   <trkpt lat="35.2805700" lon="113.9117500">
    <ele>70.2</ele>
    <time>2024-07-05T02:10:30Z</time>
   </trkpt>
   <trkpt lat="35.2805800" lon="113.9118040">
    <ele>70.2</ele>
    <time>2024-07-05T02:10:32Z</time>
   </trkpt>
   <trkpt lat="35.2805800" lon="113.9118400">
    <ele>70.1</ele>
    <time>2024-07-05T02:10:33Z</time>
   </trkpt>
   <trkpt lat="35.2805750" lon="113.9118800">
    <ele>70.1</ele>
    <time>2024-07-05T02:10:34Z</time>
   </trkpt>
   <trkpt lat="35.2805700" lon="113.9119200">
    <ele>70.1</ele>
    <time>2024-07-05T02:10:35Z</time>
   </trkpt>
   <trkpt lat="35.2805700" lon="113.9119600">
    <ele>70.1</ele>
    <time>2024-07-05T02:10:36Z</time>
   </trkpt>
   <trkpt lat="35.2805600" lon="113.9119800">
    <ele>70.1</ele>
    <time>2024-07-05T02:10:37Z</time>
   </trkpt>
   <trkpt lat="35.2805500" lon="113.9120100">
    <ele>70.2</ele>
    <time>2024-07-05T02:10:38Z</time>
   </trkpt>
   <trkpt lat="35.2805400" lon="113.9120300">
    <ele>70.2</ele>
    <time>2024-07-05T02:10:39Z</time>
   </trkpt>
   <trkpt lat="35.2805370" lon="113.9120560">
    <ele>70.3</ele>
    <time>2024-07-05T02:10:40Z</time>
   </trkpt>
   <trkpt lat="35.2805370" lon="113.9120700">
    <ele>70.3</ele>
    <time>2024-07-05T02:10:41Z</time>
   </trkpt>
   <trkpt lat="35.2805370" lon="113.9120700">
    <ele>70.3</ele>
    <time>2024-07-05T02:10:41Z</time>
   </trkpt>
   <trkpt lat="35.2805230" lon="113.9121150">
    <ele>70.4</ele>
    <time>2024-07-05T02:10:43Z</time>
   </trkpt>
   <trkpt lat="35.2805160" lon="113.9121200">
    <ele>70.4</ele>
    <time>2024-07-05T02:10:44Z</time>
   </trkpt>
   <trkpt lat="35.2805090" lon="113.9121250">
    <ele>70.5</ele>
    <time>2024-07-05T02:10:45Z</time>
   </trkpt>
   <trkpt lat="35.2805010" lon="113.9121300">
    <ele>70.5</ele>
    <time>2024-07-05T02:10:46Z</time>
   </trkpt>
   <trkpt lat="35.2804940" lon="113.9121350">
    <ele>70.5</ele>
    <time>2024-07-05T02:10:47Z</time>
   </trkpt>
   <trkpt lat="35.2804870" lon="113.9121400">
    <ele>70.5</ele>
    <time>2024-07-05T02:10:47Z</time>
   </trkpt>
   <trkpt lat="35.2804680" lon="113.9121400">
    <ele>70.5</ele>
    <time>2024-07-05T02:10:48Z</time>
   </trkpt>
   <trkpt lat="35.2804500" lon="113.9121400">
    <ele>70.5</ele>
    <time>2024-07-05T02:10:49Z</time>
   </trkpt>
   <trkpt lat="35.2804340" lon="113.9121500">
    <ele>70.6</ele>
    <time>2024-07-05T02:10:50Z</time>
   </trkpt>
   <trkpt lat="35.2804150" lon="113.9121400">
    <ele>70.6</ele>
    <time>2024-07-05T02:10:51Z</time>
   </trkpt>
   <trkpt lat="35.2803540" lon="113.9121300">
    <ele>70.6</ele>
    <time>2024-07-05T02:10:53Z</time>
   </trkpt>
   <trkpt lat="35.2803340" lon="113.9121300">
    <ele>70.7</ele>
    <time>2024-07-05T02:10:54Z</time>
   </trkpt>
   <trkpt lat="35.2803340" lon="113.9121300">
    <ele>70.7</ele>
    <time>2024-07-05T02:10:54Z</time>
   </trkpt>
   <trkpt lat="35.2803340" lon="113.9121300">
    <ele>70.7</ele>
    <time>2024-07-05T02:10:54Z</time>
   </trkpt>
   <trkpt lat="35.2802700" lon="113.9121100">
    <ele>70.8</ele>
    <time>2024-07-05T02:10:57Z</time>
   </trkpt>
   <trkpt lat="35.2802700" lon="113.9121100">
    <ele>70.8</ele>
    <time>2024-07-05T02:10:57Z</time>
   </trkpt>
   <trkpt lat="35.2802500" lon="113.9120940">
    <ele>70.8</ele>
    <time>2024-07-05T02:10:59Z</time>
   </trkpt>
   <trkpt lat="35.2802500" lon="113.9120940">
    <ele>70.8</ele>
    <time>2024-07-05T02:10:59Z</time>
   </trkpt>
   <trkpt lat="35.2801970" lon="113.9120900">
    <ele>70.9</ele>
    <time>2024-07-05T02:11:01Z</time>
   </trkpt>
   <trkpt lat="35.2801630" lon="113.9120800">
    <ele>71.0</ele>
    <time>2024-07-05T02:11:02Z</time>
   </trkpt>
   <trkpt lat="35.2801000" lon="113.9120700">
    <ele>71.1</ele>
    <time>2024-07-05T02:11:03Z</time>
   </trkpt>
   <trkpt lat="35.2801000" lon="113.9120700">
    <ele>71.1</ele>
    <time>2024-07-05T02:11:03Z</time>
   </trkpt>
   <trkpt lat="35.2800670" lon="113.9120600">
    <ele>71.2</ele>
    <time>2024-07-05T02:11:05Z</time>
   </trkpt>
   <trkpt lat="35.2800330" lon="113.9120560">
    <ele>71.3</ele>
    <time>2024-07-05T02:11:06Z</time>
   </trkpt>
   <trkpt lat="35.2800000" lon="113.9120500">
    <ele>71.3</ele>
    <time>2024-07-05T02:11:07Z</time>
   </trkpt>
   <trkpt lat="35.2800000" lon="113.9120500">
    <ele>71.3</ele>
    <time>2024-07-05T02:11:07Z</time>
   </trkpt>
   <trkpt lat="35.2799070" lon="113.9120300">
    <ele>71.5</ele>
    <time>2024-07-05T02:11:09Z</time>
   </trkpt>
   <trkpt lat="35.2799070" lon="113.9120300">
    <ele>71.5</ele>
    <time>2024-07-05T02:11:09Z</time>
   </trkpt>
   <trkpt lat="35.2798410" lon="113.9120170">
    <ele>71.6</ele>
    <time>2024-07-05T02:11:11Z</time>
   </trkpt>
   <trkpt lat="35.2798080" lon="113.9120100">
    <ele>71.6</ele>
    <time>2024-07-05T02:11:12Z</time>
   </trkpt>
   <trkpt lat="35.2798080" lon="113.9120100">
    <ele>71.6</ele>
    <time>2024-07-05T02:11:12Z</time>
   </trkpt>
   <trkpt lat="35.2797500" lon="113.9120000">
    <ele>71.7</ele>
    <time>2024-07-05T02:11:14Z</time>
   </trkpt>
   <trkpt lat="35.2797200" lon="113.9119950">
    <ele>71.7</ele>
    <time>2024-07-05T02:11:15Z</time>
   </trkpt>
   <trkpt lat="35.2796900" lon="113.9119900">
    <ele>71.8</ele>
    <time>2024-07-05T02:11:16Z</time>
   </trkpt>
   <trkpt lat="35.2796600" lon="113.9119800">
    <ele>71.8</ele>
    <time>2024-07-05T02:11:17Z</time>
   </trkpt>
   <trkpt lat="35.2796330" lon="113.9119700">
    <ele>71.8</ele>
    <time>2024-07-05T02:11:18Z</time>
   </trkpt>
   <trkpt lat="35.2796100" lon="113.9119700">
    <ele>71.8</ele>
    <time>2024-07-05T02:11:19Z</time>
   </trkpt>
   <trkpt lat="35.2795870" lon="113.9119640">
    <ele>71.9</ele>
    <time>2024-07-05T02:11:20Z</time>
   </trkpt>
   <trkpt lat="35.2795640" lon="113.9119640">
    <ele>71.9</ele>
    <time>2024-07-05T02:11:21Z</time>
   </trkpt>
   <trkpt lat="35.2795570" lon="113.9119640">
    <ele>71.9</ele>
    <time>2024-07-05T02:11:22Z</time>
   </trkpt>
   <trkpt lat="35.2795510" lon="113.9119640">
    <ele>71.9</ele>
    <time>2024-07-05T02:11:23Z</time>
   </trkpt>
   <trkpt lat="35.2795450" lon="113.9119640">
    <ele>71.9</ele>
    <time>2024-07-05T02:11:23Z</time>
   </trkpt>
   <trkpt lat="35.2795300" lon="113.9119600">
    <ele>71.9</ele>
    <time>2024-07-05T02:11:25Z</time>
   </trkpt>
   <trkpt lat="35.2795280" lon="113.9119600">
    <ele>71.9</ele>
    <time>2024-07-05T02:11:26Z</time>
   </trkpt>
   <trkpt lat="35.2795250" lon="113.9119600">
    <ele>71.9</ele>
    <time>2024-07-05T02:11:27Z</time>
   </trkpt>
   <trkpt lat="35.2795220" lon="113.9119600">
    <ele>71.9</ele>
    <time>2024-07-05T02:11:27Z</time>
   </trkpt>
   <trkpt lat="35.2795220" lon="113.9119600">
    <ele>71.9</ele>
    <time>2024-07-05T02:11:27Z</time>
   </trkpt>
   <trkpt lat="35.2795220" lon="113.9119600">
    <ele>71.9</ele>
    <time>2024-07-05T02:11:27Z</time>
   </trkpt>
   <trkpt lat="35.2792200" lon="113.9119300">
    <ele>71.8</ele>
    <time>2024-07-05T02:11:38Z</time>
   </trkpt>
   <trkpt lat="35.2791700" lon="113.9119340">
    <ele>71.7</ele>
    <time>2024-07-05T02:11:39Z</time>
   </trkpt>
   <trkpt lat="35.2790800" lon="113.9119400">
    <ele>71.6</ele>
    <time>2024-07-05T02:11:41Z</time>
   </trkpt>
   <trkpt lat="35.2789840" lon="113.9119400">
    <ele>71.5</ele>
    <time>2024-07-05T02:11:43Z</time>
   </trkpt>
   <trkpt lat="35.2788900" lon="113.9119500">
    <ele>71.5</ele>
    <time>2024-07-05T02:11:45Z</time>
   </trkpt>
   <trkpt lat="35.2787930" lon="113.9119400">
    <ele>71.5</ele>
    <time>2024-07-05T02:11:47Z</time>
   </trkpt>
   <trkpt lat="35.2786980" lon="113.9119400">
    <ele>71.6</ele>
    <time>2024-07-05T02:11:49Z</time>
   </trkpt>
   <trkpt lat="35.2786060" lon="113.9119340">
    <ele>71.6</ele>
    <time>2024-07-05T02:11:51Z</time>
   </trkpt>
   <trkpt lat="35.2785030" lon="113.9119340">
    <ele>71.6</ele>
    <time>2024-07-05T02:11:53Z</time>
   </trkpt>
   <trkpt lat="35.2784540" lon="113.9119400">
    <ele>71.6</ele>
    <time>2024-07-05T02:11:54Z</time>
   </trkpt>
   <trkpt lat="35.2783500" lon="113.9119500">
    <ele>71.6</ele>
    <time>2024-07-05T02:11:56Z</time>
   </trkpt>
   <trkpt lat="35.2782500" lon="113.9119500">
    <ele>71.5</ele>
    <time>2024-07-05T02:11:58Z</time>
   </trkpt>
   <trkpt lat="35.2782000" lon="113.9119600">
    <ele>71.5</ele>
    <time>2024-07-05T02:11:59Z</time>
   </trkpt>
   <trkpt lat="35.2781500" lon="113.9119600">
    <ele>71.5</ele>
    <time>2024-07-05T02:12:00Z</time>
   </trkpt>
   <trkpt lat="35.2781000" lon="113.9119640">
    <ele>71.5</ele>
    <time>2024-07-05T02:12:01Z</time>
   </trkpt>
   <trkpt lat="35.2780500" lon="113.9119700">
    <ele>71.5</ele>
    <time>2024-07-05T02:12:02Z</time>
   </trkpt>
   <trkpt lat="35.2780000" lon="113.9119700">
    <ele>71.6</ele>
    <time>2024-07-05T02:12:03Z</time>
   </trkpt>
   <trkpt lat="35.2779500" lon="113.9119640">
    <ele>71.6</ele>
    <time>2024-07-05T02:12:04Z</time>
   </trkpt>
   <trkpt lat="35.2779000" lon="113.9119700">
    <ele>71.6</ele>
    <time>2024-07-05T02:12:05Z</time>
   </trkpt>
   <trkpt lat="35.2778470" lon="113.9119700">
    <ele>71.5</ele>
    <time>2024-07-05T02:12:06Z</time>
   </trkpt>
   <trkpt lat="35.2778000" lon="113.9119640">
    <ele>71.5</ele>
    <time>2024-07-05T02:12:07Z</time>
   </trkpt>
   <trkpt lat="35.2777300" lon="113.9119500">
    <ele>71.3</ele>
    <time>2024-07-05T02:12:08Z</time>
   </trkpt>
   <trkpt lat="35.2776900" lon="113.9119300">
    <ele>71.2</ele>
    <time>2024-07-05T02:12:09Z</time>
   </trkpt>
   <trkpt lat="35.2775900" lon="113.9119400">
    <ele>70.9</ele>
    <time>2024-07-05T02:12:11Z</time>
   </trkpt>
   <trkpt lat="35.2774900" lon="113.9119600">
    <ele>70.8</ele>
    <time>2024-07-05T02:12:13Z</time>
   </trkpt>
   <trkpt lat="35.2774430" lon="113.9119640">
    <ele>70.7</ele>
    <time>2024-07-05T02:12:14Z</time>
   </trkpt>
   <trkpt lat="35.2773930" lon="113.9119600">
    <ele>70.7</ele>
    <time>2024-07-05T02:12:15Z</time>
   </trkpt>
   <trkpt lat="35.2773480" lon="113.9119600">
    <ele>70.7</ele>
    <time>2024-07-05T02:12:16Z</time>
   </trkpt>
   <trkpt lat="35.2772940" lon="113.9119600">
    <ele>70.6</ele>
    <time>2024-07-05T02:12:17Z</time>
   </trkpt>
   <trkpt lat="35.2772400" lon="113.9119640">
    <ele>70.6</ele>
    <time>2024-07-05T02:12:18Z</time>
   </trkpt>
   <trkpt lat="35.2771870" lon="113.9119700">
    <ele>70.6</ele>
    <time>2024-07-05T02:12:19Z</time>
   </trkpt>
   <trkpt lat="35.2771450" lon="113.9119640">
    <ele>70.6</ele>
    <time>2024-07-05T02:12:20Z</time>
   </trkpt>
   <trkpt lat="35.2770920" lon="113.9119640">
    <ele>70.6</ele>
    <time>2024-07-05T02:12:21Z</time>
   </trkpt>
   <trkpt lat="35.2770400" lon="113.9119640">
    <ele>70.6</ele>
    <time>2024-07-05T02:12:22Z</time>
   </trkpt>
   <trkpt lat="35.2769900" lon="113.9119640">
    <ele>70.6</ele>
    <time>2024-07-05T02:12:23Z</time>
   </trkpt>
   <trkpt lat="35.2769400" lon="113.9119640">
    <ele>70.6</ele>
    <time>2024-07-05T02:12:24Z</time>
   </trkpt>
   <trkpt lat="35.2768940" lon="113.9119640">
    <ele>70.6</ele>
    <time>2024-07-05T02:12:25Z</time>
   </trkpt>
   <trkpt lat="35.2768480" lon="113.9119640">
    <ele>70.6</ele>
    <time>2024-07-05T02:12:26Z</time>
   </trkpt>
   <trkpt lat="35.2768000" lon="113.9119640">
    <ele>70.6</ele>
    <time>2024-07-05T02:12:27Z</time>
   </trkpt>
   <trkpt lat="35.2767520" lon="113.9119640">
    <ele>70.6</ele>
    <time>2024-07-05T02:12:28Z</time>
   </trkpt>
   <trkpt lat="35.2767070" lon="113.9119640">
    <ele>70.7</ele>
    <time>2024-07-05T02:12:29Z</time>
   </trkpt>
   <trkpt lat="35.2766650" lon="113.9119700">
    <ele>70.7</ele>
    <time>2024-07-05T02:12:30Z</time>
   </trkpt>
   <trkpt lat="35.2766200" lon="113.9119700">
    <ele>70.8</ele>
    <time>2024-07-05T02:12:31Z</time>
   </trkpt>
   <trkpt lat="35.2765800" lon="113.9119700">
    <ele>70.8</ele>
    <time>2024-07-05T02:12:32Z</time>
   </trkpt>
   <trkpt lat="35.2765430" lon="113.9119700">
    <ele>70.9</ele>
    <time>2024-07-05T02:12:33Z</time>
   </trkpt>
   <trkpt lat="35.2765050" lon="113.9119700">
    <ele>70.9</ele>
    <time>2024-07-05T02:12:34Z</time>
   </trkpt>
   <trkpt lat="35.2764660" lon="113.9119700">
    <ele>71.0</ele>
    <time>2024-07-05T02:12:35Z</time>
   </trkpt>
   <trkpt lat="35.2764300" lon="113.9119700">
    <ele>71.0</ele>
    <time>2024-07-05T02:12:36Z</time>
   </trkpt>
   <trkpt lat="35.2763940" lon="113.9119700">
    <ele>71.1</ele>
    <time>2024-07-05T02:12:37Z</time>
   </trkpt>
   <trkpt lat="35.2763600" lon="113.9119700">
    <ele>71.2</ele>
    <time>2024-07-05T02:12:38Z</time>
   </trkpt>
   <trkpt lat="35.2763180" lon="113.9119700">
    <ele>71.3</ele>
    <time>2024-07-05T02:12:39Z</time>
   </trkpt>
   <trkpt lat="35.2762760" lon="113.9119700">
    <ele>71.4</ele>
    <time>2024-07-05T02:12:40Z</time>
   </trkpt>
   <trkpt lat="35.2762370" lon="113.9119700">
    <ele>71.4</ele>
    <time>2024-07-05T02:12:41Z</time>
   </trkpt>
   <trkpt lat="35.2761960" lon="113.9119700">
    <ele>71.5</ele>
    <time>2024-07-05T02:12:42Z</time>
   </trkpt>
   <trkpt lat="35.2761540" lon="113.9119700">
    <ele>71.6</ele>
    <time>2024-07-05T02:12:43Z</time>
   </trkpt>
   <trkpt lat="35.2761150" lon="113.9119700">
    <ele>71.7</ele>
    <time>2024-07-05T02:12:44Z</time>
   </trkpt>
   <trkpt lat="35.2760730" lon="113.9119700">
    <ele>71.7</ele>
    <time>2024-07-05T02:12:45Z</time>
   </trkpt>
   <trkpt lat="35.2760350" lon="113.9119700">
    <ele>71.8</ele>
    <time>2024-07-05T02:12:46Z</time>
   </trkpt>
   <trkpt lat="35.2760000" lon="113.9119640">
    <ele>71.8</ele>
    <time>2024-07-05T02:12:47Z</time>
   </trkpt>
   <trkpt lat="35.2759670" lon="113.9119640">
    <ele>71.9</ele>
    <time>2024-07-05T02:12:48Z</time>
   </trkpt>
   <trkpt lat="35.2759300" lon="113.9119600">
    <ele>71.9</ele>
    <time>2024-07-05T02:12:49Z</time>
   </trkpt>
   <trkpt lat="35.2758900" lon="113.9119400">
    <ele>72.0</ele>
    <time>2024-07-05T02:12:50Z</time>
   </trkpt>
   <trkpt lat="35.2758500" lon="113.9119340">
    <ele>72.1</ele>
    <time>2024-07-05T02:12:51Z</time>
   </trkpt>
   <trkpt lat="35.2758060" lon="113.9119340">
    <ele>72.2</ele>
    <time>2024-07-05T02:12:52Z</time>
   </trkpt>
   <trkpt lat="35.2757640" lon="113.9119340">
    <ele>72.3</ele>
    <time>2024-07-05T02:12:53Z</time>
   </trkpt>
   <trkpt lat="35.2757200" lon="113.9119340">
    <ele>72.4</ele>
    <time>2024-07-05T02:12:54Z</time>
   </trkpt>
   <trkpt lat="35.2756770" lon="113.9119340">
    <ele>72.4</ele>
    <time>2024-07-05T02:12:55Z</time>
   </trkpt>
   <trkpt lat="35.2756350" lon="113.9119400">
    <ele>72.5</ele>
    <time>2024-07-05T02:12:56Z</time>
   </trkpt>
   <trkpt lat="35.2755930" lon="113.9119400">
    <ele>72.6</ele>
    <time>2024-07-05T02:12:57Z</time>
   </trkpt>
   <trkpt lat="35.2755500" lon="113.9119400">
    <ele>72.6</ele>
    <time>2024-07-05T02:12:58Z</time>
   </trkpt>
   <trkpt lat="35.2755100" lon="113.9119400">
    <ele>72.7</ele>
    <time>2024-07-05T02:12:59Z</time>
   </trkpt>
   <trkpt lat="35.2754800" lon="113.9119500">
    <ele>72.7</ele>
    <time>2024-07-05T02:13:00Z</time>
   </trkpt>
   <trkpt lat="35.2754600" lon="113.9119500">
    <ele>72.8</ele>
    <time>2024-07-05T02:13:01Z</time>
   </trkpt>
   <trkpt lat="35.2754400" lon="113.9119500">
    <ele>72.8</ele>
    <time>2024-07-05T02:13:02Z</time>
   </trkpt>
   <trkpt lat="35.2754180" lon="113.9119390">
    <ele>72.8</ele>
    <time>2024-07-05T02:13:03Z</time>
   </trkpt>
   <trkpt lat="35.2754110" lon="113.9119380">
    <ele>72.8</ele>
    <time>2024-07-05T02:13:04Z</time>
   </trkpt>
   <trkpt lat="35.2754040" lon="113.9119380">
    <ele>72.8</ele>
    <time>2024-07-05T02:13:05Z</time>
   </trkpt>
   <trkpt lat="35.2753980" lon="113.9119370">
    <ele>72.8</ele>
    <time>2024-07-05T02:13:06Z</time>
   </trkpt>
   <trkpt lat="35.2753910" lon="113.9119360">
    <ele>72.8</ele>
    <time>2024-07-05T02:13:07Z</time>
   </trkpt>
   <trkpt lat="35.2753840" lon="113.9119350">
    <ele>72.8</ele>
    <time>2024-07-05T02:13:08Z</time>
   </trkpt>
   <trkpt lat="35.2753770" lon="113.9119350">
    <ele>72.8</ele>
    <time>2024-07-05T02:13:09Z</time>
   </trkpt>
   <trkpt lat="35.2753700" lon="113.9119340">
    <ele>72.8</ele>
    <time>2024-07-05T02:13:09Z</time>
   </trkpt>
   <trkpt lat="35.2752000" lon="113.9119100">
    <ele>72.8</ele>
    <time>2024-07-05T02:13:28Z</time>
   </trkpt>
   <trkpt lat="35.2751730" lon="113.9119100">
    <ele>72.8</ele>
    <time>2024-07-05T02:13:29Z</time>
   </trkpt>
   <trkpt lat="35.2751460" lon="113.9119000">
    <ele>72.8</ele>
    <time>2024-07-05T02:13:30Z</time>
   </trkpt>
   <trkpt lat="35.2751200" lon="113.9119000">
    <ele>72.6</ele>
    <time>2024-07-05T02:13:31Z</time>
   </trkpt>
   <trkpt lat="35.2750930" lon="113.9119000">
    <ele>72.5</ele>
    <time>2024-07-05T02:13:32Z</time>
   </trkpt>
   <trkpt lat="35.2750660" lon="113.9119100">
    <ele>72.3</ele>
    <time>2024-07-05T02:13:33Z</time>
   </trkpt>
   <trkpt lat="35.2750400" lon="113.9119200">
    <ele>72.2</ele>
    <time>2024-07-05T02:13:34Z</time>
   </trkpt>
   <trkpt lat="35.2750100" lon="113.9119200">
    <ele>72.2</ele>
    <time>2024-07-05T02:13:35Z</time>
   </trkpt>
   <trkpt lat="35.2749800" lon="113.9119200">
    <ele>72.3</ele>
    <time>2024-07-05T02:13:36Z</time>
   </trkpt>
   <trkpt lat="35.2749500" lon="113.9119300">
    <ele>72.3</ele>
    <time>2024-07-05T02:13:37Z</time>
   </trkpt>
   <trkpt lat="35.2749140" lon="113.9119340">
    <ele>72.4</ele>
    <time>2024-07-05T02:13:38Z</time>
   </trkpt>
   <trkpt lat="35.2748800" lon="113.9119340">
    <ele>72.4</ele>
    <time>2024-07-05T02:13:39Z</time>
   </trkpt>
   <trkpt lat="35.2748450" lon="113.9119400">
    <ele>72.5</ele>
    <time>2024-07-05T02:13:40Z</time>
   </trkpt>
   <trkpt lat="35.2748070" lon="113.9119400">
    <ele>72.5</ele>
    <time>2024-07-05T02:13:41Z</time>
   </trkpt>
   <trkpt lat="35.2747730" lon="113.9119400">
    <ele>72.6</ele>
    <time>2024-07-05T02:13:42Z</time>
   </trkpt>
   <trkpt lat="35.2747400" lon="113.9119400">
    <ele>72.6</ele>
    <time>2024-07-05T02:13:43Z</time>
   </trkpt>
   <trkpt lat="35.2747000" lon="113.9119400">
    <ele>72.7</ele>
    <time>2024-07-05T02:13:44Z</time>
   </trkpt>
   <trkpt lat="35.2746620" lon="113.9119400">
    <ele>72.8</ele>
    <time>2024-07-05T02:13:45Z</time>
   </trkpt>
   <trkpt lat="35.2746240" lon="113.9119400">
    <ele>72.9</ele>
    <time>2024-07-05T02:13:46Z</time>
   </trkpt>
   <trkpt lat="35.2745900" lon="113.9119500">
    <ele>72.9</ele>
    <time>2024-07-05T02:13:47Z</time>
   </trkpt>
   <trkpt lat="35.2745500" lon="113.9119400">
    <ele>73.0</ele>
    <time>2024-07-05T02:13:48Z</time>
   </trkpt>
   <trkpt lat="35.2745130" lon="113.9119400">
    <ele>73.1</ele>
    <time>2024-07-05T02:13:49Z</time>
   </trkpt>
   <trkpt lat="35.2744700" lon="113.9119400">
    <ele>73.1</ele>
    <time>2024-07-05T02:13:50Z</time>
   </trkpt>
   <trkpt lat="35.2744330" lon="113.9119400">
    <ele>73.2</ele>
    <time>2024-07-05T02:13:51Z</time>
   </trkpt>
   <trkpt lat="35.2743950" lon="113.9119500">
    <ele>73.2</ele>
    <time>2024-07-05T02:13:52Z</time>
   </trkpt>
   <trkpt lat="35.2743570" lon="113.9119500">
    <ele>73.2</ele>
    <time>2024-07-05T02:13:53Z</time>
   </trkpt>
   <trkpt lat="35.2743200" lon="113.9119600">
    <ele>73.2</ele>
    <time>2024-07-05T02:13:54Z</time>
   </trkpt>
   <trkpt lat="35.2742800" lon="113.9119600">
    <ele>73.2</ele>
    <time>2024-07-05T02:13:55Z</time>
   </trkpt>
   <trkpt lat="35.2742420" lon="113.9119600">
    <ele>73.2</ele>
    <time>2024-07-05T02:13:56Z</time>
   </trkpt>
   <trkpt lat="35.2742040" lon="113.9119640">
    <ele>73.2</ele>
    <time>2024-07-05T02:13:57Z</time>
   </trkpt>
   <trkpt lat="35.2741660" lon="113.9119640">
    <ele>73.3</ele>
    <time>2024-07-05T02:13:58Z</time>
   </trkpt>
   <trkpt lat="35.2741280" lon="113.9119640">
    <ele>73.4</ele>
    <time>2024-07-05T02:13:59Z</time>
   </trkpt>
   <trkpt lat="35.2740900" lon="113.9119640">
    <ele>73.4</ele>
    <time>2024-07-05T02:14:00Z</time>
   </trkpt>
   <trkpt lat="35.2740500" lon="113.9119640">
    <ele>73.5</ele>
    <time>2024-07-05T02:14:01Z</time>
   </trkpt>
   <trkpt lat="35.2739700" lon="113.9119600">
    <ele>73.6</ele>
    <time>2024-07-05T02:14:03Z</time>
   </trkpt>
   <trkpt lat="35.2739300" lon="113.9119600">
    <ele>73.6</ele>
    <time>2024-07-05T02:14:04Z</time>
   </trkpt>
   <trkpt lat="35.2738900" lon="113.9119600">
    <ele>73.6</ele>
    <time>2024-07-05T02:14:05Z</time>
   </trkpt>
   <trkpt lat="35.2738500" lon="113.9119640">
    <ele>73.7</ele>
    <time>2024-07-05T02:14:06Z</time>
   </trkpt>
   <trkpt lat="35.2738080" lon="113.9119640">
    <ele>73.7</ele>
    <time>2024-07-05T02:14:07Z</time>
   </trkpt>
   <trkpt lat="35.2737660" lon="113.9119640">
    <ele>73.7</ele>
    <time>2024-07-05T02:14:08Z</time>
   </trkpt>
   <trkpt lat="35.2737270" lon="113.9119640">
    <ele>73.7</ele>
    <time>2024-07-05T02:14:09Z</time>
   </trkpt>
   <trkpt lat="35.2736850" lon="113.9119640">
    <ele>73.7</ele>
    <time>2024-07-05T02:14:10Z</time>
   </trkpt>
   <trkpt lat="35.2736430" lon="113.9119640">
    <ele>73.6</ele>
    <time>2024-07-05T02:14:11Z</time>
   </trkpt>
   <trkpt lat="35.2736050" lon="113.9119640">
    <ele>73.6</ele>
    <time>2024-07-05T02:14:12Z</time>
   </trkpt>
   <trkpt lat="35.2735630" lon="113.9119640">
    <ele>73.6</ele>
    <time>2024-07-05T02:14:13Z</time>
   </trkpt>
   <trkpt lat="35.2735200" lon="113.9119640">
    <ele>73.6</ele>
    <time>2024-07-05T02:14:14Z</time>
   </trkpt>
   <trkpt lat="35.2734800" lon="113.9119640">
    <ele>73.6</ele>
    <time>2024-07-05T02:14:15Z</time>
   </trkpt>
   <trkpt lat="35.2734380" lon="113.9119640">
    <ele>73.6</ele>
    <time>2024-07-05T02:14:16Z</time>
   </trkpt>
   <trkpt lat="35.2734000" lon="113.9119640">
    <ele>73.6</ele>
    <time>2024-07-05T02:14:17Z</time>
   </trkpt>
   <trkpt lat="35.2733540" lon="113.9119640">
    <ele>73.6</ele>
    <time>2024-07-05T02:14:18Z</time>
   </trkpt>
   <trkpt lat="35.2733100" lon="113.9119640">
    <ele>73.6</ele>
    <time>2024-07-05T02:14:19Z</time>
   </trkpt>
   <trkpt lat="35.2732660" lon="113.9119640">
    <ele>73.5</ele>
    <time>2024-07-05T02:14:20Z</time>
   </trkpt>
   <trkpt lat="35.2732240" lon="113.9119640">
    <ele>73.5</ele>
    <time>2024-07-05T02:14:21Z</time>
   </trkpt>
   <trkpt lat="35.2731820" lon="113.9119640">
    <ele>73.5</ele>
    <time>2024-07-05T02:14:22Z</time>
   </trkpt>
   <trkpt lat="35.2731360" lon="113.9119640">
    <ele>73.5</ele>
    <time>2024-07-05T02:14:23Z</time>
   </trkpt>
   <trkpt lat="35.2730940" lon="113.9119640">
    <ele>73.5</ele>
    <time>2024-07-05T02:14:24Z</time>
   </trkpt>
   <trkpt lat="35.2730520" lon="113.9119600">
    <ele>73.4</ele>
    <time>2024-07-05T02:14:25Z</time>
   </trkpt>
   <trkpt lat="35.2730100" lon="113.9119640">
    <ele>73.4</ele>
    <time>2024-07-05T02:14:26Z</time>
   </trkpt>
   <trkpt lat="35.2729700" lon="113.9119600">
    <ele>73.4</ele>
    <time>2024-07-05T02:14:27Z</time>
   </trkpt>
   <trkpt lat="35.2729300" lon="113.9119600">
    <ele>73.3</ele>
    <time>2024-07-05T02:14:28Z</time>
   </trkpt>
   <trkpt lat="35.2728840" lon="113.9119600">
    <ele>73.3</ele>
    <time>2024-07-05T02:14:29Z</time>
   </trkpt>
   <trkpt lat="35.2728420" lon="113.9119600">
    <ele>73.3</ele>
    <time>2024-07-05T02:14:30Z</time>
   </trkpt>
   <trkpt lat="35.2727970" lon="113.9119640">
    <ele>73.2</ele>
    <time>2024-07-05T02:14:31Z</time>
   </trkpt>
   <trkpt lat="35.2727600" lon="113.9119640">
    <ele>73.2</ele>
    <time>2024-07-05T02:14:32Z</time>
   </trkpt>
   <trkpt lat="35.2727170" lon="113.9119640">
    <ele>73.1</ele>
    <time>2024-07-05T02:14:33Z</time>
   </trkpt>
   <trkpt lat="35.2726750" lon="113.9119640">
    <ele>73.1</ele>
    <time>2024-07-05T02:14:34Z</time>
   </trkpt>
   <trkpt lat="35.2726330" lon="113.9119640">
    <ele>73.0</ele>
    <time>2024-07-05T02:14:35Z</time>
   </trkpt>
   <trkpt lat="35.2725940" lon="113.9119640">
    <ele>73.0</ele>
    <time>2024-07-05T02:14:36Z</time>
   </trkpt>
   <trkpt lat="35.2725520" lon="113.9119640">
    <ele>73.0</ele>
    <time>2024-07-05T02:14:37Z</time>
   </trkpt>
   <trkpt lat="35.2725140" lon="113.9119640">
    <ele>73.0</ele>
    <time>2024-07-05T02:14:38Z</time>
   </trkpt>
   <trkpt lat="35.2724760" lon="113.9119640">
    <ele>73.0</ele>
    <time>2024-07-05T02:14:39Z</time>
   </trkpt>
   <trkpt lat="35.2724340" lon="113.9119640">
    <ele>73.1</ele>
    <time>2024-07-05T02:14:40Z</time>
   </trkpt>
   <trkpt lat="35.2723960" lon="113.9119640">
    <ele>73.1</ele>
    <time>2024-07-05T02:14:41Z</time>
   </trkpt>
   <trkpt lat="35.2723540" lon="113.9119640">
    <ele>73.1</ele>
    <time>2024-07-05T02:14:42Z</time>
   </trkpt>
   <trkpt lat="35.2723160" lon="113.9119640">
    <ele>73.2</ele>
    <time>2024-07-05T02:14:43Z</time>
   </trkpt>
   <trkpt lat="35.2722740" lon="113.9119640">
    <ele>73.2</ele>
    <time>2024-07-05T02:14:44Z</time>
   </trkpt>
   <trkpt lat="35.2722360" lon="113.9119640">
    <ele>73.2</ele>
    <time>2024-07-05T02:14:45Z</time>
   </trkpt>
   <trkpt lat="35.2721940" lon="113.9119640">
    <ele>73.3</ele>
    <time>2024-07-05T02:14:46Z</time>
   </trkpt>
   <trkpt lat="35.2721560" lon="113.9119640">
    <ele>73.3</ele>
    <time>2024-07-05T02:14:47Z</time>
   </trkpt>
   <trkpt lat="35.2721180" lon="113.9119640">
    <ele>73.4</ele>
    <time>2024-07-05T02:14:48Z</time>
   </trkpt>
   <trkpt lat="35.2720760" lon="113.9119640">
    <ele>73.5</ele>
    <time>2024-07-05T02:14:49Z</time>
   </trkpt>
   <trkpt lat="35.2720380" lon="113.9119640">
    <ele>73.5</ele>
    <time>2024-07-05T02:14:50Z</time>
   </trkpt>
   <trkpt lat="35.2719960" lon="113.9119640">
    <ele>73.6</ele>
    <time>2024-07-05T02:14:51Z</time>
   </trkpt>
   <trkpt lat="35.2719540" lon="113.9119640">
    <ele>73.6</ele>
    <time>2024-07-05T02:14:52Z</time>
   </trkpt>
   <trkpt lat="35.2719540" lon="113.9119640">
    <ele>73.6</ele>
    <time>2024-07-05T02:14:52Z</time>
   </trkpt>
   <trkpt lat="35.2718730" lon="113.9119500">
    <ele>73.6</ele>
    <time>2024-07-05T02:14:54Z</time>
   </trkpt>
   <trkpt lat="35.2718350" lon="113.9119400">
    <ele>73.6</ele>
    <time>2024-07-05T02:14:55Z</time>
   </trkpt>
   <trkpt lat="35.2718000" lon="113.9119340">
    <ele>73.6</ele>
    <time>2024-07-05T02:14:56Z</time>
   </trkpt>
   <trkpt lat="35.2717600" lon="113.9119340">
    <ele>73.6</ele>
    <time>2024-07-05T02:14:57Z</time>
   </trkpt>
   <trkpt lat="35.2717200" lon="113.9119400">
    <ele>73.6</ele>
    <time>2024-07-05T02:14:58Z</time>
   </trkpt>
   <trkpt lat="35.2716800" lon="113.9119400">
    <ele>73.6</ele>
    <time>2024-07-05T02:14:59Z</time>
   </trkpt>
   <trkpt lat="35.2716370" lon="113.9119400">
    <ele>73.6</ele>
    <time>2024-07-05T02:15:00Z</time>
   </trkpt>
   <trkpt lat="35.2716000" lon="113.9119400">
    <ele>73.6</ele>
    <time>2024-07-05T02:15:01Z</time>
   </trkpt>
   <trkpt lat="35.2715570" lon="113.9119500">
    <ele>73.5</ele>
    <time>2024-07-05T02:15:02Z</time>
   </trkpt>
   <trkpt lat="35.2715150" lon="113.9119500">
    <ele>73.5</ele>
    <time>2024-07-05T02:15:03Z</time>
   </trkpt>
   <trkpt lat="35.2714730" lon="113.9119500">
    <ele>73.5</ele>
    <time>2024-07-05T02:15:04Z</time>
   </trkpt>
   <trkpt lat="35.2714300" lon="113.9119500">
    <ele>73.5</ele>
    <time>2024-07-05T02:15:05Z</time>
   </trkpt>
   <trkpt lat="35.2713900" lon="113.9119600">
    <ele>73.6</ele>
    <time>2024-07-05T02:15:06Z</time>
   </trkpt>
   <trkpt lat="35.2713470" lon="113.9119600">
    <ele>73.6</ele>
    <time>2024-07-05T02:15:07Z</time>
   </trkpt>
   <trkpt lat="35.2713050" lon="113.9119600">
    <ele>73.6</ele>
    <time>2024-07-05T02:15:08Z</time>
   </trkpt>
   <trkpt lat="35.2712670" lon="113.9119500">
    <ele>73.6</ele>
    <time>2024-07-05T02:15:09Z</time>
   </trkpt>
   <trkpt lat="35.2712200" lon="113.9119500">
    <ele>73.6</ele>
    <time>2024-07-05T02:15:10Z</time>
   </trkpt>
   <trkpt lat="35.2711830" lon="113.9119500">
    <ele>73.6</ele>
    <time>2024-07-05T02:15:11Z</time>
   </trkpt>
   <trkpt lat="35.2711400" lon="113.9119500">
    <ele>73.7</ele>
    <time>2024-07-05T02:15:12Z</time>
   </trkpt>
   <trkpt lat="35.2710950" lon="113.9119500">
    <ele>73.8</ele>
    <time>2024-07-05T02:15:13Z</time>
   </trkpt>
   <trkpt lat="35.2710500" lon="113.9119500">
    <ele>73.9</ele>
    <time>2024-07-05T02:15:14Z</time>
   </trkpt>
   <trkpt lat="35.2710080" lon="113.9119500">
    <ele>73.7</ele>
    <time>2024-07-05T02:15:15Z</time>
   </trkpt>
   <trkpt lat="35.2709660" lon="113.9119500">
    <ele>73.5</ele>
    <time>2024-07-05T02:15:16Z</time>
   </trkpt>
   <trkpt lat="35.2709240" lon="113.9119500">
    <ele>73.3</ele>
    <time>2024-07-05T02:15:17Z</time>
   </trkpt>
   <trkpt lat="35.2708780" lon="113.9119500">
    <ele>73.1</ele>
    <time>2024-07-05T02:15:18Z</time>
   </trkpt>
   <trkpt lat="35.2708300" lon="113.9119500">
    <ele>72.9</ele>
    <time>2024-07-05T02:15:19Z</time>
   </trkpt>
   <trkpt lat="35.2707860" lon="113.9119600">
    <ele>72.7</ele>
    <time>2024-07-05T02:15:20Z</time>
   </trkpt>
   <trkpt lat="35.2707400" lon="113.9119600">
    <ele>72.6</ele>
    <time>2024-07-05T02:15:21Z</time>
   </trkpt>
   <trkpt lat="35.2707000" lon="113.9119600">
    <ele>72.5</ele>
    <time>2024-07-05T02:15:22Z</time>
   </trkpt>
   <trkpt lat="35.2706530" lon="113.9119600">
    <ele>72.4</ele>
    <time>2024-07-05T02:15:23Z</time>
   </trkpt>
   <trkpt lat="35.2706100" lon="113.9119640">
    <ele>72.3</ele>
    <time>2024-07-05T02:15:24Z</time>
   </trkpt>
   <trkpt lat="35.2705700" lon="113.9119640">
    <ele>72.2</ele>
    <time>2024-07-05T02:15:25Z</time>
   </trkpt>
   <trkpt lat="35.2705230" lon="113.9119640">
    <ele>72.1</ele>
    <time>2024-07-05T02:15:26Z</time>
   </trkpt>
   <trkpt lat="35.2704770" lon="113.9119600">
    <ele>72.0</ele>
    <time>2024-07-05T02:15:27Z</time>
   </trkpt>
   <trkpt lat="35.2704300" lon="113.9119600">
    <ele>72.0</ele>
    <time>2024-07-05T02:15:28Z</time>
   </trkpt>
   <trkpt lat="35.2703860" lon="113.9119600">
    <ele>71.9</ele>
    <time>2024-07-05T02:15:29Z</time>
   </trkpt>
   <trkpt lat="35.2703400" lon="113.9119600">
    <ele>71.8</ele>
    <time>2024-07-05T02:15:30Z</time>
   </trkpt>
   <trkpt lat="35.2702980" lon="113.9119600">
    <ele>71.8</ele>
    <time>2024-07-05T02:15:31Z</time>
   </trkpt>
   <trkpt lat="35.2702560" lon="113.9119600">
    <ele>71.7</ele>
    <time>2024-07-05T02:15:32Z</time>
   </trkpt>
   <trkpt lat="35.2702140" lon="113.9119600">
    <ele>71.6</ele>
    <time>2024-07-05T02:15:33Z</time>
   </trkpt>
   <trkpt lat="35.2701700" lon="113.9119600">
    <ele>71.5</ele>
    <time>2024-07-05T02:15:34Z</time>
   </trkpt>
   <trkpt lat="35.2701260" lon="113.9119600">
    <ele>71.3</ele>
    <time>2024-07-05T02:15:35Z</time>
   </trkpt>
   <trkpt lat="35.2700800" lon="113.9119600">
    <ele>71.2</ele>
    <time>2024-07-05T02:15:36Z</time>
   </trkpt>
   <trkpt lat="35.2700400" lon="113.9119600">
    <ele>71.1</ele>
    <time>2024-07-05T02:15:37Z</time>
   </trkpt>
   <trkpt lat="35.2699930" lon="113.9119600">
    <ele>71.0</ele>
    <time>2024-07-05T02:15:38Z</time>
   </trkpt>
   <trkpt lat="35.2699470" lon="113.9119600">
    <ele>70.9</ele>
    <time>2024-07-05T02:15:39Z</time>
   </trkpt>
   <trkpt lat="35.2699000" lon="113.9119600">
    <ele>70.8</ele>
    <time>2024-07-05T02:15:40Z</time>
   </trkpt>
   <trkpt lat="35.2698550" lon="113.9119600">
    <ele>70.7</ele>
    <time>2024-07-05T02:15:41Z</time>
   </trkpt>
   <trkpt lat="35.2698140" lon="113.9119600">
    <ele>70.7</ele>
    <time>2024-07-05T02:15:42Z</time>
   </trkpt>
   <trkpt lat="35.2697680" lon="113.9119600">
    <ele>70.6</ele>
    <time>2024-07-05T02:15:43Z</time>
   </trkpt>
   <trkpt lat="35.2697220" lon="113.9119600">
    <ele>70.6</ele>
    <time>2024-07-05T02:15:44Z</time>
   </trkpt>
   <trkpt lat="35.2696800" lon="113.9119500">
    <ele>70.5</ele>
    <time>2024-07-05T02:15:45Z</time>
   </trkpt>
   <trkpt lat="35.2696340" lon="113.9119400">
    <ele>70.5</ele>
    <time>2024-07-05T02:15:46Z</time>
   </trkpt>
   <trkpt lat="35.2695920" lon="113.9119400">
    <ele>70.5</ele>
    <time>2024-07-05T02:15:47Z</time>
   </trkpt>
   <trkpt lat="35.2695470" lon="113.9119340">
    <ele>70.4</ele>
    <time>2024-07-05T02:15:48Z</time>
   </trkpt>
   <trkpt lat="35.2695000" lon="113.9119340">
    <ele>70.4</ele>
    <time>2024-07-05T02:15:49Z</time>
   </trkpt>
   <trkpt lat="35.2694550" lon="113.9119340">
    <ele>70.5</ele>
    <time>2024-07-05T02:15:50Z</time>
   </trkpt>
   <trkpt lat="35.2694130" lon="113.9119340">
    <ele>70.5</ele>
    <time>2024-07-05T02:15:51Z</time>
   </trkpt>
   <trkpt lat="35.2693670" lon="113.9119340">
    <ele>70.6</ele>
    <time>2024-07-05T02:15:52Z</time>
   </trkpt>
   <trkpt lat="35.2693250" lon="113.9119340">
    <ele>70.7</ele>
    <time>2024-07-05T02:15:53Z</time>
   </trkpt>
   <trkpt lat="35.2692870" lon="113.9119400">
    <ele>70.7</ele>
    <time>2024-07-05T02:15:54Z</time>
   </trkpt>
   <trkpt lat="35.2692450" lon="113.9119400">
    <ele>70.8</ele>
    <time>2024-07-05T02:15:55Z</time>
   </trkpt>
   <trkpt lat="35.2692070" lon="113.9119400">
    <ele>70.9</ele>
    <time>2024-07-05T02:15:56Z</time>
   </trkpt>
   <trkpt lat="35.2691730" lon="113.9119400">
    <ele>70.9</ele>
    <time>2024-07-05T02:15:57Z</time>
   </trkpt>
   <trkpt lat="35.2691460" lon="113.9119200">
    <ele>70.9</ele>
    <time>2024-07-05T02:15:58Z</time>
   </trkpt>
   <trkpt lat="35.2691300" lon="113.9118600">
    <ele>71.0</ele>
    <time>2024-07-05T02:15:59Z</time>
   </trkpt>
   <trkpt lat="35.2691150" lon="113.9118300">
    <ele>71.0</ele>
    <time>2024-07-05T02:16:00Z</time>
   </trkpt>
   <trkpt lat="35.2691000" lon="113.9118040">
    <ele>70.9</ele>
    <time>2024-07-05T02:16:01Z</time>
   </trkpt>
   <trkpt lat="35.2690850" lon="113.9117660">
    <ele>70.9</ele>
    <time>2024-07-05T02:16:02Z</time>
   </trkpt>
   <trkpt lat="35.2690930" lon="113.9117500">
    <ele>70.9</ele>
    <time>2024-07-05T02:16:03Z</time>
   </trkpt>
   <trkpt lat="35.2690960" lon="113.9117200">
    <ele>70.9</ele>
    <time>2024-07-05T02:16:04Z</time>
   </trkpt>
   <trkpt lat="35.2690850" lon="113.9116800">
    <ele>70.9</ele>
    <time>2024-07-05T02:16:05Z</time>
   </trkpt>
   <trkpt lat="35.2690850" lon="113.9116700">
    <ele>70.9</ele>
    <time>2024-07-05T02:16:06Z</time>
   </trkpt>
   <trkpt lat="35.2690850" lon="113.9116200">
    <ele>70.8</ele>
    <time>2024-07-05T02:16:07Z</time>
   </trkpt>
   <trkpt lat="35.2690900" lon="113.9115800">
    <ele>70.8</ele>
    <time>2024-07-05T02:16:08Z</time>
   </trkpt>
   <trkpt lat="35.2690930" lon="113.9115400">
    <ele>70.8</ele>
    <time>2024-07-05T02:16:09Z</time>
   </trkpt>
   <trkpt lat="35.2690930" lon="113.9115000">
    <ele>70.8</ele>
    <time>2024-07-05T02:16:10Z</time>
   </trkpt>
   <trkpt lat="35.2690930" lon="113.9114500">
    <ele>70.8</ele>
    <time>2024-07-05T02:16:11Z</time>
   </trkpt>
   <trkpt lat="35.2690930" lon="113.9114100">
    <ele>70.7</ele>
    <time>2024-07-05T02:16:12Z</time>
   </trkpt>
   <trkpt lat="35.2690960" lon="113.9113700">
    <ele>70.7</ele>
    <time>2024-07-05T02:16:13Z</time>
   </trkpt>
   <trkpt lat="35.2690960" lon="113.9113200">
    <ele>70.7</ele>
    <time>2024-07-05T02:16:14Z</time>
   </trkpt>
   <trkpt lat="35.2690930" lon="113.9112850">
    <ele>70.6</ele>
    <time>2024-07-05T02:16:15Z</time>
   </trkpt>
   <trkpt lat="35.2690930" lon="113.9112400">
    <ele>70.6</ele>
    <time>2024-07-05T02:16:16Z</time>
   </trkpt>
   <trkpt lat="35.2690930" lon="113.9111940">
    <ele>70.6</ele>
    <time>2024-07-05T02:16:17Z</time>
   </trkpt>
   <trkpt lat="35.2690930" lon="113.9111500">
    <ele>70.6</ele>
    <time>2024-07-05T02:16:18Z</time>
   </trkpt>
   <trkpt lat="35.2690930" lon="113.9110950">
    <ele>70.7</ele>
    <time>2024-07-05T02:16:19Z</time>
   </trkpt>
   <trkpt lat="35.2690900" lon="113.9110500">
    <ele>70.7</ele>
    <time>2024-07-05T02:16:20Z</time>
   </trkpt>
   <trkpt lat="35.2690850" lon="113.9110000">
    <ele>70.7</ele>
    <time>2024-07-05T02:16:21Z</time>
   </trkpt>
   <trkpt lat="35.2690770" lon="113.9109600">
    <ele>70.7</ele>
    <time>2024-07-05T02:16:22Z</time>
   </trkpt>
   <trkpt lat="35.2690730" lon="113.9109100">
    <ele>70.8</ele>
    <time>2024-07-05T02:16:23Z</time>
   </trkpt>
   <trkpt lat="35.2690700" lon="113.9108600">
    <ele>70.8</ele>
    <time>2024-07-05T02:16:24Z</time>
   </trkpt>
   <trkpt lat="35.2690660" lon="113.9108100">
    <ele>70.8</ele>
    <time>2024-07-05T02:16:25Z</time>
   </trkpt>
   <trkpt lat="35.2690660" lon="113.9107700">
    <ele>70.9</ele>
    <time>2024-07-05T02:16:26Z</time>
   </trkpt>
   <trkpt lat="35.2690660" lon="113.9107200">
    <ele>70.9</ele>
    <time>2024-07-05T02:16:27Z</time>
   </trkpt>
   <trkpt lat="35.2690660" lon="113.9106800">
    <ele>70.9</ele>
    <time>2024-07-05T02:16:28Z</time>
   </trkpt>
   <trkpt lat="35.2690700" lon="113.9106400">
    <ele>70.9</ele>
    <time>2024-07-05T02:16:29Z</time>
   </trkpt>
   <trkpt lat="35.2690700" lon="113.9105900">
    <ele>71.0</ele>
    <time>2024-07-05T02:16:30Z</time>
   </trkpt>
   <trkpt lat="35.2690730" lon="113.9105450">
    <ele>71.0</ele>
    <time>2024-07-05T02:16:31Z</time>
   </trkpt>
   <trkpt lat="35.2690730" lon="113.9105100">
    <ele>71.0</ele>
    <time>2024-07-05T02:16:32Z</time>
   </trkpt>
   <trkpt lat="35.2690730" lon="113.9104700">
    <ele>71.0</ele>
    <time>2024-07-05T02:16:33Z</time>
   </trkpt>
   <trkpt lat="35.2690700" lon="113.9104300">
    <ele>71.0</ele>
    <time>2024-07-05T02:16:34Z</time>
   </trkpt>
   <trkpt lat="35.2690700" lon="113.9103900">
    <ele>70.9</ele>
    <time>2024-07-05T02:16:35Z</time>
   </trkpt>
   <trkpt lat="35.2690620" lon="113.9103550">
    <ele>70.9</ele>
    <time>2024-07-05T02:16:36Z</time>
   </trkpt>
   <trkpt lat="35.2690620" lon="113.9103200">
    <ele>70.9</ele>
    <time>2024-07-05T02:16:37Z</time>
   </trkpt>
   <trkpt lat="35.2690600" lon="113.9102800">
    <ele>70.8</ele>
    <time>2024-07-05T02:16:38Z</time>
   </trkpt>
   <trkpt lat="35.2690430" lon="113.9102400">
    <ele>70.8</ele>
    <time>2024-07-05T02:16:39Z</time>
   </trkpt>
   <trkpt lat="35.2690430" lon="113.9102000">
    <ele>70.7</ele>
    <time>2024-07-05T02:16:40Z</time>
   </trkpt>
   <trkpt lat="35.2690430" lon="113.9101640">
    <ele>70.7</ele>
    <time>2024-07-05T02:16:41Z</time>
   </trkpt>
   <trkpt lat="35.2690430" lon="113.9101260">
    <ele>70.7</ele>
    <time>2024-07-05T02:16:42Z</time>
   </trkpt>
   <trkpt lat="35.2690470" lon="113.9100950">
    <ele>70.6</ele>
    <time>2024-07-05T02:16:43Z</time>
   </trkpt>
   <trkpt lat="35.2690470" lon="113.9100650">
    <ele>70.6</ele>
    <time>2024-07-05T02:16:44Z</time>
   </trkpt>
   <trkpt lat="35.2690470" lon="113.9100300">
    <ele>70.6</ele>
    <time>2024-07-05T02:16:45Z</time>
   </trkpt>
   <trkpt lat="35.2690470" lon="113.9100000">
    <ele>70.5</ele>
    <time>2024-07-05T02:16:46Z</time>
   </trkpt>
   <trkpt lat="35.2690430" lon="113.9099900">
    <ele>70.5</ele>
    <time>2024-07-05T02:16:47Z</time>
   </trkpt>
   <trkpt lat="35.2690400" lon="113.9099700">
    <ele>70.5</ele>
    <time>2024-07-05T02:16:48Z</time>
   </trkpt>
   <trkpt lat="35.2690400" lon="113.9099600">
    <ele>70.5</ele>
    <time>2024-07-05T02:16:49Z</time>
   </trkpt>
   <trkpt lat="35.2690430" lon="113.9099500">
    <ele>70.5</ele>
    <time>2024-07-05T02:16:50Z</time>
   </trkpt>
   <trkpt lat="35.2690540" lon="113.9099400">
    <ele>70.5</ele>
    <time>2024-07-05T02:16:51Z</time>
   </trkpt>
   <trkpt lat="35.2690620" lon="113.9099300">
    <ele>70.5</ele>
    <time>2024-07-05T02:16:52Z</time>
   </trkpt>
   <trkpt lat="35.2690730" lon="113.9099100">
    <ele>70.5</ele>
    <time>2024-07-05T02:16:53Z</time>
   </trkpt>
   <trkpt lat="35.2690770" lon="113.9098900">
    <ele>70.5</ele>
    <time>2024-07-05T02:16:54Z</time>
   </trkpt>
   <trkpt lat="35.2690850" lon="113.9098740">
    <ele>70.4</ele>
    <time>2024-07-05T02:16:55Z</time>
   </trkpt>
   <trkpt lat="35.2690930" lon="113.9098600">
    <ele>70.4</ele>
    <time>2024-07-05T02:16:56Z</time>
   </trkpt>
   <trkpt lat="35.2691080" lon="113.9098400">
    <ele>70.4</ele>
    <time>2024-07-05T02:16:57Z</time>
   </trkpt>
   <trkpt lat="35.2691230" lon="113.9098410">
    <ele>70.4</ele>
    <time>2024-07-05T02:16:58Z</time>
   </trkpt>
   <trkpt lat="35.2691270" lon="113.9098420">
    <ele>70.4</ele>
    <time>2024-07-05T02:16:59Z</time>
   </trkpt>
   <trkpt lat="35.2691300" lon="113.9098430">
    <ele>70.4</ele>
    <time>2024-07-05T02:17:00Z</time>
   </trkpt>
   <trkpt lat="35.2691330" lon="113.9098440">
    <ele>70.4</ele>
    <time>2024-07-05T02:17:01Z</time>
   </trkpt>
   <trkpt lat="35.2691370" lon="113.9098460">
    <ele>70.4</ele>
    <time>2024-07-05T02:17:02Z</time>
   </trkpt>
   <trkpt lat="35.2691400" lon="113.9098470">
    <ele>70.4</ele>
    <time>2024-07-05T02:17:03Z</time>
   </trkpt>
   <trkpt lat="35.2691430" lon="113.9098480">
    <ele>70.4</ele>
    <time>2024-07-05T02:17:04Z</time>
   </trkpt>
   <trkpt lat="35.2691470" lon="113.9098490">
    <ele>70.4</ele>
    <time>2024-07-05T02:17:05Z</time>
   </trkpt>
   <trkpt lat="35.2691500" lon="113.9098500">
    <ele>70.4</ele>
    <time>2024-07-05T02:17:05Z</time>
   </trkpt>
   <trkpt lat="35.2691500" lon="113.9098500">
    <ele>70.4</ele>
    <time>2024-07-05T02:17:05Z</time>
   </trkpt>
  </trkseg>
 </trk>
</gpx>
