<?xml version="1.0" encoding="UTF-8"?>
<gpx creator="StravaGPX" version="1.1" xmlns="http://www.topografix.com/GPX/1/1" xmlns:xsi="http://www.w3.org/2001/XMLSchema-instance" xsi:schemaLocation="http://www.topografix.com/GPX/1/1 http://www.topografix.com/GPX/1/1/gpx.xsd">
 <metadata>
  <time>2025-08-10T13:50:48Z</time>
 </metadata>
 <trk>
  <name>Ride</name>
  <type>cycling</type>
  <trkseg>
   <trkpt lat="35.2672460" lon="113.9092900">
    <ele>66.2</ele>
    <time>2025-08-10T13:50:48Z</time>
   </trkpt>
   <trkpt lat="35.2672270" lon="113.9093400">
    <ele>66.1</ele>
    <time>2025-08-10T13:50:50Z</time>
   </trkpt>
   <trkpt lat="35.2672270" lon="113.9093400">
    <ele>66.1</ele>
    <time>2025-08-10T13:50:50Z</time>
   </trkpt>
   <trkpt lat="35.2672270" lon="113.9093600">
    <ele>66.1</ele>
    <time>2025-08-10T13:50:51Z</time>
   </trkpt>
   <trkpt lat="35.2672300" lon="113.9094400">
    <ele>66.2</ele>
    <time>2025-08-10T13:50:53Z</time>
   </trkpt>
   <trkpt lat="35.2672350" lon="113.9094500">
    <ele>66.2</ele>
    <time>2025-08-10T13:50:54Z</time>
   </trkpt>
   <trkpt lat="35.2672420" lon="113.9095300">
    <ele>66.9</ele>
    <time>2025-08-10T13:50:56Z</time>
   </trkpt>
   <trkpt lat="35.2672420" lon="113.9096000">
    <ele>67.2</ele>
    <time>2025-08-10T13:50:57Z</time>
   </trkpt>
   <trkpt lat="35.2672600" lon="113.9096200">
    <ele>67.2</ele>
    <time>2025-08-10T13:50:59Z</time>
   </trkpt>
   <trkpt lat="35.2673000" lon="113.9096500">
    <ele>67.4</ele>
    <time>2025-08-10T13:51:01Z</time>
   </trkpt>
   <trkpt lat="35.2673400" lon="113.9096800">
    <ele>67.5</ele>
    <time>2025-08-10T13:51:03Z</time>
   </trkpt>
   <trkpt lat="35.2673950" lon="113.9097200">
    <ele>67.8</ele>
    <time>2025-08-10T13:51:05Z</time>
   </trkpt>
   <trkpt lat="35.2674600" lon="113.9097440">
    <ele>68.2</ele>
    <time>2025-08-10T13:51:07Z</time>
   </trkpt>
   <trkpt lat="35.2675320" lon="113.9097500">
    <ele>68.1</ele>
    <time>2025-08-10T13:51:09Z</time>
   </trkpt>
   <trkpt lat="35.2676100" lon="113.9097900">
    <ele>68.4</ele>
    <time>2025-08-10T13:51:11Z</time>
   </trkpt>
   <trkpt lat="35.2677040" lon="113.9097750">
    <ele>68.3</ele>
    <time>2025-08-10T13:51:13Z</time>
   </trkpt>
   <trkpt lat="35.2677960" lon="113.9098050">
    <ele>67.9</ele>
    <time>2025-08-10T13:51:15Z</time>
   </trkpt>
   <trkpt lat="35.2678700" lon="113.9098100">
    <ele>67.5</ele>
    <time>2025-08-10T13:51:17Z</time>
   </trkpt>
   <trkpt lat="35.2679180" lon="113.9098050">
    <ele>67.5</ele>
    <time>2025-08-10T13:51:18Z</time>
   </trkpt>
   <trkpt lat="35.2679560" lon="113.9098200">
    <ele>68.1</ele>
    <time>2025-08-10T13:51:19Z</time>
   </trkpt>
   <trkpt lat="35.2679980" lon="113.9098360">
    <ele>68.0</ele>
    <time>2025-08-10T13:51:20Z</time>
   </trkpt>
   <trkpt lat="35.2680360" lon="113.9098400">
    <ele>67.8</ele>
    <time>2025-08-10T13:51:21Z</time>
   </trkpt>
   <trkpt lat="35.2680780" lon="113.9098600">
    <ele>68.0</ele>
    <time>2025-08-10T13:51:22Z</time>
   </trkpt>
   <trkpt lat="35.2681160" lon="113.9098700">
    <ele>67.8</ele>
    <time>2025-08-10T13:51:23Z</time>
   </trkpt>
   <trkpt lat="35.2681660" lon="113.9098740">
    <ele>67.7</ele>
    <time>2025-08-10T13:51:24Z</time>
   </trkpt>
   <trkpt lat="35.2682040" lon="113.9098900">
    <ele>67.8</ele>
    <time>2025-08-10T13:51:25Z</time>
   </trkpt>
   <trkpt lat="35.2682460" lon="113.9099000">
    <ele>68.1</ele>
    <time>2025-08-10T13:51:26Z</time>
   </trkpt>
   <trkpt lat="35.2682840" lon="113.9099000">
    <ele>68.1</ele>
    <time>2025-08-10T13:51:27Z</time>
   </trkpt>
   <trkpt lat="35.2683260" lon="113.9099040">
    <ele>68.0</ele>
    <time>2025-08-10T13:51:28Z</time>
   </trkpt>
   <trkpt lat="35.2683680" lon="113.9099040">
    <ele>68.0</ele>
    <time>2025-08-10T13:51:29Z</time>
   </trkpt>
   <trkpt lat="35.2684250" lon="113.9099100">
    <ele>68.1</ele>
    <time>2025-08-10T13:51:30Z</time>
   </trkpt>
   <trkpt lat="35.2684630" lon="113.9099300">
    <ele>68.3</ele>
    <time>2025-08-10T13:51:31Z</time>
   </trkpt>
   <trkpt lat="35.2685000" lon="113.9099500">
    <ele>69.1</ele>
    <time>2025-08-10T13:51:32Z</time>
   </trkpt>
   <trkpt lat="35.2685430" lon="113.9099400">
    <ele>69.2</ele>
    <time>2025-08-10T13:51:33Z</time>
   </trkpt>
   <trkpt lat="35.2685780" lon="113.9099500">
    <ele>69.9</ele>
    <time>2025-08-10T13:51:34Z</time>
   </trkpt>
   <trkpt lat="35.2686100" lon="113.9099400">
    <ele>69.7</ele>
    <time>2025-08-10T13:51:35Z</time>
   </trkpt>
   <trkpt lat="35.2686300" lon="113.9099350">
    <ele>69.7</ele>
    <time>2025-08-10T13:51:36Z</time>
   </trkpt>
   <trkpt lat="35.2686540" lon="113.9099300">
    <ele>69.9</ele>
    <time>2025-08-10T13:51:37Z</time>
   </trkpt>
   <trkpt lat="35.2686800" lon="113.9099200">
    <ele>70.2</ele>
    <time>2025-08-10T13:51:38Z</time>
   </trkpt>
   <trkpt lat="35.2687100" lon="113.9099040">
    <ele>70.2</ele>
    <time>2025-08-10T13:51:39Z</time>
   </trkpt>
   <trkpt lat="35.2687380" lon="113.9099000">
    <ele>70.5</ele>
    <time>2025-08-10T13:51:40Z</time>
   </trkpt>
   <trkpt lat="35.2687640" lon="113.9099000">
    <ele>70.9</ele>
    <time>2025-08-10T13:51:41Z</time>
   </trkpt>
   <trkpt lat="35.2687800" lon="113.9099000">
    <ele>70.9</ele>
    <time>2025-08-10T13:51:42Z</time>
   </trkpt>
   <trkpt lat="35.2687950" lon="113.9099040">
    <ele>71.1</ele>
    <time>2025-08-10T13:51:43Z</time>
   </trkpt>
   <trkpt lat="35.2688180" lon="113.9099300">
    <ele>71.3</ele>
    <time>2025-08-10T13:51:44Z</time>
   </trkpt>
   <trkpt lat="35.2688370" lon="113.9099600">
    <ele>71.3</ele>
    <time>2025-08-10T13:51:45Z</time>
   </trkpt>
   <trkpt lat="35.2688400" lon="113.9099900">
    <ele>71.3</ele>
    <time>2025-08-10T13:51:46Z</time>
   </trkpt>
   <trkpt lat="35.2688400" lon="113.9100340">
    <ele>71.3</ele>
    <time>2025-08-10T13:51:47Z</time>
   </trkpt>
   <trkpt lat="35.2688370" lon="113.9100800">
    <ele>71.3</ele>
    <time>2025-08-10T13:51:48Z</time>
   </trkpt>
   <trkpt lat="35.2688300" lon="113.9101260">
    <ele>71.3</ele>
    <time>2025-08-10T13:51:49Z</time>
   </trkpt>
   <trkpt lat="35.2688260" lon="113.9101800">
    <ele>71.2</ele>
    <time>2025-08-10T13:51:50Z</time>
   </trkpt>
   <trkpt lat="35.2688260" lon="113.9102250">
    <ele>71.2</ele>
    <time>2025-08-10T13:51:51Z</time>
   </trkpt>
   <trkpt lat="35.2688260" lon="113.9102700">
    <ele>71.1</ele>
    <time>2025-08-10T13:51:52Z</time>
   </trkpt>
   <trkpt lat="35.2688200" lon="113.9103200">
    <ele>71.0</ele>
    <time>2025-08-10T13:51:53Z</time>
   </trkpt>
   <trkpt lat="35.2688140" lon="113.9103600">
    <ele>71.0</ele>
    <time>2025-08-10T13:51:54Z</time>
   </trkpt>
   <trkpt lat="35.2688060" lon="113.9104000">
    <ele>70.9</ele>
    <time>2025-08-10T13:51:55Z</time>
   </trkpt>
   <trkpt lat="35.2688030" lon="113.9104460">
    <ele>70.8</ele>
    <time>2025-08-10T13:51:56Z</time>
   </trkpt>
   <trkpt lat="35.2688000" lon="113.9104840">
    <ele>70.8</ele>
    <time>2025-08-10T13:51:57Z</time>
   </trkpt>
   <trkpt lat="35.2688030" lon="113.9105200">
    <ele>70.7</ele>
    <time>2025-08-10T13:51:58Z</time>
   </trkpt>
   <trkpt lat="35.2688180" lon="113.9105600">
    <ele>70.7</ele>
    <time>2025-08-10T13:51:59Z</time>
   </trkpt>
   <trkpt lat="35.2688330" lon="113.9105900">
    <ele>70.7</ele>
    <time>2025-08-10T13:52:00Z</time>
   </trkpt>
   <trkpt lat="35.2688400" lon="113.9106200">
    <ele>70.6</ele>
    <time>2025-08-10T13:52:01Z</time>
   </trkpt>
   <trkpt lat="35.2688370" lon="113.9106600">
    <ele>70.6</ele>
    <time>2025-08-10T13:52:02Z</time>
   </trkpt>
   <trkpt lat="35.2688180" lon="113.9106600">
    <ele>70.6</ele>
    <time>2025-08-10T13:52:03Z</time>
   </trkpt>
   <trkpt lat="35.2688140" lon="113.9107200">
    <ele>70.6</ele>
    <time>2025-08-10T13:52:04Z</time>
   </trkpt>
   <trkpt lat="35.2688000" lon="113.9107800">
    <ele>70.6</ele>
    <time>2025-08-10T13:52:05Z</time>
   </trkpt>
   <trkpt lat="35.2688000" lon="113.9108400">
    <ele>70.6</ele>
    <time>2025-08-10T13:52:06Z</time>
   </trkpt>
   <trkpt lat="35.2687870" lon="113.9109000">
    <ele>70.5</ele>
    <time>2025-08-10T13:52:07Z</time>
   </trkpt>
   <trkpt lat="35.2687900" lon="113.9109500">
    <ele>70.5</ele>
    <time>2025-08-10T13:52:08Z</time>
   </trkpt>
   <trkpt lat="35.2687950" lon="113.9110100">
    <ele>70.4</ele>
    <time>2025-08-10T13:52:09Z</time>
   </trkpt>
   <trkpt lat="35.2687950" lon="113.9110800">
    <ele>70.3</ele>
    <time>2025-08-10T13:52:10Z</time>
   </trkpt>
   <trkpt lat="35.2687760" lon="113.9111300">
    <ele>70.3</ele>
    <time>2025-08-10T13:52:11Z</time>
   </trkpt>
   <trkpt lat="35.2687600" lon="113.9111900">
    <ele>70.3</ele>
    <time>2025-08-10T13:52:12Z</time>
   </trkpt>
   <trkpt lat="35.2687720" lon="113.9112300">
    <ele>70.3</ele>
    <time>2025-08-10T13:52:13Z</time>
   </trkpt>
   <trkpt lat="35.2687700" lon="113.9112850">
    <ele>70.3</ele>
    <time>2025-08-10T13:52:14Z</time>
   </trkpt>
   <trkpt lat="35.2687720" lon="113.9113540">
    <ele>70.3</ele>
    <time>2025-08-10T13:52:15Z</time>
   </trkpt>
   <trkpt lat="35.2687800" lon="113.9114100">
    <ele>70.3</ele>
    <time>2025-08-10T13:52:16Z</time>
   </trkpt>
   <trkpt lat="35.2687800" lon="113.9114600">
    <ele>70.3</ele>
    <time>2025-08-10T13:52:17Z</time>
   </trkpt>
   <trkpt lat="35.2687840" lon="113.9115140">
    <ele>70.4</ele>
    <time>2025-08-10T13:52:18Z</time>
   </trkpt>
   <trkpt lat="35.2687840" lon="113.9115750">
    <ele>70.5</ele>
    <time>2025-08-10T13:52:19Z</time>
   </trkpt>
   <trkpt lat="35.2687800" lon="113.9116300">
    <ele>70.6</ele>
    <time>2025-08-10T13:52:20Z</time>
   </trkpt>
   <trkpt lat="35.2687800" lon="113.9116800">
    <ele>70.7</ele>
    <time>2025-08-10T13:52:21Z</time>
   </trkpt>
   <trkpt lat="35.2687800" lon="113.9117400">
    <ele>70.7</ele>
    <time>2025-08-10T13:52:22Z</time>
   </trkpt>
   <trkpt lat="35.2687600" lon="113.9118000">
    <ele>70.8</ele>
    <time>2025-08-10T13:52:23Z</time>
   </trkpt>
   <trkpt lat="35.2687380" lon="113.9118350">
    <ele>71.0</ele>
    <time>2025-08-10T13:52:24Z</time>
   </trkpt>
   <trkpt lat="35.2687070" lon="113.9118700">
    <ele>71.1</ele>
    <time>2025-08-10T13:52:25Z</time>
   </trkpt>
   <trkpt lat="35.2686730" lon="113.9119000">
    <ele>71.1</ele>
    <time>2025-08-10T13:52:26Z</time>
   </trkpt>
   <trkpt lat="35.2686270" lon="113.9119100">
    <ele>71.1</ele>
    <time>2025-08-10T13:52:27Z</time>
   </trkpt>
   <trkpt lat="35.2685900" lon="113.9119100">
    <ele>71.1</ele>
    <time>2025-08-10T13:52:28Z</time>
   </trkpt>
   <trkpt lat="35.2685300" lon="113.9119000">
    <ele>71.1</ele>
    <time>2025-08-10T13:52:29Z</time>
   </trkpt>
   <trkpt lat="35.2684820" lon="113.9119000">
    <ele>71.1</ele>
    <time>2025-08-10T13:52:30Z</time>
   </trkpt>
   <trkpt lat="35.2683640" lon="113.9119000">
    <ele>71.0</ele>
    <time>2025-08-10T13:52:32Z</time>
   </trkpt>
   <trkpt lat="35.2682530" lon="113.9119100">
    <ele>70.8</ele>
    <time>2025-08-10T13:52:34Z</time>
   </trkpt>
   <trkpt lat="35.2681400" lon="113.9119100">
    <ele>70.8</ele>
    <time>2025-08-10T13:52:36Z</time>
   </trkpt>
   <trkpt lat="35.2680300" lon="113.9119100">
    <ele>70.8</ele>
    <time>2025-08-10T13:52:38Z</time>
   </trkpt>
   <trkpt lat="35.2679700" lon="113.9119000">
    <ele>70.8</ele>
    <time>2025-08-10T13:52:39Z</time>
   </trkpt>
   <trkpt lat="35.2679250" lon="113.9119000">
    <ele>70.7</ele>
    <time>2025-08-10T13:52:40Z</time>
   </trkpt>
   <trkpt lat="35.2678680" lon="113.9119000">
    <ele>70.7</ele>
    <time>2025-08-10T13:52:41Z</time>
   </trkpt>
   <trkpt lat="35.2678150" lon="113.9119000">
    <ele>70.6</ele>
    <time>2025-08-10T13:52:42Z</time>
   </trkpt>
   <trkpt lat="35.2677700" lon="113.9119000">
    <ele>70.6</ele>
    <time>2025-08-10T13:52:43Z</time>
   </trkpt>
   <trkpt lat="35.2677200" lon="113.9119000">
    <ele>70.5</ele>
    <time>2025-08-10T13:52:44Z</time>
   </trkpt>
   <trkpt lat="35.2676700" lon="113.9119000">
    <ele>70.4</ele>
    <time>2025-08-10T13:52:45Z</time>
   </trkpt>
   <trkpt lat="35.2676160" lon="113.9118960">
    <ele>70.3</ele>
    <time>2025-08-10T13:52:46Z</time>
   </trkpt>
   <trkpt lat="35.2675740" lon="113.9119000">
    <ele>70.3</ele>
    <time>2025-08-10T13:52:47Z</time>
   </trkpt>
   <trkpt lat="35.2675300" lon="113.9119000">
    <ele>70.2</ele>
    <time>2025-08-10T13:52:48Z</time>
   </trkpt>
   <trkpt lat="35.2674830" lon="113.9119100">
    <ele>70.2</ele>
    <time>2025-08-10T13:52:49Z</time>
   </trkpt>
   <trkpt lat="35.2674400" lon="113.9119100">
    <ele>70.2</ele>
    <time>2025-08-10T13:52:50Z</time>
   </trkpt>
   <trkpt lat="35.2674030" lon="113.9119200">
    <ele>70.2</ele>
    <time>2025-08-10T13:52:51Z</time>
   </trkpt>
   <trkpt lat="35.2673720" lon="113.9119100">
    <ele>70.2</ele>
    <time>2025-08-10T13:52:52Z</time>
   </trkpt>
   <trkpt lat="35.2673300" lon="113.9119100">
    <ele>70.2</ele>
    <time>2025-08-10T13:52:53Z</time>
   </trkpt>
   <trkpt lat="35.2672920" lon="113.9119100">
    <ele>70.2</ele>
    <time>2025-08-10T13:52:54Z</time>
   </trkpt>
   <trkpt lat="35.2672540" lon="113.9119100">
    <ele>70.2</ele>
    <time>2025-08-10T13:52:55Z</time>
   </trkpt>
   <trkpt lat="35.2672160" lon="113.9119100">
    <ele>70.2</ele>
    <time>2025-08-10T13:52:56Z</time>
   </trkpt>
   <trkpt lat="35.2671780" lon="113.9119100">
    <ele>70.2</ele>
    <time>2025-08-10T13:52:57Z</time>
   </trkpt>
   <trkpt lat="35.2671400" lon="113.9119100">
    <ele>70.2</ele>
    <time>2025-08-10T13:52:58Z</time>
   </trkpt>
   <trkpt lat="35.2671050" lon="113.9119200">
    <ele>70.2</ele>
    <time>2025-08-10T13:52:59Z</time>
   </trkpt>
   <trkpt lat="35.2670700" lon="113.9119100">
    <ele>70.3</ele>
    <time>2025-08-10T13:53:00Z</time>
   </trkpt>
   <trkpt lat="35.2670330" lon="113.9119100">
    <ele>70.3</ele>
    <time>2025-08-10T13:53:01Z</time>
   </trkpt>
   <trkpt lat="35.2670020" lon="113.9119100">
    <ele>70.3</ele>
    <time>2025-08-10T13:53:02Z</time>
   </trkpt>
   <trkpt lat="35.2669640" lon="113.9119200">
    <ele>70.3</ele>
    <time>2025-08-10T13:53:03Z</time>
   </trkpt>
   <trkpt lat="35.2669300" lon="113.9119200">
    <ele>70.3</ele>
    <time>2025-08-10T13:53:04Z</time>
   </trkpt>
   <trkpt lat="35.2669000" lon="113.9119200">
    <ele>70.3</ele>
    <time>2025-08-10T13:53:05Z</time>
   </trkpt>
   <trkpt lat="35.2668720" lon="113.9119300">
    <ele>70.3</ele>
    <time>2025-08-10T13:53:06Z</time>
   </trkpt>
   <trkpt lat="35.2668460" lon="113.9119200">
    <ele>70.3</ele>
    <time>2025-08-10T13:53:07Z</time>
   </trkpt>
   <trkpt lat="35.2668150" lon="113.9119200">
    <ele>70.3</ele>
    <time>2025-08-10T13:53:08Z</time>
   </trkpt>
   <trkpt lat="35.2667850" lon="113.9119200">
    <ele>70.3</ele>
    <time>2025-08-10T13:53:09Z</time>
   </trkpt>
   <trkpt lat="35.2667580" lon="113.9119200">
    <ele>70.3</ele>
    <time>2025-08-10T13:53:10Z</time>
   </trkpt>
   <trkpt lat="35.2667270" lon="113.9119300">
    <ele>70.3</ele>
    <time>2025-08-10T13:53:11Z</time>
   </trkpt>
   <trkpt lat="35.2667000" lon="113.9119300">
    <ele>70.3</ele>
    <time>2025-08-10T13:53:12Z</time>
   </trkpt>
   <trkpt lat="35.2666740" lon="113.9119300">
    <ele>70.3</ele>
    <time>2025-08-10T13:53:13Z</time>
   </trkpt>
   <trkpt lat="35.2666470" lon="113.9119200">
    <ele>70.2</ele>
    <time>2025-08-10T13:53:14Z</time>
   </trkpt>
   <trkpt lat="35.2666200" lon="113.9119200">
    <ele>70.2</ele>
    <time>2025-08-10T13:53:15Z</time>
   </trkpt>
   <trkpt lat="35.2665940" lon="113.9119300">
    <ele>70.2</ele>
    <time>2025-08-10T13:53:16Z</time>
   </trkpt>
   <trkpt lat="35.2665630" lon="113.9119300">
    <ele>70.1</ele>
    <time>2025-08-10T13:53:17Z</time>
   </trkpt>
   <trkpt lat="35.2665330" lon="113.9119200">
    <ele>70.1</ele>
    <time>2025-08-10T13:53:18Z</time>
   </trkpt>
   <trkpt lat="35.2665020" lon="113.9119100">
    <ele>70.1</ele>
    <time>2025-08-10T13:53:19Z</time>
   </trkpt>
   <trkpt lat="35.2664700" lon="113.9119200">
    <ele>70.0</ele>
    <time>2025-08-10T13:53:20Z</time>
   </trkpt>
   <trkpt lat="35.2664450" lon="113.9119200">
    <ele>70.0</ele>
    <time>2025-08-10T13:53:21Z</time>
   </trkpt>
   <trkpt lat="35.2664200" lon="113.9119200">
    <ele>70.0</ele>
    <time>2025-08-10T13:53:22Z</time>
   </trkpt>
   <trkpt lat="35.2663900" lon="113.9119300">
    <ele>70.0</ele>
    <time>2025-08-10T13:53:23Z</time>
   </trkpt>
   <trkpt lat="35.2663650" lon="113.9119200">
    <ele>69.9</ele>
    <time>2025-08-10T13:53:24Z</time>
   </trkpt>
   <trkpt lat="35.2663420" lon="113.9119200">
    <ele>69.9</ele>
    <time>2025-08-10T13:53:25Z</time>
   </trkpt>
   <trkpt lat="35.2663150" lon="113.9119200">
    <ele>69.9</ele>
    <time>2025-08-10T13:53:26Z</time>
   </trkpt>
   <trkpt lat="35.2662900" lon="113.9119200">
    <ele>69.9</ele>
    <time>2025-08-10T13:53:27Z</time>
   </trkpt>
   <trkpt lat="35.2662620" lon="113.9119200">
    <ele>69.9</ele>
    <time>2025-08-10T13:53:28Z</time>
   </trkpt>
   <trkpt lat="35.2662400" lon="113.9119200">
    <ele>69.8</ele>
    <time>2025-08-10T13:53:29Z</time>
   </trkpt>
   <trkpt lat="35.2662160" lon="113.9119200">
    <ele>69.8</ele>
    <time>2025-08-10T13:53:30Z</time>
   </trkpt>
   <trkpt lat="35.2661930" lon="113.9119200">
    <ele>69.8</ele>
    <time>2025-08-10T13:53:31Z</time>
   </trkpt>
   <trkpt lat="35.2661700" lon="113.9119200">
    <ele>69.8</ele>
    <time>2025-08-10T13:53:32Z</time>
   </trkpt>
   <trkpt lat="35.2661480" lon="113.9119100">
    <ele>69.8</ele>
    <time>2025-08-10T13:53:33Z</time>
   </trkpt>
   <trkpt lat="35.2661330" lon="113.9119100">
    <ele>69.8</ele>
    <time>2025-08-10T13:53:34Z</time>
   </trkpt>
   <trkpt lat="35.2661340" lon="113.9119100">
    <ele>69.8</ele>
    <time>2025-08-10T13:53:35Z</time>
   </trkpt>
   <trkpt lat="35.2661350" lon="113.9119100">
    <ele>69.8</ele>
    <time>2025-08-10T13:53:36Z</time>
   </trkpt>
   <trkpt lat="35.2661370" lon="113.9119100">
    <ele>69.8</ele>
    <time>2025-08-10T13:53:37Z</time>
   </trkpt>
   <trkpt lat="35.2661380" lon="113.9119100">
    <ele>69.8</ele>
    <time>2025-08-10T13:53:38Z</time>
   </trkpt>
   <trkpt lat="35.2661390" lon="113.9119100">
    <ele>69.8</ele>
    <time>2025-08-10T13:53:39Z</time>
   </trkpt>
   <trkpt lat="35.2661400" lon="113.9119100">
    <ele>69.8</ele>
    <time>2025-08-10T13:53:39Z</time>
   </trkpt>
   <trkpt lat="35.2660330" lon="113.9119300">
    <ele>69.8</ele>
    <time>2025-08-10T13:54:25Z</time>
   </trkpt>
   <trkpt lat="35.2660100" lon="113.9119300">
    <ele>69.8</ele>
    <time>2025-08-10T13:54:26Z</time>
   </trkpt>
   <trkpt lat="35.2659840" lon="113.9119300">
    <ele>69.8</ele>
    <time>2025-08-10T13:54:27Z</time>
   </trkpt>
   <trkpt lat="35.2659570" lon="113.9119300">
    <ele>69.8</ele>
    <time>2025-08-10T13:54:28Z</time>
   </trkpt>
   <trkpt lat="35.2659300" lon="113.9119300">
    <ele>69.8</ele>
    <time>2025-08-10T13:54:29Z</time>
   </trkpt>
   <trkpt lat="35.2659030" lon="113.9119300">
    <ele>69.8</ele>
    <time>2025-08-10T13:54:30Z</time>
   </trkpt>
   <trkpt lat="35.2658800" lon="113.9119300">
    <ele>69.8</ele>
    <time>2025-08-10T13:54:31Z</time>
   </trkpt>
   <trkpt lat="35.2658540" lon="113.9119300">
    <ele>69.8</ele>
    <time>2025-08-10T13:54:32Z</time>
   </trkpt>
   <trkpt lat="35.2658300" lon="113.9119300">
    <ele>69.8</ele>
    <time>2025-08-10T13:54:33Z</time>
   </trkpt>
   <trkpt lat="35.2658100" lon="113.9119300">
    <ele>69.9</ele>
    <time>2025-08-10T13:54:34Z</time>
   </trkpt>
   <trkpt lat="35.2657800" lon="113.9119200">
    <ele>69.9</ele>
    <time>2025-08-10T13:54:35Z</time>
   </trkpt>
   <trkpt lat="35.2657600" lon="113.9119100">
    <ele>69.9</ele>
    <time>2025-08-10T13:54:36Z</time>
   </trkpt>
   <trkpt lat="35.2657360" lon="113.9119100">
    <ele>69.9</ele>
    <time>2025-08-10T13:54:37Z</time>
   </trkpt>
   <trkpt lat="35.2657100" lon="113.9119000">
    <ele>69.9</ele>
    <time>2025-08-10T13:54:38Z</time>
   </trkpt>
   <trkpt lat="35.2656860" lon="113.9119000">
    <ele>69.9</ele>
    <time>2025-08-10T13:54:39Z</time>
   </trkpt>
   <trkpt lat="35.2656630" lon="113.9119000">
    <ele>69.9</ele>
    <time>2025-08-10T13:54:40Z</time>
   </trkpt>
   <trkpt lat="35.2656400" lon="113.9119000">
    <ele>69.9</ele>
    <time>2025-08-10T13:54:41Z</time>
   </trkpt>
   <trkpt lat="35.2656140" lon="113.9119000">
    <ele>69.9</ele>
    <time>2025-08-10T13:54:42Z</time>
   </trkpt>
   <trkpt lat="35.2655750" lon="113.9119000">
    <ele>69.9</ele>
    <time>2025-08-10T13:54:43Z</time>
   </trkpt>
   <trkpt lat="35.2655450" lon="113.9118900">
    <ele>69.9</ele>
    <time>2025-08-10T13:54:44Z</time>
   </trkpt>
   <trkpt lat="35.2655200" lon="113.9118800">
    <ele>69.9</ele>
    <time>2025-08-10T13:54:45Z</time>
   </trkpt>
   <trkpt lat="35.2654950" lon="113.9118900">
    <ele>69.9</ele>
    <time>2025-08-10T13:54:46Z</time>
   </trkpt>
   <trkpt lat="35.2654720" lon="113.9118960">
    <ele>69.9</ele>
    <time>2025-08-10T13:54:47Z</time>
   </trkpt>
   <trkpt lat="35.2654500" lon="113.9119000">
    <ele>69.9</ele>
    <time>2025-08-10T13:54:48Z</time>
   </trkpt>
   <trkpt lat="35.2654230" lon="113.9119000">
    <ele>69.9</ele>
    <time>2025-08-10T13:54:49Z</time>
   </trkpt>
   <trkpt lat="35.2654000" lon="113.9119100">
    <ele>69.9</ele>
    <time>2025-08-10T13:54:50Z</time>
   </trkpt>
   <trkpt lat="35.2653770" lon="113.9119100">
    <ele>69.9</ele>
    <time>2025-08-10T13:54:51Z</time>
   </trkpt>
   <trkpt lat="35.2653500" lon="113.9119200">
    <ele>69.9</ele>
    <time>2025-08-10T13:54:52Z</time>
   </trkpt>
   <trkpt lat="35.2653240" lon="113.9119200">
    <ele>69.9</ele>
    <time>2025-08-10T13:54:53Z</time>
   </trkpt>
   <trkpt lat="35.2653000" lon="113.9119300">
    <ele>70.0</ele>
    <time>2025-08-10T13:54:54Z</time>
   </trkpt>
   <trkpt lat="35.2652740" lon="113.9119300">
    <ele>70.0</ele>
    <time>2025-08-10T13:54:55Z</time>
   </trkpt>
   <trkpt lat="35.2652470" lon="113.9119300">
    <ele>70.0</ele>
    <time>2025-08-10T13:54:56Z</time>
   </trkpt>
   <trkpt lat="35.2652170" lon="113.9119200">
    <ele>70.0</ele>
    <time>2025-08-10T13:54:57Z</time>
   </trkpt>
   <trkpt lat="35.2651860" lon="113.9119100">
    <ele>70.1</ele>
    <time>2025-08-10T13:54:58Z</time>
   </trkpt>
   <trkpt lat="35.2651600" lon="113.9119100">
    <ele>70.1</ele>
    <time>2025-08-10T13:54:59Z</time>
   </trkpt>
   <trkpt lat="35.2651250" lon="113.9119100">
    <ele>70.2</ele>
    <time>2025-08-10T13:55:00Z</time>
   </trkpt>
   <trkpt lat="35.2650950" lon="113.9119100">
    <ele>70.2</ele>
    <time>2025-08-10T13:55:01Z</time>
   </trkpt>
   <trkpt lat="35.2650640" lon="113.9119100">
    <ele>70.3</ele>
    <time>2025-08-10T13:55:02Z</time>
   </trkpt>
   <trkpt lat="35.2650300" lon="113.9119100">
    <ele>70.3</ele>
    <time>2025-08-10T13:55:03Z</time>
   </trkpt>
   <trkpt lat="35.2650000" lon="113.9119100">
    <ele>70.4</ele>
    <time>2025-08-10T13:55:04Z</time>
   </trkpt>
   <trkpt lat="35.2649600" lon="113.9118960">
    <ele>70.5</ele>
    <time>2025-08-10T13:55:05Z</time>
   </trkpt>
   <trkpt lat="35.2649270" lon="113.9118960">
    <ele>70.5</ele>
    <time>2025-08-10T13:55:06Z</time>
   </trkpt>
   <trkpt lat="35.2648930" lon="113.9119000">
    <ele>70.6</ele>
    <time>2025-08-10T13:55:07Z</time>
   </trkpt>
   <trkpt lat="35.2648600" lon="113.9119000">
    <ele>70.7</ele>
    <time>2025-08-10T13:55:08Z</time>
   </trkpt>
   <trkpt lat="35.2648200" lon="113.9119000">
    <ele>70.7</ele>
    <time>2025-08-10T13:55:09Z</time>
   </trkpt>
   <trkpt lat="35.2647860" lon="113.9119000">
    <ele>70.8</ele>
    <time>2025-08-10T13:55:10Z</time>
   </trkpt>
   <trkpt lat="35.2647480" lon="113.9119000">
    <ele>70.9</ele>
    <time>2025-08-10T13:55:11Z</time>
   </trkpt>
   <trkpt lat="35.2647100" lon="113.9119100">
    <ele>71.1</ele>
    <time>2025-08-10T13:55:12Z</time>
   </trkpt>
   <trkpt lat="35.2646680" lon="113.9119100">
    <ele>71.3</ele>
    <time>2025-08-10T13:55:13Z</time>
   </trkpt>
   <trkpt lat="35.2646200" lon="113.9119100">
    <ele>71.5</ele>
    <time>2025-08-10T13:55:14Z</time>
   </trkpt>
   <trkpt lat="35.2645800" lon="113.9119100">
    <ele>71.7</ele>
    <time>2025-08-10T13:55:15Z</time>
   </trkpt>
   <trkpt lat="35.2645380" lon="113.9119100">
    <ele>71.8</ele>
    <time>2025-08-10T13:55:16Z</time>
   </trkpt>
   <trkpt lat="35.2644920" lon="113.9119200">
    <ele>72.0</ele>
    <time>2025-08-10T13:55:17Z</time>
   </trkpt>
   <trkpt lat="35.2644540" lon="113.9119000">
    <ele>72.0</ele>
    <time>2025-08-10T13:55:18Z</time>
   </trkpt>
   <trkpt lat="35.2644120" lon="113.9118900">
    <ele>72.0</ele>
    <time>2025-08-10T13:55:19Z</time>
   </trkpt>
   <trkpt lat="35.2643780" lon="113.9118650">
    <ele>72.0</ele>
    <time>2025-08-10T13:55:20Z</time>
   </trkpt>
   <trkpt lat="35.2643500" lon="113.9118350">
    <ele>72.0</ele>
    <time>2025-08-10T13:55:21Z</time>
   </trkpt>
   <trkpt lat="35.2643280" lon="113.9118000">
    <ele>72.0</ele>
    <time>2025-08-10T13:55:22Z</time>
   </trkpt>
   <trkpt lat="35.2643100" lon="113.9117600">
    <ele>72.0</ele>
    <time>2025-08-10T13:55:23Z</time>
   </trkpt>
   <trkpt lat="35.2642970" lon="113.9117100">
    <ele>72.1</ele>
    <time>2025-08-10T13:55:24Z</time>
   </trkpt>
   <trkpt lat="35.2642970" lon="113.9116700">
    <ele>72.1</ele>
    <time>2025-08-10T13:55:25Z</time>
   </trkpt>
   <trkpt lat="35.2643000" lon="113.9116200">
    <ele>72.1</ele>
    <time>2025-08-10T13:55:26Z</time>
   </trkpt>
   <trkpt lat="35.2643000" lon="113.9115700">
    <ele>72.1</ele>
    <time>2025-08-10T13:55:27Z</time>
   </trkpt>
   <trkpt lat="35.2643000" lon="113.9115200">
    <ele>72.1</ele>
    <time>2025-08-10T13:55:28Z</time>
   </trkpt>
   <trkpt lat="35.2643000" lon="113.9114700">
    <ele>72.1</ele>
    <time>2025-08-10T13:55:29Z</time>
   </trkpt>
   <trkpt lat="35.2643000" lon="113.9114200">
    <ele>72.2</ele>
    <time>2025-08-10T13:55:30Z</time>
   </trkpt>
   <trkpt lat="35.2643000" lon="113.9113800">
    <ele>72.2</ele>
    <time>2025-08-10T13:55:31Z</time>
   </trkpt>
   <trkpt lat="35.2643000" lon="113.9113200">
    <ele>72.2</ele>
    <time>2025-08-10T13:55:32Z</time>
   </trkpt>
   <trkpt lat="35.2642970" lon="113.9112800">
    <ele>72.2</ele>
    <time>2025-08-10T13:55:33Z</time>
   </trkpt>
   <trkpt lat="35.2642970" lon="113.9112300">
    <ele>72.2</ele>
    <time>2025-08-10T13:55:34Z</time>
   </trkpt>
   <trkpt lat="35.2642970" lon="113.9111900">
    <ele>72.2</ele>
    <time>2025-08-10T13:55:35Z</time>
   </trkpt>
   <trkpt lat="35.2643000" lon="113.9111400">
    <ele>72.3</ele>
    <time>2025-08-10T13:55:36Z</time>
   </trkpt>
   <trkpt lat="35.2643000" lon="113.9110950">
    <ele>72.3</ele>
    <time>2025-08-10T13:55:37Z</time>
   </trkpt>
   <trkpt lat="35.2643050" lon="113.9110640">
    <ele>72.3</ele>
    <time>2025-08-10T13:55:38Z</time>
   </trkpt>
   <trkpt lat="35.2643050" lon="113.9110260">
    <ele>72.3</ele>
    <time>2025-08-10T13:55:39Z</time>
   </trkpt>
   <trkpt lat="35.2643050" lon="113.9109900">
    <ele>72.3</ele>
    <time>2025-08-10T13:55:40Z</time>
   </trkpt>
   <trkpt lat="35.2643050" lon="113.9109500">
    <ele>72.3</ele>
    <time>2025-08-10T13:55:41Z</time>
   </trkpt>
   <trkpt lat="35.2643050" lon="113.9109100">
    <ele>72.3</ele>
    <time>2025-08-10T13:55:42Z</time>
   </trkpt>
   <trkpt lat="35.2643050" lon="113.9108800">
    <ele>72.3</ele>
    <time>2025-08-10T13:55:43Z</time>
   </trkpt>
   <trkpt lat="35.2643050" lon="113.9108400">
    <ele>72.4</ele>
    <time>2025-08-10T13:55:44Z</time>
   </trkpt>
   <trkpt lat="35.2643100" lon="113.9108100">
    <ele>72.4</ele>
    <time>2025-08-10T13:55:45Z</time>
   </trkpt>
   <trkpt lat="35.2643100" lon="113.9107740">
    <ele>72.4</ele>
    <time>2025-08-10T13:55:46Z</time>
   </trkpt>
   <trkpt lat="35.2643050" lon="113.9107400">
    <ele>72.4</ele>
    <time>2025-08-10T13:55:47Z</time>
   </trkpt>
   <trkpt lat="35.2643050" lon="113.9107100">
    <ele>72.4</ele>
    <time>2025-08-10T13:55:48Z</time>
   </trkpt>
   <trkpt lat="35.2643100" lon="113.9106800">
    <ele>72.4</ele>
    <time>2025-08-10T13:55:49Z</time>
   </trkpt>
   <trkpt lat="35.2643100" lon="113.9106500">
    <ele>72.4</ele>
    <time>2025-08-10T13:55:50Z</time>
   </trkpt>
   <trkpt lat="35.2643100" lon="113.9106200">
    <ele>72.4</ele>
    <time>2025-08-10T13:55:51Z</time>
   </trkpt>
   <trkpt lat="35.2643100" lon="113.9105800">
    <ele>72.4</ele>
    <time>2025-08-10T13:55:52Z</time>
   </trkpt>
   <trkpt lat="35.2643100" lon="113.9105450">
    <ele>72.5</ele>
    <time>2025-08-10T13:55:53Z</time>
   </trkpt>
   <trkpt lat="35.2643050" lon="113.9105100">
    <ele>72.5</ele>
    <time>2025-08-10T13:55:54Z</time>
   </trkpt>
   <trkpt lat="35.2643000" lon="113.9104800">
    <ele>72.5</ele>
    <time>2025-08-10T13:55:55Z</time>
   </trkpt>
   <trkpt lat="35.2642940" lon="113.9104460">
    <ele>72.5</ele>
    <time>2025-08-10T13:55:56Z</time>
   </trkpt>
   <trkpt lat="35.2642900" lon="113.9104100">
    <ele>72.5</ele>
    <time>2025-08-10T13:55:57Z</time>
   </trkpt>
   <trkpt lat="35.2642940" lon="113.9103600">
    <ele>72.5</ele>
    <time>2025-08-10T13:55:58Z</time>
   </trkpt>
   <trkpt lat="35.2642940" lon="113.9103240">
    <ele>72.5</ele>
    <time>2025-08-10T13:55:59Z</time>
   </trkpt>
   <trkpt lat="35.2642940" lon="113.9102800">
    <ele>72.5</ele>
    <time>2025-08-10T13:56:00Z</time>
   </trkpt>
   <trkpt lat="35.2642940" lon="113.9102400">
    <ele>72.6</ele>
    <time>2025-08-10T13:56:01Z</time>
   </trkpt>
   <trkpt lat="35.2642900" lon="113.9101940">
    <ele>72.6</ele>
    <time>2025-08-10T13:56:02Z</time>
   </trkpt>
   <trkpt lat="35.2642900" lon="113.9101600">
    <ele>72.6</ele>
    <time>2025-08-10T13:56:03Z</time>
   </trkpt>
   <trkpt lat="35.2642860" lon="113.9101200">
    <ele>72.6</ele>
    <time>2025-08-10T13:56:04Z</time>
   </trkpt>
   <trkpt lat="35.2642860" lon="113.9100800">
    <ele>72.6</ele>
    <time>2025-08-10T13:56:05Z</time>
   </trkpt>
   <trkpt lat="35.2642900" lon="113.9100340">
    <ele>72.6</ele>
    <time>2025-08-10T13:56:06Z</time>
   </trkpt>
   <trkpt lat="35.2642900" lon="113.9099960">
    <ele>72.6</ele>
    <time>2025-08-10T13:56:07Z</time>
   </trkpt>
   <trkpt lat="35.2642940" lon="113.9099600">
    <ele>72.6</ele>
    <time>2025-08-10T13:56:08Z</time>
   </trkpt>
   <trkpt lat="35.2642940" lon="113.9099200">
    <ele>72.7</ele>
    <time>2025-08-10T13:56:09Z</time>
   </trkpt>
   <trkpt lat="35.2642940" lon="113.9098800">
    <ele>72.7</ele>
    <time>2025-08-10T13:56:10Z</time>
   </trkpt>
   <trkpt lat="35.2642940" lon="113.9098400">
    <ele>72.7</ele>
    <time>2025-08-10T13:56:11Z</time>
   </trkpt>
   <trkpt lat="35.2642940" lon="113.9098050">
    <ele>72.7</ele>
    <time>2025-08-10T13:56:12Z</time>
   </trkpt>
   <trkpt lat="35.2642940" lon="113.9097700">
    <ele>72.7</ele>
    <time>2025-08-10T13:56:13Z</time>
   </trkpt>
   <trkpt lat="35.2642900" lon="113.9097400">
    <ele>72.7</ele>
    <time>2025-08-10T13:56:14Z</time>
   </trkpt>
   <trkpt lat="35.2642900" lon="113.9097060">
    <ele>72.7</ele>
    <time>2025-08-10T13:56:15Z</time>
   </trkpt>
   <trkpt lat="35.2642900" lon="113.9096760">
    <ele>72.7</ele>
    <time>2025-08-10T13:56:16Z</time>
   </trkpt>
   <trkpt lat="35.2642940" lon="113.9096450">
    <ele>72.8</ele>
    <time>2025-08-10T13:56:17Z</time>
   </trkpt>
   <trkpt lat="35.2642940" lon="113.9096100">
    <ele>72.8</ele>
    <time>2025-08-10T13:56:18Z</time>
   </trkpt>
   <trkpt lat="35.2642940" lon="113.9095840">
    <ele>72.8</ele>
    <time>2025-08-10T13:56:19Z</time>
   </trkpt>
   <trkpt lat="35.2642940" lon="113.9095500">
    <ele>72.8</ele>
    <time>2025-08-10T13:56:20Z</time>
   </trkpt>
   <trkpt lat="35.2642940" lon="113.9095300">
    <ele>72.8</ele>
    <time>2025-08-10T13:56:21Z</time>
   </trkpt>
   <trkpt lat="35.2642940" lon="113.9095000">
    <ele>72.8</ele>
    <time>2025-08-10T13:56:22Z</time>
   </trkpt>
   <trkpt lat="35.2642940" lon="113.9094700">
    <ele>72.8</ele>
    <time>2025-08-10T13:56:23Z</time>
   </trkpt>
   <trkpt lat="35.2642970" lon="113.9094400">
    <ele>72.8</ele>
    <time>2025-08-10T13:56:24Z</time>
   </trkpt>
   <trkpt lat="35.2643000" lon="113.9094200">
    <ele>72.8</ele>
    <time>2025-08-10T13:56:25Z</time>
   </trkpt>
   <trkpt lat="35.2643000" lon="113.9093860">
    <ele>72.8</ele>
    <time>2025-08-10T13:56:26Z</time>
   </trkpt>
   <trkpt lat="35.2643000" lon="113.9093550">
    <ele>72.9</ele>
    <time>2025-08-10T13:56:27Z</time>
   </trkpt>
   <trkpt lat="35.2643000" lon="113.9093300">
    <ele>72.9</ele>
    <time>2025-08-10T13:56:28Z</time>
   </trkpt>
   <trkpt lat="35.2643000" lon="113.9093000">
    <ele>72.9</ele>
    <time>2025-08-10T13:56:29Z</time>
   </trkpt>
   <trkpt lat="35.2643000" lon="113.9092600">
    <ele>72.9</ele>
    <time>2025-08-10T13:56:30Z</time>
   </trkpt>
   <trkpt lat="35.2642970" lon="113.9092250">
    <ele>72.9</ele>
    <time>2025-08-10T13:56:31Z</time>
   </trkpt>
   <trkpt lat="35.2642970" lon="113.9092000">
    <ele>72.9</ele>
    <time>2025-08-10T13:56:32Z</time>
   </trkpt>
   <trkpt lat="35.2643050" lon="113.9091700">
    <ele>72.9</ele>
    <time>2025-08-10T13:56:33Z</time>
   </trkpt>
   <trkpt lat="35.2643000" lon="113.9091340">
    <ele>72.9</ele>
    <time>2025-08-10T13:56:34Z</time>
   </trkpt>
   <trkpt lat="35.2642970" lon="113.9091000">
    <ele>72.9</ele>
    <time>2025-08-10T13:56:35Z</time>
   </trkpt>
   <trkpt lat="35.2643000" lon="113.9090700">
    <ele>72.9</ele>
    <time>2025-08-10T13:56:36Z</time>
   </trkpt>
   <trkpt lat="35.2642970" lon="113.9090300">
    <ele>73.0</ele>
    <time>2025-08-10T13:56:37Z</time>
   </trkpt>
   <trkpt lat="35.2643000" lon="113.9089800">
    <ele>73.0</ele>
    <time>2025-08-10T13:56:38Z</time>
   </trkpt>
   <trkpt lat="35.2643000" lon="113.9089300">
    <ele>73.0</ele>
    <time>2025-08-10T13:56:39Z</time>
   </trkpt>
   <trkpt lat="35.2642970" lon="113.9088600">
    <ele>73.0</ele>
    <time>2025-08-10T13:56:40Z</time>
   </trkpt>
   <trkpt lat="35.2642970" lon="113.9088100">
    <ele>73.0</ele>
    <time>2025-08-10T13:56:41Z</time>
   </trkpt>
   <trkpt lat="35.2642940" lon="113.9087700">
    <ele>73.1</ele>
    <time>2025-08-10T13:56:42Z</time>
   </trkpt>
   <trkpt lat="35.2642940" lon="113.9087200">
    <ele>73.1</ele>
    <time>2025-08-10T13:56:43Z</time>
   </trkpt>
   <trkpt lat="35.2642940" lon="113.9086760">
    <ele>73.1</ele>
    <time>2025-08-10T13:56:44Z</time>
   </trkpt>
   <trkpt lat="35.2642940" lon="113.9086300">
    <ele>73.1</ele>
    <time>2025-08-10T13:56:45Z</time>
   </trkpt>
   <trkpt lat="35.2642940" lon="113.9085800">
    <ele>73.1</ele>
    <time>2025-08-10T13:56:46Z</time>
   </trkpt>
   <trkpt lat="35.2642970" lon="113.9085200">
    <ele>73.1</ele>
    <time>2025-08-10T13:56:47Z</time>
   </trkpt>
   <trkpt lat="35.2642970" lon="113.9084700">
    <ele>73.2</ele>
    <time>2025-08-10T13:56:48Z</time>
   </trkpt>
   <trkpt lat="35.2642970" lon="113.9084200">
    <ele>73.2</ele>
    <time>2025-08-10T13:56:49Z</time>
   </trkpt>
   <trkpt lat="35.2642940" lon="113.9083600">
    <ele>73.2</ele>
    <time>2025-08-10T13:56:50Z</time>
   </trkpt>
   <trkpt lat="35.2642970" lon="113.9083100">
    <ele>73.2</ele>
    <time>2025-08-10T13:56:51Z</time>
   </trkpt>
   <trkpt lat="35.2642940" lon="113.9082600">
    <ele>73.2</ele>
    <time>2025-08-10T13:56:52Z</time>
   </trkpt>
   <trkpt lat="35.2642970" lon="113.9082100">
    <ele>73.2</ele>
    <time>2025-08-10T13:56:53Z</time>
   </trkpt>
   <trkpt lat="35.2642970" lon="113.9081600">
    <ele>73.3</ele>
    <time>2025-08-10T13:56:54Z</time>
   </trkpt>
   <trkpt lat="35.2642940" lon="113.9081000">
    <ele>73.3</ele>
    <time>2025-08-10T13:56:55Z</time>
   </trkpt>
   <trkpt lat="35.2642940" lon="113.9080500">
    <ele>73.3</ele>
    <time>2025-08-10T13:56:56Z</time>
   </trkpt>
   <trkpt lat="35.2642940" lon="113.9080000">
    <ele>73.3</ele>
    <time>2025-08-10T13:56:57Z</time>
   </trkpt>
   <trkpt lat="35.2642970" lon="113.9079360">
    <ele>73.3</ele>
    <time>2025-08-10T13:56:58Z</time>
   </trkpt>
   <trkpt lat="35.2643000" lon="113.9078800">
    <ele>73.3</ele>
    <time>2025-08-10T13:56:59Z</time>
   </trkpt>
   <trkpt lat="35.2643000" lon="113.9078200">
    <ele>73.4</ele>
    <time>2025-08-10T13:57:00Z</time>
   </trkpt>
   <trkpt lat="35.2643000" lon="113.9077700">
    <ele>73.4</ele>
    <time>2025-08-10T13:57:01Z</time>
   </trkpt>
   <trkpt lat="35.2643000" lon="113.9077150">
    <ele>73.4</ele>
    <time>2025-08-10T13:57:02Z</time>
   </trkpt>
   <trkpt lat="35.2643000" lon="113.9076600">
    <ele>73.4</ele>
    <time>2025-08-10T13:57:03Z</time>
   </trkpt>
   <trkpt lat="35.2643000" lon="113.9076100">
    <ele>73.4</ele>
    <time>2025-08-10T13:57:04Z</time>
   </trkpt>
   <trkpt lat="35.2643000" lon="113.9075550">
    <ele>73.5</ele>
    <time>2025-08-10T13:57:05Z</time>
   </trkpt>
   <trkpt lat="35.2643000" lon="113.9075100">
    <ele>73.5</ele>
    <time>2025-08-10T13:57:06Z</time>
   </trkpt>
   <trkpt lat="35.2643050" lon="113.9074600">
    <ele>73.5</ele>
    <time>2025-08-10T13:57:07Z</time>
   </trkpt>
   <trkpt lat="35.2643050" lon="113.9074250">
    <ele>73.5</ele>
    <time>2025-08-10T13:57:08Z</time>
   </trkpt>
   <trkpt lat="35.2643050" lon="113.9073900">
    <ele>73.5</ele>
    <time>2025-08-10T13:57:09Z</time>
   </trkpt>
   <trkpt lat="35.2643100" lon="113.9073400">
    <ele>73.5</ele>
    <time>2025-08-10T13:57:10Z</time>
   </trkpt>
   <trkpt lat="35.2643100" lon="113.9073000">
    <ele>73.5</ele>
    <time>2025-08-10T13:57:11Z</time>
   </trkpt>
   <trkpt lat="35.2643100" lon="113.9072650">
    <ele>73.6</ele>
    <time>2025-08-10T13:57:12Z</time>
   </trkpt>
   <trkpt lat="35.2643130" lon="113.9072300">
    <ele>73.6</ele>
    <time>2025-08-10T13:57:13Z</time>
   </trkpt>
   <trkpt lat="35.2643130" lon="113.9071900">
    <ele>73.6</ele>
    <time>2025-08-10T13:57:14Z</time>
   </trkpt>
   <trkpt lat="35.2643130" lon="113.9071500">
    <ele>73.6</ele>
    <time>2025-08-10T13:57:15Z</time>
   </trkpt>
   <trkpt lat="35.2643130" lon="113.9071100">
    <ele>73.6</ele>
    <time>2025-08-10T13:57:16Z</time>
   </trkpt>
   <trkpt lat="35.2643130" lon="113.9070740">
    <ele>73.6</ele>
    <time>2025-08-10T13:57:17Z</time>
   </trkpt>
   <trkpt lat="35.2643170" lon="113.9070360">
    <ele>73.6</ele>
    <time>2025-08-10T13:57:18Z</time>
   </trkpt>
   <trkpt lat="35.2643170" lon="113.9069900">
    <ele>73.6</ele>
    <time>2025-08-10T13:57:19Z</time>
   </trkpt>
   <trkpt lat="35.2643130" lon="113.9069500">
    <ele>73.7</ele>
    <time>2025-08-10T13:57:20Z</time>
   </trkpt>
   <trkpt lat="35.2643170" lon="113.9069060">
    <ele>73.7</ele>
    <time>2025-08-10T13:57:21Z</time>
   </trkpt>
   <trkpt lat="35.2643200" lon="113.9068700">
    <ele>73.7</ele>
    <time>2025-08-10T13:57:22Z</time>
   </trkpt>
   <trkpt lat="35.2643240" lon="113.9068300">
    <ele>73.7</ele>
    <time>2025-08-10T13:57:23Z</time>
   </trkpt>
   <trkpt lat="35.2643280" lon="113.9067900">
    <ele>73.7</ele>
    <time>2025-08-10T13:57:24Z</time>
   </trkpt>
   <trkpt lat="35.2643280" lon="113.9067500">
    <ele>73.7</ele>
    <time>2025-08-10T13:57:25Z</time>
   </trkpt>
   <trkpt lat="35.2643280" lon="113.9067200">
    <ele>73.7</ele>
    <time>2025-08-10T13:57:26Z</time>
   </trkpt>
   <trkpt lat="35.2643300" lon="113.9066850">
    <ele>73.8</ele>
    <time>2025-08-10T13:57:27Z</time>
   </trkpt>
   <trkpt lat="35.2643360" lon="113.9066540">
    <ele>73.8</ele>
    <time>2025-08-10T13:57:28Z</time>
   </trkpt>
   <trkpt lat="35.2643360" lon="113.9066200">
    <ele>73.8</ele>
    <time>2025-08-10T13:57:29Z</time>
   </trkpt>
   <trkpt lat="35.2643360" lon="113.9065800">
    <ele>73.8</ele>
    <time>2025-08-10T13:57:30Z</time>
   </trkpt>
   <trkpt lat="35.2643360" lon="113.9065400">
    <ele>73.8</ele>
    <time>2025-08-10T13:57:31Z</time>
   </trkpt>
   <trkpt lat="35.2643360" lon="113.9065000">
    <ele>73.8</ele>
    <time>2025-08-10T13:57:32Z</time>
   </trkpt>
   <trkpt lat="35.2643360" lon="113.9064600">
    <ele>73.8</ele>
    <time>2025-08-10T13:57:33Z</time>
   </trkpt>
   <trkpt lat="35.2643360" lon="113.9064250">
    <ele>73.8</ele>
    <time>2025-08-10T13:57:34Z</time>
   </trkpt>
   <trkpt lat="35.2643300" lon="113.9063900">
    <ele>73.9</ele>
    <time>2025-08-10T13:57:35Z</time>
   </trkpt>
   <trkpt lat="35.2643280" lon="113.9063500">
    <ele>73.9</ele>
    <time>2025-08-10T13:57:36Z</time>
   </trkpt>
   <trkpt lat="35.2643280" lon="113.9063100">
    <ele>73.9</ele>
    <time>2025-08-10T13:57:37Z</time>
   </trkpt>
   <trkpt lat="35.2643240" lon="113.9062700">
    <ele>73.9</ele>
    <time>2025-08-10T13:57:38Z</time>
   </trkpt>
   <trkpt lat="35.2643240" lon="113.9062400">
    <ele>73.9</ele>
    <time>2025-08-10T13:57:39Z</time>
   </trkpt>
   <trkpt lat="35.2643240" lon="113.9062040">
    <ele>73.9</ele>
    <time>2025-08-10T13:57:40Z</time>
   </trkpt>
   <trkpt lat="35.2643280" lon="113.9061700">
    <ele>73.9</ele>
    <time>2025-08-10T13:57:41Z</time>
   </trkpt>
   <trkpt lat="35.2643300" lon="113.9061400">
    <ele>73.9</ele>
    <time>2025-08-10T13:57:42Z</time>
   </trkpt>
   <trkpt lat="35.2643430" lon="113.9061200">
    <ele>73.9</ele>
    <time>2025-08-10T13:57:43Z</time>
   </trkpt>
   <trkpt lat="35.2643660" lon="113.9061000">
    <ele>74.0</ele>
    <time>2025-08-10T13:57:44Z</time>
   </trkpt>
   <trkpt lat="35.2643930" lon="113.9060700">
    <ele>74.0</ele>
    <time>2025-08-10T13:57:45Z</time>
   </trkpt>
   <trkpt lat="35.2644200" lon="113.9060440">
    <ele>74.0</ele>
    <time>2025-08-10T13:57:46Z</time>
   </trkpt>
   <trkpt lat="35.2644500" lon="113.9060200">
    <ele>73.9</ele>
    <time>2025-08-10T13:57:47Z</time>
   </trkpt>
   <trkpt lat="35.2644730" lon="113.9060060">
    <ele>73.9</ele>
    <time>2025-08-10T13:57:48Z</time>
   </trkpt>
   <trkpt lat="35.2645000" lon="113.9060000">
    <ele>73.9</ele>
    <time>2025-08-10T13:57:49Z</time>
   </trkpt>
   <trkpt lat="35.2645260" lon="113.9060000">
    <ele>73.8</ele>
    <time>2025-08-10T13:57:50Z</time>
   </trkpt>
   <trkpt lat="35.2645530" lon="113.9060000">
    <ele>73.8</ele>
    <time>2025-08-10T13:57:51Z</time>
   </trkpt>
   <trkpt lat="35.2645840" lon="113.9060000">
    <ele>73.8</ele>
    <time>2025-08-10T13:57:52Z</time>
   </trkpt>
   <trkpt lat="35.2646140" lon="113.9060000">
    <ele>73.7</ele>
    <time>2025-08-10T13:57:53Z</time>
   </trkpt>
   <trkpt lat="35.2646450" lon="113.9060060">
    <ele>73.7</ele>
    <time>2025-08-10T13:57:54Z</time>
   </trkpt>
   <trkpt lat="35.2646800" lon="113.9060060">
    <ele>73.6</ele>
    <time>2025-08-10T13:57:55Z</time>
   </trkpt>
   <trkpt lat="35.2647130" lon="113.9060100">
    <ele>73.6</ele>
    <time>2025-08-10T13:57:56Z</time>
   </trkpt>
   <trkpt lat="35.2647500" lon="113.9060060">
    <ele>73.6</ele>
    <time>2025-08-10T13:57:57Z</time>
   </trkpt>
   <trkpt lat="35.2647900" lon="113.9060060">
    <ele>73.5</ele>
    <time>2025-08-10T13:57:58Z</time>
   </trkpt>
   <trkpt lat="35.2648240" lon="113.9060060">
    <ele>73.5</ele>
    <time>2025-08-10T13:57:59Z</time>
   </trkpt>
   <trkpt lat="35.2648620" lon="113.9060060">
    <ele>73.4</ele>
    <time>2025-08-10T13:58:00Z</time>
   </trkpt>
   <trkpt lat="35.2649040" lon="113.9060000">
    <ele>73.4</ele>
    <time>2025-08-10T13:58:01Z</time>
   </trkpt>
   <trkpt lat="35.2649400" lon="113.9060060">
    <ele>73.4</ele>
    <time>2025-08-10T13:58:02Z</time>
   </trkpt>
   <trkpt lat="35.2649770" lon="113.9060060">
    <ele>73.3</ele>
    <time>2025-08-10T13:58:03Z</time>
   </trkpt>
   <trkpt lat="35.2650150" lon="113.9060060">
    <ele>73.3</ele>
    <time>2025-08-10T13:58:04Z</time>
   </trkpt>
   <trkpt lat="35.2650570" lon="113.9060060">
    <ele>73.2</ele>
    <time>2025-08-10T13:58:05Z</time>
   </trkpt>
   <trkpt lat="35.2650950" lon="113.9060060">
    <ele>73.1</ele>
    <time>2025-08-10T13:58:06Z</time>
   </trkpt>
   <trkpt lat="35.2651370" lon="113.9060060">
    <ele>73.0</ele>
    <time>2025-08-10T13:58:07Z</time>
   </trkpt>
   <trkpt lat="35.2651750" lon="113.9060060">
    <ele>73.0</ele>
    <time>2025-08-10T13:58:08Z</time>
   </trkpt>
   <trkpt lat="35.2652130" lon="113.9060060">
    <ele>72.9</ele>
    <time>2025-08-10T13:58:09Z</time>
   </trkpt>
   <trkpt lat="35.2652470" lon="113.9060100">
    <ele>72.8</ele>
    <time>2025-08-10T13:58:10Z</time>
   </trkpt>
   <trkpt lat="35.2652850" lon="113.9060100">
    <ele>72.7</ele>
    <time>2025-08-10T13:58:11Z</time>
   </trkpt>
   <trkpt lat="35.2653200" lon="113.9060060">
    <ele>72.7</ele>
    <time>2025-08-10T13:58:12Z</time>
   </trkpt>
   <trkpt lat="35.2653470" lon="113.9060100">
    <ele>72.6</ele>
    <time>2025-08-10T13:58:13Z</time>
   </trkpt>
   <trkpt lat="35.2653770" lon="113.9060100">
    <ele>72.6</ele>
    <time>2025-08-10T13:58:14Z</time>
   </trkpt>
   <trkpt lat="35.2654230" lon="113.9060100">
    <ele>72.5</ele>
    <time>2025-08-10T13:58:15Z</time>
   </trkpt>
   <trkpt lat="35.2654760" lon="113.9060100">
    <ele>72.4</ele>
    <time>2025-08-10T13:58:16Z</time>
   </trkpt>
   <trkpt lat="35.2655260" lon="113.9060060">
    <ele>72.3</ele>
    <time>2025-08-10T13:58:17Z</time>
   </trkpt>
   <trkpt lat="35.2655680" lon="113.9060060">
    <ele>72.3</ele>
    <time>2025-08-10T13:58:18Z</time>
   </trkpt>
   <trkpt lat="35.2656100" lon="113.9060060">
    <ele>72.2</ele>
    <time>2025-08-10T13:58:19Z</time>
   </trkpt>
   <trkpt lat="35.2656700" lon="113.9060200">
    <ele>72.2</ele>
    <time>2025-08-10T13:58:20Z</time>
   </trkpt>
   <trkpt lat="35.2657100" lon="113.9060100">
    <ele>72.1</ele>
    <time>2025-08-10T13:58:21Z</time>
   </trkpt>
   <trkpt lat="35.2657430" lon="113.9060200">
    <ele>72.1</ele>
    <time>2025-08-10T13:58:22Z</time>
   </trkpt>
   <trkpt lat="35.2657780" lon="113.9060100">
    <ele>72.1</ele>
    <time>2025-08-10T13:58:23Z</time>
   </trkpt>
   <trkpt lat="35.2658160" lon="113.9060200">
    <ele>72.1</ele>
    <time>2025-08-10T13:58:24Z</time>
   </trkpt>
   <trkpt lat="35.2658600" lon="113.9060200">
    <ele>72.0</ele>
    <time>2025-08-10T13:58:25Z</time>
   </trkpt>
   <trkpt lat="35.2659000" lon="113.9060100">
    <ele>72.0</ele>
    <time>2025-08-10T13:58:26Z</time>
   </trkpt>
   <trkpt lat="35.2659340" lon="113.9060100">
    <ele>72.0</ele>
    <time>2025-08-10T13:58:27Z</time>
   </trkpt>
   <trkpt lat="35.2659700" lon="113.9060100">
    <ele>72.0</ele>
    <time>2025-08-10T13:58:28Z</time>
   </trkpt>
   <trkpt lat="35.2660100" lon="113.9060100">
    <ele>72.0</ele>
    <time>2025-08-10T13:58:29Z</time>
   </trkpt>
   <trkpt lat="35.2660450" lon="113.9060100">
    <ele>72.0</ele>
    <time>2025-08-10T13:58:30Z</time>
   </trkpt>
   <trkpt lat="35.2660830" lon="113.9060100">
    <ele>72.0</ele>
    <time>2025-08-10T13:58:31Z</time>
   </trkpt>
   <trkpt lat="35.2661170" lon="113.9060100">
    <ele>72.0</ele>
    <time>2025-08-10T13:58:32Z</time>
   </trkpt>
   <trkpt lat="35.2661500" lon="113.9060100">
    <ele>71.9</ele>
    <time>2025-08-10T13:58:33Z</time>
   </trkpt>
   <trkpt lat="35.2661860" lon="113.9060100">
    <ele>71.9</ele>
    <time>2025-08-10T13:58:34Z</time>
   </trkpt>
   <trkpt lat="35.2662160" lon="113.9060100">
    <ele>71.9</ele>
    <time>2025-08-10T13:58:35Z</time>
   </trkpt>
   <trkpt lat="35.2662540" lon="113.9060100">
    <ele>71.9</ele>
    <time>2025-08-10T13:58:36Z</time>
   </trkpt>
   <trkpt lat="35.2662930" lon="113.9060060">
    <ele>71.8</ele>
    <time>2025-08-10T13:58:37Z</time>
   </trkpt>
   <trkpt lat="35.2663270" lon="113.9060060">
    <ele>71.8</ele>
    <time>2025-08-10T13:58:38Z</time>
   </trkpt>
   <trkpt lat="35.2663650" lon="113.9060000">
    <ele>71.8</ele>
    <time>2025-08-10T13:58:39Z</time>
   </trkpt>
   <trkpt lat="35.2664030" lon="113.9060000">
    <ele>71.7</ele>
    <time>2025-08-10T13:58:40Z</time>
   </trkpt>
   <trkpt lat="35.2664380" lon="113.9059900">
    <ele>71.7</ele>
    <time>2025-08-10T13:58:41Z</time>
   </trkpt>
   <trkpt lat="35.2664700" lon="113.9059900">
    <ele>71.7</ele>
    <time>2025-08-10T13:58:42Z</time>
   </trkpt>
   <trkpt lat="35.2665100" lon="113.9059900">
    <ele>71.6</ele>
    <time>2025-08-10T13:58:43Z</time>
   </trkpt>
   <trkpt lat="35.2665440" lon="113.9059900">
    <ele>71.6</ele>
    <time>2025-08-10T13:58:44Z</time>
   </trkpt>
   <trkpt lat="35.2665860" lon="113.9060000">
    <ele>71.5</ele>
    <time>2025-08-10T13:58:45Z</time>
   </trkpt>
   <trkpt lat="35.2666240" lon="113.9060000">
    <ele>71.5</ele>
    <time>2025-08-10T13:58:46Z</time>
   </trkpt>
   <trkpt lat="35.2666630" lon="113.9060000">
    <ele>71.4</ele>
    <time>2025-08-10T13:58:47Z</time>
   </trkpt>
   <trkpt lat="35.2667000" lon="113.9060060">
    <ele>71.4</ele>
    <time>2025-08-10T13:58:48Z</time>
   </trkpt>
   <trkpt lat="35.2667400" lon="113.9060100">
    <ele>71.3</ele>
    <time>2025-08-10T13:58:49Z</time>
   </trkpt>
   <trkpt lat="35.2667770" lon="113.9060200">
    <ele>71.3</ele>
    <time>2025-08-10T13:58:50Z</time>
   </trkpt>
   <trkpt lat="35.2668150" lon="113.9060300">
    <ele>71.3</ele>
    <time>2025-08-10T13:58:51Z</time>
   </trkpt>
   <trkpt lat="35.2668570" lon="113.9060400">
    <ele>71.2</ele>
    <time>2025-08-10T13:58:52Z</time>
   </trkpt>
   <trkpt lat="35.2669000" lon="113.9060400">
    <ele>71.2</ele>
    <time>2025-08-10T13:58:53Z</time>
   </trkpt>
   <trkpt lat="35.2669400" lon="113.9060300">
    <ele>71.1</ele>
    <time>2025-08-10T13:58:54Z</time>
   </trkpt>
   <trkpt lat="35.2669870" lon="113.9060300">
    <ele>71.1</ele>
    <time>2025-08-10T13:58:55Z</time>
   </trkpt>
   <trkpt lat="35.2670360" lon="113.9060300">
    <ele>71.0</ele>
    <time>2025-08-10T13:58:56Z</time>
   </trkpt>
   <trkpt lat="35.2670860" lon="113.9060300">
    <ele>71.0</ele>
    <time>2025-08-10T13:58:57Z</time>
   </trkpt>
   <trkpt lat="35.2671430" lon="113.9060300">
    <ele>70.9</ele>
    <time>2025-08-10T13:58:58Z</time>
   </trkpt>
   <trkpt lat="35.2671970" lon="113.9060300">
    <ele>70.9</ele>
    <time>2025-08-10T13:58:59Z</time>
   </trkpt>
   <trkpt lat="35.2672540" lon="113.9060300">
    <ele>70.8</ele>
    <time>2025-08-10T13:59:00Z</time>
   </trkpt>
   <trkpt lat="35.2673100" lon="113.9060200">
    <ele>70.7</ele>
    <time>2025-08-10T13:59:01Z</time>
   </trkpt>
   <trkpt lat="35.2673700" lon="113.9060200">
    <ele>70.7</ele>
    <time>2025-08-10T13:59:02Z</time>
   </trkpt>
   <trkpt lat="35.2674200" lon="113.9060200">
    <ele>70.6</ele>
    <time>2025-08-10T13:59:03Z</time>
   </trkpt>
   <trkpt lat="35.2674750" lon="113.9060100">
    <ele>70.5</ele>
    <time>2025-08-10T13:59:04Z</time>
   </trkpt>
   <trkpt lat="35.2675320" lon="113.9060100">
    <ele>70.4</ele>
    <time>2025-08-10T13:59:05Z</time>
   </trkpt>
   <trkpt lat="35.2675900" lon="113.9060100">
    <ele>70.3</ele>
    <time>2025-08-10T13:59:06Z</time>
   </trkpt>
   <trkpt lat="35.2676470" lon="113.9060100">
    <ele>70.3</ele>
    <time>2025-08-10T13:59:07Z</time>
   </trkpt>
   <trkpt lat="35.2677000" lon="113.9060100">
    <ele>70.3</ele>
    <time>2025-08-10T13:59:08Z</time>
   </trkpt>
   <trkpt lat="35.2677570" lon="113.9060100">
    <ele>70.2</ele>
    <time>2025-08-10T13:59:09Z</time>
   </trkpt>
   <trkpt lat="35.2678200" lon="113.9060300">
    <ele>70.2</ele>
    <time>2025-08-10T13:59:10Z</time>
   </trkpt>
   <trkpt lat="35.2678700" lon="113.9060200">
    <ele>70.2</ele>
    <time>2025-08-10T13:59:11Z</time>
   </trkpt>
   <trkpt lat="35.2679330" lon="113.9060200">
    <ele>70.2</ele>
    <time>2025-08-10T13:59:12Z</time>
   </trkpt>
   <trkpt lat="35.2679900" lon="113.9060200">
    <ele>70.2</ele>
    <time>2025-08-10T13:59:13Z</time>
   </trkpt>
   <trkpt lat="35.2680470" lon="113.9060200">
    <ele>70.2</ele>
    <time>2025-08-10T13:59:14Z</time>
   </trkpt>
   <trkpt lat="35.2681100" lon="113.9060100">
    <ele>70.3</ele>
    <time>2025-08-10T13:59:15Z</time>
   </trkpt>
   <trkpt lat="35.2681600" lon="113.9060200">
    <ele>70.3</ele>
    <time>2025-08-10T13:59:16Z</time>
   </trkpt>
   <trkpt lat="35.2682150" lon="113.9060200">
    <ele>70.3</ele>
    <time>2025-08-10T13:59:17Z</time>
   </trkpt>
   <trkpt lat="35.2682700" lon="113.9060200">
    <ele>70.3</ele>
    <time>2025-08-10T13:59:18Z</time>
   </trkpt>
   <trkpt lat="35.2683220" lon="113.9060200">
    <ele>70.3</ele>
    <time>2025-08-10T13:59:19Z</time>
   </trkpt>
   <trkpt lat="35.2683700" lon="113.9060200">
    <ele>70.3</ele>
    <time>2025-08-10T13:59:20Z</time>
   </trkpt>
   <trkpt lat="35.2684250" lon="113.9060200">
    <ele>70.3</ele>
    <time>2025-08-10T13:59:21Z</time>
   </trkpt>
   <trkpt lat="35.2684800" lon="113.9060100">
    <ele>70.3</ele>
    <time>2025-08-10T13:59:22Z</time>
   </trkpt>
   <trkpt lat="35.2685300" lon="113.9060100">
    <ele>70.3</ele>
    <time>2025-08-10T13:59:23Z</time>
   </trkpt>
   <trkpt lat="35.2685800" lon="113.9060060">
    <ele>70.3</ele>
    <time>2025-08-10T13:59:24Z</time>
   </trkpt>
   <trkpt lat="35.2686200" lon="113.9060060">
    <ele>70.3</ele>
    <time>2025-08-10T13:59:25Z</time>
   </trkpt>
   <trkpt lat="35.2686540" lon="113.9060060">
    <ele>70.3</ele>
    <time>2025-08-10T13:59:26Z</time>
   </trkpt>
   <trkpt lat="35.2686840" lon="113.9060060">
    <ele>70.3</ele>
    <time>2025-08-10T13:59:27Z</time>
   </trkpt>
   <trkpt lat="35.2687150" lon="113.9060000">
    <ele>70.2</ele>
    <time>2025-08-10T13:59:28Z</time>
   </trkpt>
   <trkpt lat="35.2687380" lon="113.9060100">
    <ele>70.2</ele>
    <time>2025-08-10T13:59:29Z</time>
   </trkpt>
   <trkpt lat="35.2687530" lon="113.9060300">
    <ele>70.1</ele>
    <time>2025-08-10T13:59:30Z</time>
   </trkpt>
   <trkpt lat="35.2687700" lon="113.9060600">
    <ele>70.0</ele>
    <time>2025-08-10T13:59:31Z</time>
   </trkpt>
   <trkpt lat="35.2687760" lon="113.9060900">
    <ele>69.9</ele>
    <time>2025-08-10T13:59:32Z</time>
   </trkpt>
   <trkpt lat="35.2687840" lon="113.9061360">
    <ele>69.9</ele>
    <time>2025-08-10T13:59:33Z</time>
   </trkpt>
   <trkpt lat="35.2687950" lon="113.9061800">
    <ele>69.9</ele>
    <time>2025-08-10T13:59:34Z</time>
   </trkpt>
   <trkpt lat="35.2688060" lon="113.9062300">
    <ele>69.8</ele>
    <time>2025-08-10T13:59:35Z</time>
   </trkpt>
   <trkpt lat="35.2688140" lon="113.9062700">
    <ele>69.8</ele>
    <time>2025-08-10T13:59:36Z</time>
   </trkpt>
   <trkpt lat="35.2688180" lon="113.9063300">
    <ele>69.8</ele>
    <time>2025-08-10T13:59:37Z</time>
   </trkpt>
   <trkpt lat="35.2688140" lon="113.9063900">
    <ele>69.9</ele>
    <time>2025-08-10T13:59:38Z</time>
   </trkpt>
   <trkpt lat="35.2688180" lon="113.9064400">
    <ele>69.9</ele>
    <time>2025-08-10T13:59:39Z</time>
   </trkpt>
   <trkpt lat="35.2688140" lon="113.9065000">
    <ele>70.0</ele>
    <time>2025-08-10T13:59:40Z</time>
   </trkpt>
   <trkpt lat="35.2688140" lon="113.9065550">
    <ele>70.1</ele>
    <time>2025-08-10T13:59:41Z</time>
   </trkpt>
   <trkpt lat="35.2688180" lon="113.9066100">
    <ele>70.1</ele>
    <time>2025-08-10T13:59:42Z</time>
   </trkpt>
   <trkpt lat="35.2688200" lon="113.9066700">
    <ele>70.1</ele>
    <time>2025-08-10T13:59:43Z</time>
   </trkpt>
   <trkpt lat="35.2688180" lon="113.9067150">
    <ele>70.2</ele>
    <time>2025-08-10T13:59:44Z</time>
   </trkpt>
   <trkpt lat="35.2688180" lon="113.9067800">
    <ele>70.2</ele>
    <time>2025-08-10T13:59:45Z</time>
   </trkpt>
   <trkpt lat="35.2688180" lon="113.9068300">
    <ele>70.3</ele>
    <time>2025-08-10T13:59:46Z</time>
   </trkpt>
   <trkpt lat="35.2688180" lon="113.9068900">
    <ele>70.4</ele>
    <time>2025-08-10T13:59:47Z</time>
   </trkpt>
   <trkpt lat="35.2688180" lon="113.9069440">
    <ele>70.5</ele>
    <time>2025-08-10T13:59:48Z</time>
   </trkpt>
   <trkpt lat="35.2688200" lon="113.9070050">
    <ele>70.6</ele>
    <time>2025-08-10T13:59:49Z</time>
   </trkpt>
   <trkpt lat="35.2688200" lon="113.9070600">
    <ele>70.7</ele>
    <time>2025-08-10T13:59:50Z</time>
   </trkpt>
   <trkpt lat="35.2688200" lon="113.9071200">
    <ele>70.8</ele>
    <time>2025-08-10T13:59:51Z</time>
   </trkpt>
   <trkpt lat="35.2688200" lon="113.9071800">
    <ele>70.9</ele>
    <time>2025-08-10T13:59:52Z</time>
   </trkpt>
   <trkpt lat="35.2688300" lon="113.9072340">
    <ele>71.0</ele>
    <time>2025-08-10T13:59:53Z</time>
   </trkpt>
   <trkpt lat="35.2688300" lon="113.9072950">
    <ele>71.1</ele>
    <time>2025-08-10T13:59:54Z</time>
   </trkpt>
   <trkpt lat="35.2688300" lon="113.9073500">
    <ele>71.1</ele>
    <time>2025-08-10T13:59:55Z</time>
   </trkpt>
   <trkpt lat="35.2688330" lon="113.9074000">
    <ele>71.2</ele>
    <time>2025-08-10T13:59:56Z</time>
   </trkpt>
   <trkpt lat="35.2688330" lon="113.9074550">
    <ele>71.2</ele>
    <time>2025-08-10T13:59:57Z</time>
   </trkpt>
   <trkpt lat="35.2688330" lon="113.9075100">
    <ele>71.3</ele>
    <time>2025-08-10T13:59:58Z</time>
   </trkpt>
   <trkpt lat="35.2688330" lon="113.9075700">
    <ele>71.3</ele>
    <time>2025-08-10T13:59:59Z</time>
   </trkpt>
   <trkpt lat="35.2688330" lon="113.9076200">
    <ele>71.4</ele>
    <time>2025-08-10T14:00:00Z</time>
   </trkpt>
   <trkpt lat="35.2688300" lon="113.9076700">
    <ele>71.4</ele>
    <time>2025-08-10T14:00:01Z</time>
   </trkpt>
   <trkpt lat="35.2688260" lon="113.9077200">
    <ele>71.4</ele>
    <time>2025-08-10T14:00:02Z</time>
   </trkpt>
   <trkpt lat="35.2688200" lon="113.9077700">
    <ele>71.4</ele>
    <time>2025-08-10T14:00:03Z</time>
   </trkpt>
   <trkpt lat="35.2688180" lon="113.9078100">
    <ele>71.4</ele>
    <time>2025-08-10T14:00:04Z</time>
   </trkpt>
   <trkpt lat="35.2688140" lon="113.9078450">
    <ele>71.4</ele>
    <time>2025-08-10T14:00:05Z</time>
   </trkpt>
   <trkpt lat="35.2688030" lon="113.9078750">
    <ele>71.4</ele>
    <time>2025-08-10T14:00:06Z</time>
   </trkpt>
   <trkpt lat="35.2687840" lon="113.9079000">
    <ele>71.4</ele>
    <time>2025-08-10T14:00:07Z</time>
   </trkpt>
   <trkpt lat="35.2687640" lon="113.9079060">
    <ele>71.2</ele>
    <time>2025-08-10T14:00:08Z</time>
   </trkpt>
   <trkpt lat="35.2687450" lon="113.9079000">
    <ele>70.8</ele>
    <time>2025-08-10T14:00:09Z</time>
   </trkpt>
   <trkpt lat="35.2687230" lon="113.9078900">
    <ele>70.8</ele>
    <time>2025-08-10T14:00:10Z</time>
   </trkpt>
   <trkpt lat="35.2686960" lon="113.9078800">
    <ele>70.5</ele>
    <time>2025-08-10T14:00:11Z</time>
   </trkpt>
   <trkpt lat="35.2686700" lon="113.9078800">
    <ele>70.3</ele>
    <time>2025-08-10T14:00:12Z</time>
   </trkpt>
   <trkpt lat="35.2686400" lon="113.9078750">
    <ele>70.2</ele>
    <time>2025-08-10T14:00:13Z</time>
   </trkpt>
   <trkpt lat="35.2686100" lon="113.9078700">
    <ele>70.2</ele>
    <time>2025-08-10T14:00:14Z</time>
   </trkpt>
   <trkpt lat="35.2685800" lon="113.9078600">
    <ele>70.2</ele>
    <time>2025-08-10T14:00:15Z</time>
   </trkpt>
   <trkpt lat="35.2685470" lon="113.9078500">
    <ele>70.3</ele>
    <time>2025-08-10T14:00:16Z</time>
   </trkpt>
   <trkpt lat="35.2685170" lon="113.9078450">
    <ele>70.5</ele>
    <time>2025-08-10T14:00:17Z</time>
   </trkpt>
   <trkpt lat="35.2684860" lon="113.9078400">
    <ele>70.7</ele>
    <time>2025-08-10T14:00:18Z</time>
   </trkpt>
   <trkpt lat="35.2684500" lon="113.9078300">
    <ele>71.1</ele>
    <time>2025-08-10T14:00:19Z</time>
   </trkpt>
   <trkpt lat="35.2684200" lon="113.9078300">
    <ele>71.5</ele>
    <time>2025-08-10T14:00:20Z</time>
   </trkpt>
   <trkpt lat="35.2683900" lon="113.9078400">
    <ele>71.6</ele>
    <time>2025-08-10T14:00:21Z</time>
   </trkpt>
   <trkpt lat="35.2683600" lon="113.9078400">
    <ele>71.8</ele>
    <time>2025-08-10T14:00:22Z</time>
   </trkpt>
   <trkpt lat="35.2683300" lon="113.9078450">
    <ele>71.8</ele>
    <time>2025-08-10T14:00:23Z</time>
   </trkpt>
   <trkpt lat="35.2682950" lon="113.9078450">
    <ele>72.1</ele>
    <time>2025-08-10T14:00:24Z</time>
   </trkpt>
   <trkpt lat="35.2682600" lon="113.9078450">
    <ele>72.3</ele>
    <time>2025-08-10T14:00:25Z</time>
   </trkpt>
   <trkpt lat="35.2682270" lon="113.9078400">
    <ele>72.6</ele>
    <time>2025-08-10T14:00:26Z</time>
   </trkpt>
   <trkpt lat="35.2681960" lon="113.9078400">
    <ele>72.9</ele>
    <time>2025-08-10T14:00:27Z</time>
   </trkpt>
   <trkpt lat="35.2681580" lon="113.9078400">
    <ele>73.1</ele>
    <time>2025-08-10T14:00:28Z</time>
   </trkpt>
   <trkpt lat="35.2681240" lon="113.9078400">
    <ele>73.3</ele>
    <time>2025-08-10T14:00:29Z</time>
   </trkpt>
   <trkpt lat="35.2680930" lon="113.9078400">
    <ele>73.4</ele>
    <time>2025-08-10T14:00:30Z</time>
   </trkpt>
   <trkpt lat="35.2680630" lon="113.9078400">
    <ele>73.5</ele>
    <time>2025-08-10T14:00:31Z</time>
   </trkpt>
   <trkpt lat="35.2680360" lon="113.9078400">
    <ele>73.4</ele>
    <time>2025-08-10T14:00:32Z</time>
   </trkpt>
   <trkpt lat="35.2680130" lon="113.9078300">
    <ele>73.4</ele>
    <time>2025-08-10T14:00:33Z</time>
   </trkpt>
   <trkpt lat="35.2679940" lon="113.9078300">
    <ele>73.4</ele>
    <time>2025-08-10T14:00:34Z</time>
   </trkpt>
   <trkpt lat="35.2679750" lon="113.9078200">
    <ele>73.4</ele>
    <time>2025-08-10T14:00:35Z</time>
   </trkpt>
   <trkpt lat="35.2679560" lon="113.9078200">
    <ele>73.4</ele>
    <time>2025-08-10T14:00:36Z</time>
   </trkpt>
   <trkpt lat="35.2679400" lon="113.9078200">
    <ele>73.4</ele>
    <time>2025-08-10T14:00:37Z</time>
   </trkpt>
   <trkpt lat="35.2679200" lon="113.9078200">
    <ele>73.4</ele>
    <time>2025-08-10T14:00:38Z</time>
   </trkpt>
   <trkpt lat="35.2679060" lon="113.9078300">
    <ele>73.5</ele>
    <time>2025-08-10T14:00:39Z</time>
   </trkpt>
   <trkpt lat="35.2678900" lon="113.9078300">
    <ele>73.5</ele>
    <time>2025-08-10T14:00:40Z</time>
   </trkpt>
   <trkpt lat="35.2678800" lon="113.9078450">
    <ele>73.4</ele>
    <time>2025-08-10T14:00:41Z</time>
   </trkpt>
   <trkpt lat="35.2678680" lon="113.9078500">
    <ele>73.4</ele>
    <time>2025-08-10T14:00:42Z</time>
   </trkpt>
   <trkpt lat="35.2678570" lon="113.9078700">
    <ele>73.4</ele>
    <time>2025-08-10T14:00:43Z</time>
   </trkpt>
   <trkpt lat="35.2678450" lon="113.9078780">
    <ele>73.4</ele>
    <time>2025-08-10T14:00:44Z</time>
   </trkpt>
   <trkpt lat="35.2678400" lon="113.9078810">
    <ele>73.4</ele>
    <time>2025-08-10T14:00:45Z</time>
   </trkpt>
   <trkpt lat="35.2678350" lon="113.9078840">
    <ele>73.4</ele>
    <time>2025-08-10T14:00:46Z</time>
   </trkpt>
   <trkpt lat="35.2678300" lon="113.9078880">
    <ele>73.4</ele>
    <time>2025-08-10T14:00:47Z</time>
   </trkpt>
   <trkpt lat="35.2678250" lon="113.9078910">
    <ele>73.4</ele>
    <time>2025-08-10T14:00:48Z</time>
   </trkpt>
   <trkpt lat="35.2678200" lon="113.9078940">
    <ele>73.4</ele>
    <time>2025-08-10T14:00:49Z</time>
   </trkpt>
   <trkpt lat="35.2678150" lon="113.9078970">
    <ele>73.4</ele>
    <time>2025-08-10T14:00:50Z</time>
   </trkpt>
   <trkpt lat="35.2678100" lon="113.9079000">
    <ele>73.4</ele>
    <time>2025-08-10T14:00:50Z</time>
   </trkpt>
   <trkpt lat="35.2678100" lon="113.9079000">
    <ele>73.4</ele>
    <time>2025-08-10T14:00:50Z</time>
   </trkpt>
   <trkpt lat="35.2675930" lon="113.9078600">
    <ele>74.1</ele>
    <time>2025-08-10T14:00:59Z</time>
   </trkpt>
   <trkpt lat="35.2675630" lon="113.9078700">
    <ele>74.3</ele>
    <time>2025-08-10T14:01:00Z</time>
   </trkpt>
   <trkpt lat="35.2675320" lon="113.9078750">
    <ele>74.5</ele>
    <time>2025-08-10T14:01:01Z</time>
   </trkpt>
   <trkpt lat="35.2675060" lon="113.9078800">
    <ele>74.5</ele>
    <time>2025-08-10T14:01:02Z</time>
   </trkpt>
   <trkpt lat="35.2674800" lon="113.9078800">
    <ele>74.4</ele>
    <time>2025-08-10T14:01:03Z</time>
   </trkpt>
   <trkpt lat="35.2674450" lon="113.9078900">
    <ele>74.2</ele>
    <time>2025-08-10T14:01:04Z</time>
   </trkpt>
   <trkpt lat="35.2674200" lon="113.9079000">
    <ele>74.2</ele>
    <time>2025-08-10T14:01:05Z</time>
   </trkpt>
   <trkpt lat="35.2673900" lon="113.9079060">
    <ele>74.3</ele>
    <time>2025-08-10T14:01:06Z</time>
   </trkpt>
   <trkpt lat="35.2673600" lon="113.9079100">
    <ele>74.6</ele>
    <time>2025-08-10T14:01:07Z</time>
   </trkpt>
   <trkpt lat="35.2673300" lon="113.9079300">
    <ele>74.7</ele>
    <time>2025-08-10T14:01:08Z</time>
   </trkpt>
   <trkpt lat="35.2673000" lon="113.9079400">
    <ele>75.0</ele>
    <time>2025-08-10T14:01:09Z</time>
   </trkpt>
   <trkpt lat="35.2672730" lon="113.9079500">
    <ele>75.2</ele>
    <time>2025-08-10T14:01:10Z</time>
   </trkpt>
   <trkpt lat="35.2672420" lon="113.9079700">
    <ele>74.9</ele>
    <time>2025-08-10T14:01:11Z</time>
   </trkpt>
   <trkpt lat="35.2672120" lon="113.9079740">
    <ele>75.0</ele>
    <time>2025-08-10T14:01:12Z</time>
   </trkpt>
   <trkpt lat="35.2671850" lon="113.9079800">
    <ele>75.0</ele>
    <time>2025-08-10T14:01:13Z</time>
   </trkpt>
   <trkpt lat="35.2671600" lon="113.9079900">
    <ele>74.9</ele>
    <time>2025-08-10T14:01:14Z</time>
   </trkpt>
   <trkpt lat="35.2671300" lon="113.9079900">
    <ele>74.8</ele>
    <time>2025-08-10T14:01:15Z</time>
   </trkpt>
   <trkpt lat="35.2671100" lon="113.9079740">
    <ele>74.8</ele>
    <time>2025-08-10T14:01:16Z</time>
   </trkpt>
   <trkpt lat="35.2670820" lon="113.9079700">
    <ele>74.6</ele>
    <time>2025-08-10T14:01:17Z</time>
   </trkpt>
   <trkpt lat="35.2670560" lon="113.9079500">
    <ele>74.8</ele>
    <time>2025-08-10T14:01:18Z</time>
   </trkpt>
   <trkpt lat="35.2670300" lon="113.9079400">
    <ele>74.7</ele>
    <time>2025-08-10T14:01:19Z</time>
   </trkpt>
   <trkpt lat="35.2670020" lon="113.9079400">
    <ele>74.7</ele>
    <time>2025-08-10T14:01:20Z</time>
   </trkpt>
   <trkpt lat="35.2669750" lon="113.9079400">
    <ele>74.6</ele>
    <time>2025-08-10T14:01:21Z</time>
   </trkpt>
   <trkpt lat="35.2669500" lon="113.9079400">
    <ele>74.6</ele>
    <time>2025-08-10T14:01:22Z</time>
   </trkpt>
   <trkpt lat="35.2669200" lon="113.9079360">
    <ele>74.6</ele>
    <time>2025-08-10T14:01:23Z</time>
   </trkpt>
   <trkpt lat="35.2668900" lon="113.9079300">
    <ele>74.6</ele>
    <time>2025-08-10T14:01:24Z</time>
   </trkpt>
   <trkpt lat="35.2668600" lon="113.9079400">
    <ele>74.6</ele>
    <time>2025-08-10T14:01:25Z</time>
   </trkpt>
   <trkpt lat="35.2668340" lon="113.9079700">
    <ele>74.1</ele>
    <time>2025-08-10T14:01:26Z</time>
   </trkpt>
   <trkpt lat="35.2668150" lon="113.9080000">
    <ele>74.0</ele>
    <time>2025-08-10T14:01:27Z</time>
   </trkpt>
   <trkpt lat="35.2668080" lon="113.9080350">
    <ele>73.6</ele>
    <time>2025-08-10T14:01:28Z</time>
   </trkpt>
   <trkpt lat="35.2668000" lon="113.9080660">
    <ele>73.1</ele>
    <time>2025-08-10T14:01:29Z</time>
   </trkpt>
   <trkpt lat="35.2667850" lon="113.9081040">
    <ele>72.7</ele>
    <time>2025-08-10T14:01:30Z</time>
   </trkpt>
   <trkpt lat="35.2667770" lon="113.9081340">
    <ele>72.7</ele>
    <time>2025-08-10T14:01:31Z</time>
   </trkpt>
   <trkpt lat="35.2667700" lon="113.9081650">
    <ele>72.2</ele>
    <time>2025-08-10T14:01:32Z</time>
   </trkpt>
   <trkpt lat="35.2667660" lon="113.9082000">
    <ele>71.6</ele>
    <time>2025-08-10T14:01:33Z</time>
   </trkpt>
   <trkpt lat="35.2667600" lon="113.9082400">
    <ele>71.0</ele>
    <time>2025-08-10T14:01:34Z</time>
   </trkpt>
   <trkpt lat="35.2667580" lon="113.9082700">
    <ele>70.4</ele>
    <time>2025-08-10T14:01:35Z</time>
   </trkpt>
   <trkpt lat="35.2667580" lon="113.9083100">
    <ele>69.8</ele>
    <time>2025-08-10T14:01:36Z</time>
   </trkpt>
   <trkpt lat="35.2667580" lon="113.9083500">
    <ele>69.8</ele>
    <time>2025-08-10T14:01:37Z</time>
   </trkpt>
   <trkpt lat="35.2667600" lon="113.9083800">
    <ele>69.3</ele>
    <time>2025-08-10T14:01:38Z</time>
   </trkpt>
   <trkpt lat="35.2667770" lon="113.9084000">
    <ele>69.0</ele>
    <time>2025-08-10T14:01:39Z</time>
   </trkpt>
   <trkpt lat="35.2668000" lon="113.9084100">
    <ele>69.0</ele>
    <time>2025-08-10T14:01:40Z</time>
   </trkpt>
   <trkpt lat="35.2668270" lon="113.9083940">
    <ele>69.5</ele>
    <time>2025-08-10T14:01:41Z</time>
   </trkpt>
   <trkpt lat="35.2668380" lon="113.9083600">
    <ele>69.5</ele>
    <time>2025-08-10T14:01:42Z</time>
   </trkpt>
   <trkpt lat="35.2668500" lon="113.9083400">
    <ele>69.9</ele>
    <time>2025-08-10T14:01:43Z</time>
   </trkpt>
   <trkpt lat="35.2668600" lon="113.9083100">
    <ele>70.1</ele>
    <time>2025-08-10T14:01:44Z</time>
   </trkpt>
   <trkpt lat="35.2668720" lon="113.9082950">
    <ele>70.6</ele>
    <time>2025-08-10T14:01:45Z</time>
   </trkpt>
   <trkpt lat="35.2668880" lon="113.9082700">
    <ele>70.6</ele>
    <time>2025-08-10T14:01:46Z</time>
   </trkpt>
   <trkpt lat="35.2669030" lon="113.9082500">
    <ele>71.0</ele>
    <time>2025-08-10T14:01:47Z</time>
   </trkpt>
   <trkpt lat="35.2669100" lon="113.9082200">
    <ele>71.4</ele>
    <time>2025-08-10T14:01:48Z</time>
   </trkpt>
   <trkpt lat="35.2669100" lon="113.9081950">
    <ele>71.4</ele>
    <time>2025-08-10T14:01:49Z</time>
   </trkpt>
   <trkpt lat="35.2669200" lon="113.9081650">
    <ele>71.9</ele>
    <time>2025-08-10T14:01:50Z</time>
   </trkpt>
   <trkpt lat="35.2669200" lon="113.9081340">
    <ele>72.4</ele>
    <time>2025-08-10T14:01:51Z</time>
   </trkpt>
   <trkpt lat="35.2669220" lon="113.9081040">
    <ele>72.4</ele>
    <time>2025-08-10T14:01:52Z</time>
   </trkpt>
   <trkpt lat="35.2669260" lon="113.9080800">
    <ele>72.9</ele>
    <time>2025-08-10T14:01:53Z</time>
   </trkpt>
   <trkpt lat="35.2669330" lon="113.9080600">
    <ele>72.9</ele>
    <time>2025-08-10T14:01:54Z</time>
   </trkpt>
   <trkpt lat="35.2669500" lon="113.9080500">
    <ele>73.5</ele>
    <time>2025-08-10T14:01:55Z</time>
   </trkpt>
   <trkpt lat="35.2669700" lon="113.9080500">
    <ele>73.5</ele>
    <time>2025-08-10T14:01:56Z</time>
   </trkpt>
   <trkpt lat="35.2669940" lon="113.9080500">
    <ele>73.5</ele>
    <time>2025-08-10T14:01:57Z</time>
   </trkpt>
   <trkpt lat="35.2670170" lon="113.9080600">
    <ele>73.1</ele>
    <time>2025-08-10T14:01:58Z</time>
   </trkpt>
   <trkpt lat="35.2670440" lon="113.9080600">
    <ele>73.4</ele>
    <time>2025-08-10T14:01:59Z</time>
   </trkpt>
   <trkpt lat="35.2670670" lon="113.9080600">
    <ele>73.7</ele>
    <time>2025-08-10T14:02:00Z</time>
   </trkpt>
   <trkpt lat="35.2670900" lon="113.9080600">
    <ele>73.7</ele>
    <time>2025-08-10T14:02:01Z</time>
   </trkpt>
   <trkpt lat="35.2671170" lon="113.9080660">
    <ele>74.0</ele>
    <time>2025-08-10T14:02:02Z</time>
   </trkpt>
   <trkpt lat="35.2671400" lon="113.9080800">
    <ele>74.2</ele>
    <time>2025-08-10T14:02:03Z</time>
   </trkpt>
   <trkpt lat="35.2671500" lon="113.9081100">
    <ele>73.7</ele>
    <time>2025-08-10T14:02:04Z</time>
   </trkpt>
   <trkpt lat="35.2671600" lon="113.9081340">
    <ele>73.7</ele>
    <time>2025-08-10T14:02:05Z</time>
   </trkpt>
   <trkpt lat="35.2671620" lon="113.9081650">
    <ele>73.2</ele>
    <time>2025-08-10T14:02:06Z</time>
   </trkpt>
   <trkpt lat="35.2671620" lon="113.9081950">
    <ele>72.6</ele>
    <time>2025-08-10T14:02:07Z</time>
   </trkpt>
   <trkpt lat="35.2671600" lon="113.9082260">
    <ele>72.1</ele>
    <time>2025-08-10T14:02:08Z</time>
   </trkpt>
   <trkpt lat="35.2671600" lon="113.9082600">
    <ele>72.1</ele>
    <time>2025-08-10T14:02:09Z</time>
   </trkpt>
   <trkpt lat="35.2671550" lon="113.9082900">
    <ele>71.5</ele>
    <time>2025-08-10T14:02:10Z</time>
   </trkpt>
   <trkpt lat="35.2671470" lon="113.9083200">
    <ele>71.1</ele>
    <time>2025-08-10T14:02:11Z</time>
   </trkpt>
   <trkpt lat="35.2671400" lon="113.9083500">
    <ele>71.1</ele>
    <time>2025-08-10T14:02:12Z</time>
   </trkpt>
   <trkpt lat="35.2671360" lon="113.9083800">
    <ele>70.6</ele>
    <time>2025-08-10T14:02:13Z</time>
   </trkpt>
   <trkpt lat="35.2671300" lon="113.9084100">
    <ele>70.1</ele>
    <time>2025-08-10T14:02:14Z</time>
   </trkpt>
   <trkpt lat="35.2671300" lon="113.9084400">
    <ele>69.7</ele>
    <time>2025-08-10T14:02:15Z</time>
   </trkpt>
   <trkpt lat="35.2671300" lon="113.9084800">
    <ele>69.7</ele>
    <time>2025-08-10T14:02:16Z</time>
   </trkpt>
   <trkpt lat="35.2671300" lon="113.9085100">
    <ele>69.5</ele>
    <time>2025-08-10T14:02:17Z</time>
   </trkpt>
   <trkpt lat="35.2671280" lon="113.9085540">
    <ele>69.3</ele>
    <time>2025-08-10T14:02:18Z</time>
   </trkpt>
   <trkpt lat="35.2671300" lon="113.9086000">
    <ele>69.2</ele>
    <time>2025-08-10T14:02:19Z</time>
   </trkpt>
   <trkpt lat="35.2671360" lon="113.9086460">
    <ele>69.5</ele>
    <time>2025-08-10T14:02:20Z</time>
   </trkpt>
   <trkpt lat="35.2671400" lon="113.9086900">
    <ele>69.5</ele>
    <time>2025-08-10T14:02:21Z</time>
   </trkpt>
   <trkpt lat="35.2671430" lon="113.9087450">
    <ele>69.4</ele>
    <time>2025-08-10T14:02:22Z</time>
   </trkpt>
   <trkpt lat="35.2671470" lon="113.9088000">
    <ele>69.3</ele>
    <time>2025-08-10T14:02:23Z</time>
   </trkpt>
   <trkpt lat="35.2671500" lon="113.9088440">
    <ele>69.2</ele>
    <time>2025-08-10T14:02:24Z</time>
   </trkpt>
   <trkpt lat="35.2671500" lon="113.9089000">
    <ele>69.3</ele>
    <time>2025-08-10T14:02:25Z</time>
   </trkpt>
   <trkpt lat="35.2671500" lon="113.9089400">
    <ele>69.5</ele>
    <time>2025-08-10T14:02:26Z</time>
   </trkpt>
   <trkpt lat="35.2671500" lon="113.9090000">
    <ele>70.1</ele>
    <time>2025-08-10T14:02:27Z</time>
   </trkpt>
   <trkpt lat="35.2671500" lon="113.9090500">
    <ele>70.3</ele>
    <time>2025-08-10T14:02:28Z</time>
   </trkpt>
   <trkpt lat="35.2671470" lon="113.9091000">
    <ele>70.5</ele>
    <time>2025-08-10T14:02:29Z</time>
   </trkpt>
   <trkpt lat="35.2671430" lon="113.9091500">
    <ele>70.6</ele>
    <time>2025-08-10T14:02:30Z</time>
   </trkpt>
   <trkpt lat="35.2671300" lon="113.9091950">
    <ele>70.4</ele>
    <time>2025-08-10T14:02:31Z</time>
   </trkpt>
   <trkpt lat="35.2671200" lon="113.9092400">
    <ele>70.4</ele>
    <time>2025-08-10T14:02:32Z</time>
   </trkpt>
   <trkpt lat="35.2671100" lon="113.9092800">
    <ele>70.4</ele>
    <time>2025-08-10T14:02:33Z</time>
   </trkpt>
   <trkpt lat="35.2671050" lon="113.9093300">
    <ele>70.4</ele>
    <time>2025-08-10T14:02:34Z</time>
   </trkpt>
   <trkpt lat="35.2671000" lon="113.9093860">
    <ele>70.7</ele>
    <time>2025-08-10T14:02:35Z</time>
   </trkpt>
   <trkpt lat="35.2671000" lon="113.9094400">
    <ele>70.7</ele>
    <time>2025-08-10T14:02:36Z</time>
   </trkpt>
   <trkpt lat="35.2671050" lon="113.9094850">
    <ele>70.4</ele>
    <time>2025-08-10T14:02:37Z</time>
   </trkpt>
   <trkpt lat="35.2671130" lon="113.9095400">
    <ele>70.4</ele>
    <time>2025-08-10T14:02:38Z</time>
   </trkpt>
   <trkpt lat="35.2671170" lon="113.9095900">
    <ele>70.4</ele>
    <time>2025-08-10T14:02:39Z</time>
   </trkpt>
   <trkpt lat="35.2671170" lon="113.9096450">
    <ele>70.7</ele>
    <time>2025-08-10T14:02:40Z</time>
   </trkpt>
   <trkpt lat="35.2671280" lon="113.9096900">
    <ele>70.9</ele>
    <time>2025-08-10T14:02:41Z</time>
   </trkpt>
   <trkpt lat="35.2671500" lon="113.9097300">
    <ele>71.3</ele>
    <time>2025-08-10T14:02:42Z</time>
   </trkpt>
   <trkpt lat="35.2671850" lon="113.9097700">
    <ele>71.5</ele>
    <time>2025-08-10T14:02:43Z</time>
   </trkpt>
   <trkpt lat="35.2672160" lon="113.9098000">
    <ele>71.4</ele>
    <time>2025-08-10T14:02:44Z</time>
   </trkpt>
   <trkpt lat="35.2672580" lon="113.9098200">
    <ele>71.6</ele>
    <time>2025-08-10T14:02:45Z</time>
   </trkpt>
   <trkpt lat="35.2673000" lon="113.9098360">
    <ele>71.8</ele>
    <time>2025-08-10T14:02:46Z</time>
   </trkpt>
   <trkpt lat="35.2673380" lon="113.9098400">
    <ele>72.1</ele>
    <time>2025-08-10T14:02:47Z</time>
   </trkpt>
   <trkpt lat="35.2673800" lon="113.9098500">
    <ele>72.4</ele>
    <time>2025-08-10T14:02:48Z</time>
   </trkpt>
   <trkpt lat="35.2674180" lon="113.9098500">
    <ele>73.0</ele>
    <time>2025-08-10T14:02:49Z</time>
   </trkpt>
   <trkpt lat="35.2674560" lon="113.9098400">
    <ele>73.0</ele>
    <time>2025-08-10T14:02:50Z</time>
   </trkpt>
   <trkpt lat="35.2674870" lon="113.9098200">
    <ele>73.0</ele>
    <time>2025-08-10T14:02:51Z</time>
   </trkpt>
   <trkpt lat="35.2675060" lon="113.9097800">
    <ele>72.7</ele>
    <time>2025-08-10T14:02:52Z</time>
   </trkpt>
   <trkpt lat="35.2675170" lon="113.9097440">
    <ele>72.3</ele>
    <time>2025-08-10T14:02:53Z</time>
   </trkpt>
   <trkpt lat="35.2675250" lon="113.9097000">
    <ele>72.0</ele>
    <time>2025-08-10T14:02:54Z</time>
   </trkpt>
   <trkpt lat="35.2675320" lon="113.9096500">
    <ele>71.7</ele>
    <time>2025-08-10T14:02:55Z</time>
   </trkpt>
   <trkpt lat="35.2675400" lon="113.9096000">
    <ele>71.5</ele>
    <time>2025-08-10T14:02:56Z</time>
   </trkpt>
   <trkpt lat="35.2675440" lon="113.9095500">
    <ele>71.1</ele>
    <time>2025-08-10T14:02:57Z</time>
   </trkpt>
   <trkpt lat="35.2675480" lon="113.9095000">
    <ele>70.8</ele>
    <time>2025-08-10T14:02:58Z</time>
   </trkpt>
   <trkpt lat="35.2675500" lon="113.9094540">
    <ele>70.6</ele>
    <time>2025-08-10T14:02:59Z</time>
   </trkpt>
   <trkpt lat="35.2675500" lon="113.9094000">
    <ele>70.3</ele>
    <time>2025-08-10T14:03:00Z</time>
   </trkpt>
   <trkpt lat="35.2675550" lon="113.9093550">
    <ele>70.0</ele>
    <time>2025-08-10T14:03:01Z</time>
   </trkpt>
   <trkpt lat="35.2675550" lon="113.9093000">
    <ele>69.7</ele>
    <time>2025-08-10T14:03:02Z</time>
   </trkpt>
   <trkpt lat="35.2675480" lon="113.9092560">
    <ele>69.4</ele>
    <time>2025-08-10T14:03:03Z</time>
   </trkpt>
   <trkpt lat="35.2675400" lon="113.9092000">
    <ele>69.2</ele>
    <time>2025-08-10T14:03:04Z</time>
   </trkpt>
   <trkpt lat="35.2675250" lon="113.9091600">
    <ele>69.3</ele>
    <time>2025-08-10T14:03:05Z</time>
   </trkpt>
   <trkpt lat="35.2675130" lon="113.9091200">
    <ele>69.2</ele>
    <time>2025-08-10T14:03:06Z</time>
   </trkpt>
   <trkpt lat="35.2674980" lon="113.9090700">
    <ele>69.2</ele>
    <time>2025-08-10T14:03:07Z</time>
   </trkpt>
   <trkpt lat="35.2674900" lon="113.9090300">
    <ele>69.2</ele>
    <time>2025-08-10T14:03:08Z</time>
   </trkpt>
   <trkpt lat="35.2674870" lon="113.9089800">
    <ele>69.2</ele>
    <time>2025-08-10T14:03:09Z</time>
   </trkpt>
   <trkpt lat="35.2674870" lon="113.9089360">
    <ele>69.2</ele>
    <time>2025-08-10T14:03:10Z</time>
   </trkpt>
   <trkpt lat="35.2674870" lon="113.9088900">
    <ele>69.3</ele>
    <time>2025-08-10T14:03:11Z</time>
   </trkpt>
   <trkpt lat="35.2674830" lon="113.9088440">
    <ele>69.4</ele>
    <time>2025-08-10T14:03:12Z</time>
   </trkpt>
   <trkpt lat="35.2674830" lon="113.9088060">
    <ele>69.6</ele>
    <time>2025-08-10T14:03:13Z</time>
   </trkpt>
   <trkpt lat="35.2674870" lon="113.9087600">
    <ele>70.0</ele>
    <time>2025-08-10T14:03:14Z</time>
   </trkpt>
   <trkpt lat="35.2675200" lon="113.9087200">
    <ele>70.1</ele>
    <time>2025-08-10T14:03:15Z</time>
   </trkpt>
   <trkpt lat="35.2675400" lon="113.9086800">
    <ele>70.4</ele>
    <time>2025-08-10T14:03:16Z</time>
   </trkpt>
   <trkpt lat="35.2675550" lon="113.9086400">
    <ele>70.3</ele>
    <time>2025-08-10T14:03:17Z</time>
   </trkpt>
   <trkpt lat="35.2675700" lon="113.9086000">
    <ele>70.5</ele>
    <time>2025-08-10T14:03:18Z</time>
   </trkpt>
   <trkpt lat="35.2675800" lon="113.9085540">
    <ele>70.5</ele>
    <time>2025-08-10T14:03:19Z</time>
   </trkpt>
   <trkpt lat="35.2675820" lon="113.9085100">
    <ele>70.7</ele>
    <time>2025-08-10T14:03:20Z</time>
   </trkpt>
   <trkpt lat="35.2675820" lon="113.9084600">
    <ele>70.9</ele>
    <time>2025-08-10T14:03:21Z</time>
   </trkpt>
   <trkpt lat="35.2675860" lon="113.9084200">
    <ele>71.2</ele>
    <time>2025-08-10T14:03:22Z</time>
   </trkpt>
   <trkpt lat="35.2675900" lon="113.9083700">
    <ele>71.5</ele>
    <time>2025-08-10T14:03:23Z</time>
   </trkpt>
   <trkpt lat="35.2675900" lon="113.9083250">
    <ele>71.7</ele>
    <time>2025-08-10T14:03:24Z</time>
   </trkpt>
   <trkpt lat="35.2675860" lon="113.9082700">
    <ele>72.0</ele>
    <time>2025-08-10T14:03:25Z</time>
   </trkpt>
   <trkpt lat="35.2675820" lon="113.9082260">
    <ele>72.2</ele>
    <time>2025-08-10T14:03:26Z</time>
   </trkpt>
   <trkpt lat="35.2675800" lon="113.9081800">
    <ele>72.7</ele>
    <time>2025-08-10T14:03:27Z</time>
   </trkpt>
   <trkpt lat="35.2675700" lon="113.9081400">
    <ele>72.7</ele>
    <time>2025-08-10T14:03:28Z</time>
   </trkpt>
   <trkpt lat="35.2675670" lon="113.9081100">
    <ele>73.0</ele>
    <time>2025-08-10T14:03:29Z</time>
   </trkpt>
   <trkpt lat="35.2675670" lon="113.9080800">
    <ele>73.2</ele>
    <time>2025-08-10T14:03:30Z</time>
   </trkpt>
   <trkpt lat="35.2675670" lon="113.9080500">
    <ele>73.5</ele>
    <time>2025-08-10T14:03:31Z</time>
   </trkpt>
   <trkpt lat="35.2675670" lon="113.9080200">
    <ele>73.5</ele>
    <time>2025-08-10T14:03:32Z</time>
   </trkpt>
   <trkpt lat="35.2675630" lon="113.9079800">
    <ele>73.7</ele>
    <time>2025-08-10T14:03:33Z</time>
   </trkpt>
   <trkpt lat="35.2675550" lon="113.9079500">
    <ele>74.0</ele>
    <time>2025-08-10T14:03:34Z</time>
   </trkpt>
   <trkpt lat="35.2675320" lon="113.9079300">
    <ele>74.0</ele>
    <time>2025-08-10T14:03:35Z</time>
   </trkpt>
   <trkpt lat="35.2675060" lon="113.9079200">
    <ele>74.3</ele>
    <time>2025-08-10T14:03:36Z</time>
   </trkpt>
   <trkpt lat="35.2674750" lon="113.9079200">
    <ele>74.2</ele>
    <time>2025-08-10T14:03:37Z</time>
   </trkpt>
   <trkpt lat="35.2674450" lon="113.9079200">
    <ele>74.2</ele>
    <time>2025-08-10T14:03:38Z</time>
   </trkpt>
   <trkpt lat="35.2674140" lon="113.9079200">
    <ele>74.3</ele>
    <time>2025-08-10T14:03:39Z</time>
   </trkpt>
   <trkpt lat="35.2673870" lon="113.9079300">
    <ele>74.1</ele>
    <time>2025-08-10T14:03:40Z</time>
   </trkpt>
   <trkpt lat="35.2673600" lon="113.9079300">
    <ele>74.4</ele>
    <time>2025-08-10T14:03:41Z</time>
   </trkpt>
   <trkpt lat="35.2673380" lon="113.9079360">
    <ele>74.7</ele>
    <time>2025-08-10T14:03:42Z</time>
   </trkpt>
   <trkpt lat="35.2673150" lon="113.9079400">
    <ele>74.7</ele>
    <time>2025-08-10T14:03:43Z</time>
   </trkpt>
   <trkpt lat="35.2672920" lon="113.9079500">
    <ele>75.0</ele>
    <time>2025-08-10T14:03:44Z</time>
   </trkpt>
   <trkpt lat="35.2672730" lon="113.9079600">
    <ele>75.2</ele>
    <time>2025-08-10T14:03:45Z</time>
   </trkpt>
   <trkpt lat="35.2672580" lon="113.9079600">
    <ele>75.2</ele>
    <time>2025-08-10T14:03:46Z</time>
   </trkpt>
   <trkpt lat="35.2672420" lon="113.9079700">
    <ele>74.9</ele>
    <time>2025-08-10T14:03:47Z</time>
   </trkpt>
   <trkpt lat="35.2672270" lon="113.9079740">
    <ele>75.0</ele>
    <time>2025-08-10T14:03:48Z</time>
   </trkpt>
   <trkpt lat="35.2672200" lon="113.9079900">
    <ele>75.0</ele>
    <time>2025-08-10T14:03:49Z</time>
   </trkpt>
   <trkpt lat="35.2672270" lon="113.9080100">
    <ele>74.7</ele>
    <time>2025-08-10T14:03:50Z</time>
   </trkpt>
   <trkpt lat="35.2672400" lon="113.9080200">
    <ele>74.7</ele>
    <time>2025-08-10T14:03:51Z</time>
   </trkpt>
   <trkpt lat="35.2672580" lon="113.9080200">
    <ele>74.6</ele>
    <time>2025-08-10T14:03:52Z</time>
   </trkpt>
   <trkpt lat="35.2672770" lon="113.9080100">
    <ele>74.4</ele>
    <time>2025-08-10T14:03:53Z</time>
   </trkpt>
   <trkpt lat="35.2673030" lon="113.9080000">
    <ele>74.7</ele>
    <time>2025-08-10T14:03:54Z</time>
   </trkpt>
   <trkpt lat="35.2673300" lon="113.9080000">
    <ele>74.4</ele>
    <time>2025-08-10T14:03:55Z</time>
   </trkpt>
   <trkpt lat="35.2673530" lon="113.9080000">
    <ele>74.1</ele>
    <time>2025-08-10T14:03:56Z</time>
   </trkpt>
   <trkpt lat="35.2673800" lon="113.9080100">
    <ele>73.8</ele>
    <time>2025-08-10T14:03:57Z</time>
   </trkpt>
   <trkpt lat="35.2674000" lon="113.9080000">
    <ele>73.8</ele>
    <time>2025-08-10T14:03:58Z</time>
   </trkpt>
   <trkpt lat="35.2674030" lon="113.9080050">
    <ele>73.8</ele>
    <time>2025-08-10T14:03:59Z</time>
   </trkpt>
   <trkpt lat="35.2674140" lon="113.9080000">
    <ele>73.8</ele>
    <time>2025-08-10T14:04:00Z</time>
   </trkpt>
   <trkpt lat="35.2674370" lon="113.9079800">
    <ele>73.7</ele>
    <time>2025-08-10T14:04:01Z</time>
   </trkpt>
   <trkpt lat="35.2674520" lon="113.9079740">
    <ele>73.7</ele>
    <time>2025-08-10T14:04:02Z</time>
   </trkpt>
   <trkpt lat="35.2674700" lon="113.9079740">
    <ele>73.7</ele>
    <time>2025-08-10T14:04:03Z</time>
   </trkpt>
   <trkpt lat="35.2674870" lon="113.9079600">
    <ele>74.0</ele>
    <time>2025-08-10T14:04:04Z</time>
   </trkpt>
   <trkpt lat="35.2675060" lon="113.9079500">
    <ele>74.0</ele>
    <time>2025-08-10T14:04:05Z</time>
   </trkpt>
   <trkpt lat="35.2675250" lon="113.9079400">
    <ele>74.0</ele>
    <time>2025-08-10T14:04:06Z</time>
   </trkpt>
   <trkpt lat="35.2675440" lon="113.9079360">
    <ele>74.0</ele>
    <time>2025-08-10T14:04:07Z</time>
   </trkpt>
   <trkpt lat="35.2675630" lon="113.9079300">
    <ele>74.0</ele>
    <time>2025-08-10T14:04:08Z</time>
   </trkpt>
   <trkpt lat="35.2675800" lon="113.9079300">
    <ele>74.0</ele>
    <time>2025-08-10T14:04:09Z</time>
   </trkpt>
   <trkpt lat="35.2675930" lon="113.9079200">
    <ele>74.0</ele>
    <time>2025-08-10T14:04:10Z</time>
   </trkpt>
   <trkpt lat="35.2676100" lon="113.9079200">
    <ele>74.0</ele>
    <time>2025-08-10T14:04:11Z</time>
   </trkpt>
   <trkpt lat="35.2676200" lon="113.9079100">
    <ele>74.0</ele>
    <time>2025-08-10T14:04:12Z</time>
   </trkpt>
   <trkpt lat="35.2676300" lon="113.9079060">
    <ele>73.7</ele>
    <time>2025-08-10T14:04:13Z</time>
   </trkpt>
   <trkpt lat="35.2676200" lon="113.9079060">
    <ele>74.0</ele>
    <time>2025-08-10T14:04:14Z</time>
   </trkpt>
   <trkpt lat="35.2676200" lon="113.9079060">
    <ele>74.0</ele>
    <time>2025-08-10T14:04:15Z</time>
   </trkpt>
   <trkpt lat="35.2676160" lon="113.9079000">
    <ele>74.0</ele>
    <time>2025-08-10T14:04:16Z</time>
   </trkpt>
   <trkpt lat="35.2676280" lon="113.9079000">
    <ele>73.7</ele>
    <time>2025-08-10T14:04:17Z</time>
   </trkpt>
   <trkpt lat="35.2676350" lon="113.9078900">
    <ele>73.7</ele>
    <time>2025-08-10T14:04:18Z</time>
   </trkpt>
   <trkpt lat="35.2676430" lon="113.9078750">
    <ele>73.8</ele>
    <time>2025-08-10T14:04:19Z</time>
   </trkpt>
   <trkpt lat="35.2676430" lon="113.9078500">
    <ele>73.8</ele>
    <time>2025-08-10T14:04:20Z</time>
   </trkpt>
   <trkpt lat="35.2676280" lon="113.9078300">
    <ele>73.8</ele>
    <time>2025-08-10T14:04:21Z</time>
   </trkpt>
   <trkpt lat="35.2676050" lon="113.9078300">
    <ele>74.2</ele>
    <time>2025-08-10T14:04:22Z</time>
   </trkpt>
   <trkpt lat="35.2675860" lon="113.9078400">
    <ele>74.3</ele>
    <time>2025-08-10T14:04:23Z</time>
   </trkpt>
   <trkpt lat="35.2675700" lon="113.9078600">
    <ele>74.3</ele>
    <time>2025-08-10T14:04:24Z</time>
   </trkpt>
   <trkpt lat="35.2675630" lon="113.9078800">
    <ele>74.3</ele>
    <time>2025-08-10T14:04:25Z</time>
   </trkpt>
   <trkpt lat="35.2675500" lon="113.9079000">
    <ele>74.3</ele>
    <time>2025-08-10T14:04:26Z</time>
   </trkpt>
   <trkpt lat="35.2675430" lon="113.9079250">
    <ele>74.0</ele>
    <time>2025-08-10T14:04:27Z</time>
   </trkpt>
   <trkpt lat="35.2675410" lon="113.9079310">
    <ele>74.0</ele>
    <time>2025-08-10T14:04:28Z</time>
   </trkpt>
   <trkpt lat="35.2675400" lon="113.9079360">
    <ele>74.0</ele>
    <time>2025-08-10T14:04:28Z</time>
   </trkpt>
   <trkpt lat="35.2675400" lon="113.9079360">
    <ele>74.0</ele>
    <time>2025-08-10T14:04:28Z</time>
   </trkpt>
  </trkseg>
 </trk>
</gpx>
